Region,City,County,State,Zip Code,Site Name
1,FAIRHAVEN,BRISTOL,Massachusetts,2719,ATLAS TACK CORP.
1,LONDONDERRY,ROCKINGHAM,New Hampshire,3053,AUBURN ROAD LANDFILL
1,HOLBROOK,NORFOLK,Massachusetts,2343,BAIRD & MCGUIRE
1,BARKHAMSTED,LITCHFIELD,Connecticut,6063,BARKHAMSTED-NEW HARTFORD LANDFILL
1,BEACON FALLS,NEW HAVEN,Connecticut,6403,BEACON HEIGHTS LANDFILL
1,PLAISTOW,ROCKINGHAM,New Hampshire,3865,BEEDE WASTE OIL
1,BENNINGTON,BENNINGTON,Vermont,5201,BENNINGTON MUNICIPAL SANITARY LANDFILL
1,ROCKINGHAM,WINDHAM,Vermont,5101,BFI SANITARY LANDFILL (ROCKINGHAM)
1,FRANKLIN,NORFOLK,Massachusetts,2038,BJAT LLC
1,WALPOLE,NORFOLK,Massachusetts,2081,BLACKBURN & UNION PRIVILEGES
1,EAST WINDSOR,HARTFORD,Connecticut,6016,BROAD BROOK MILL
1,BRUNSWICK,CUMBERLAND,Maine,4011,BRUNSWICK NAVAL AIR STATION
1,WOODFORD,BENNINGTON,Vermont,5201,BURGESS BROTHERS LANDFILL
1,BROOKSVILLE (CAPE ROSIER),HANCOCK,Maine,4617,CALLAHAN MINING CORP
1,BRIDGEWATER,PLYMOUTH,Massachusetts,2324,CANNON ENGINEERING CORP. (CEC)
1,JOHNSTON,PROVIDENCE,Rhode Island,02919-4512,CENTRAL LANDFILL
1,NORTH PROVIDENCE,PROVIDENCE,Rhode Island,2911,CENTREDALE MANOR RESTORATION PROJECT
1,TYNGSBOROUGH,MIDDLESEX,Massachusetts,1879,CHARLES GEORGE RECLAMATION TRUST LANDFILL
1,CHESHIRE,NEW HAVEN,Connecticut,6410,CHESHIRE GROUND WATER CONTAMINATION
1,BERLIN,COOS,New Hampshire,3570,CHLOR-ALKALI FACILITY (FORMER)
1,NORTH HAMPTON,ROCKINGHAM,New Hampshire,3840,COAKLEY LANDFILL
1,FARMINGTON,STRAFFORD,New Hampshire,3835,COLLINS & AIKMAN PLANT (FORMER)
1,WILLISTON,CHITTENDEN,Vermont,5495,COMMERCE STREET PLUME
1,DANVERS,ESSEX,Massachusetts,1923,CREESE & COOK TANNERY (FORMER)
1,LYNDON,CALEDONIA,Vermont,5851,DARLING HILL DUMP
1,GLOCESTER,PROVIDENCE,Rhode Island,2828,DAVIS (GSR) LANDFILL
1,SMITHFIELD,PROVIDENCE,Rhode Island,2828,DAVIS LIQUID WASTE
1,NORTH KINGSTOWN,WASHINGTON,Rhode Island,2818,DAVISVILLE NAVAL CONSTRUCTION BATTALION CENTER
1,DOVER,STRAFFORD,New Hampshire,3820,DOVER MUNICIPAL LANDFILL
1,DURHAM,MIDDLESEX,Connecticut,6422,DURHAM MEADOWS
1,MEDDYBEMPS,WASHINGTON,Maine,4657,EASTERN SURPLUS
1,CORINNA,PENOBSCOT,Maine,4928,EASTLAND WOOLEN MILL
1,STRAFFORD,ORANGE,Vermont,5070,ELIZABETH MINE
1,VERSHIRE,ORANGE,Vermont,5079,ELY COPPER MINE
1,MILFORD,HILLSBOROUGH,New Hampshire,3055,FLETCHER'S PAINT WORKS & STORAGE
1,FORT DEVENS,MIDDLESEX,Massachusetts,1433,FORT DEVENS
1,SUDBURY,MIDDLESEX,Massachusetts,1775,FORT DEVENS-SUDBURY TRAINING ANNEX
1,PLAINFIELD,WINDHAM,Connecticut,6374,GALLUP'S QUARRY
1,PITTSFIELD,BERKSHIRE,Massachusetts,1201,GE - HOUSATONIC RIVER
1,GROVELAND,ESSEX,Massachusetts,1834,GROVELAND WELLS
1,BEDFORD,MIDDLESEX,Massachusetts,1730,HANSCOM FIELD/HANSCOM AIR FORCE BASE
1,MANSFIELD,BRISTOL,Massachusetts,2048,HATHEWAY & PATTERSON
1,HAVERHILL,ESSEX,Massachusetts,1830,HAVERHILL MUNICIPAL LANDFILL
1,WESTBOROUGH,WORCESTER,Massachusetts,1581,HOCOMONCO POND
1,WOBURN,MIDDLESEX,Massachusetts,1801,INDUSTRI-PLEX
1,BILLERICA,MIDDLESEX,Massachusetts,1862,IRON HORSE PARK
1,BENNINGTON,BENNINGTON,Vermont,5201,"JARD COMPANY, INC."
1,CONWAY,CARROLL,New Hampshire,3818,KEARSARGE METALLURGICAL CORP.
1,WINDHAM,CUMBERLAND,Maine,4062,KEDDY MILL
1,EPPING,ROCKINGHAM,New Hampshire,3042,KEEFE ENVIRONMENTAL SERVICES (KES)
1,NORWALK,FAIRFIELD,Connecticut,6856,KELLOGG-DEERING WELL FIELD
1,NORTH SMITHFIELD,PROVIDENCE,Rhode Island,2876,"LANDFILL & RESOURCE RECOVERY, INC. (L&RR)"
1,NAUGATUCK BOROUGH,NEW HAVEN,Connecticut,6770,"LAUREL PARK, INC."
1,LEEDS,ANDROSCOGGIN,Maine,4263,LEEDS METAL
1,WOODSTOCK,WINDHAM,Connecticut,6281,LINEMASTER SWITCH CORP.
1,LIMESTONE,AROOSTOOK,Maine,4751,LORING AIR FORCE BASE
1,WATERTOWN,MIDDLESEX,Massachusetts,2172,MATERIALS TECHNOLOGY LABORATORY (USARMY)
1,GRAY,CUMBERLAND,Maine,4039,MCKIN CO.
1,AMESBURY,ESSEX,Massachusetts,1913,MICROFAB INC (FORMER)
1,NASHUA,HILLSBOROUGH,New Hampshire,3060,MOHAWK TANNERY
1,RAYMOND,ROCKINGHAM,New Hampshire,3077,MOTTOLO PIG FARM
1,NATICK,MIDDLESEX,Massachusetts,1760,"NATICK LABORATORY ARMY RESEARCH, DEVELOPMENT, AND ENGINEERING CENTER"
1,BEDFORD,MIDDLESEX,Massachusetts,1730,NAVAL WEAPONS INDUSTRIAL RESERVE PLANT
1,NEW BEDFORD,BRISTOL,Massachusetts,2740,NEW BEDFORD
1,MERRIMACK,HILLSBOROUGH,New Hampshire,3054,NEW HAMPSHIRE PLATING CO.
1,NEW LONDON,NEW LONDON,Connecticut,6349,NEW LONDON SUBMARINE BASE
1,NEWPORT,NEWPORT,Rhode Island,2871,NEWPORT NAVAL EDUCATION & TRAINING CENTER
1,NORWOOD,NORFOLK,Massachusetts,2062,NORWOOD PCBS
1,CONCORD,MIDDLESEX,Massachusetts,01742-3897,"NUCLEAR METALS, INC."
1,WOLCOTT,NEW HAVEN,Connecticut,6716,NUTMEG VALLEY ROAD
1,ASHLAND,MIDDLESEX,Massachusetts,1721,NYANZA CHEMICAL WASTE DUMP
1,AUGUSTA,KENNEBEC,Maine,4330,O'CONNOR CO.
1,SOUTHINGTON,HARTFORD,Connecticut,6487,OLD SOUTHINGTON LANDFILL
1,SPRINGFIELD,WINDSOR,Vermont,5156,OLD SPRINGFIELD LANDFILL
1,WILMINGTON,MIDDLESEX,Massachusetts,1887,OLIN CHEMICAL
1,FALMOUTH,BARNSTABLE,Massachusetts,2542,OTIS AIR NATIONAL GUARD BASE/CAMP EDWARDS
1,KINGSTON,ROCKINGHAM,New Hampshire,3848,OTTATI & GOSS/KINGSTON STEEL DRUM
1,LYNDON,CALEDONIA,Vermont,5849,PARKER SANITARY LANDFILL
1,PORTSMOUTH/NEWINGTON,ROCKINGHAM,New Hampshire,3803,PEASE AIR FORCE BASE
1,LINCOLN/CUMBERLAND,PROVIDENCE,Rhode Island,2864,"PETERSON/PURITAN, INC."
1,COVENTRY,KENT,Rhode Island,2816,PICILLO FARM
1,CORINTH,ORANGE,Vermont,5039,PIKE HILL COPPER MINE
1,BURLINGTON,CHITTENDEN,Vermont,5401,PINE STREET CANAL
1,WASHBURN,AROOSTOOK,Maine,4786,PINETTE'S SALVAGE YARD
1,PLYMOUTH,PLYMOUTH,Massachusetts,2360,PLYMOUTH HARBOR/CANNON ENGINEERING CORP.
1,KITTERY,YORK,Maine,3904,PORTSMOUTH NAVAL SHIPYARD
1,POWNAL,BENNINGTON,Vermont,5261,POWNAL TANNERY
1,VERNON,TOLLAND,Connecticut,06066-4413,PRECISION PLATING CORP.
1,PALMER,HAMPDEN,Massachusetts,1069,PSC RESOURCES
1,STRATFORD,FAIRFIELD,Connecticut,6497,"RAYMARK INDUSTRIES, INC."
1,DARTMOUTH,BRISTOL,Massachusetts,2747,"RE-SOLVE, INC."
1,STERLING,WINDHAM,Connecticut,6377,REVERE TEXTILE PRINTS CORP.
1,LANESBORO,BERKSHIRE,Massachusetts,1237,ROSE DISPOSAL PIT
1,SOUTH KINGSTOWN,WASHINGTON,Rhode Island,2880,ROSE HILL REGIONAL LANDFILL
1,SACO,YORK,Maine,4072,SACO MUNICIPAL LANDFILL
1,SACO,YORK,Maine,4072,SACO TANNERY WASTE PITS
1,SALEM,ESSEX,Massachusetts,1970,SALEM ACRES
1,MILFORD,HILLSBOROUGH,New Hampshire,3055,SAVAGE MUNICIPAL WATER SUPPLY
1,WATERBURY,NEW HAVEN,Connecticut,6705,SCOVILL INDUSTRIAL LANDFILL
1,NORTON/ATTLEBORO,BRISTOL,Massachusetts,2703,SHPACK LANDFILL
1,LOWELL,MIDDLESEX,Massachusetts,1853,SILRESIM CHEMICAL CORP.
1,SOUTHINGTON,HARTFORD,Connecticut,6489,SOLVENTS RECOVERY SERVICE OF NEW ENGLAND
1,SOMERSWORTH,STRAFFORD,New Hampshire,3878,SOMERSWORTH SANITARY LANDFILL
1,PETERBOROUGH,HILLSBOROUGH,New Hampshire,3458,SOUTH MUNICIPAL WATER SUPPLY WELL
1,WEYMOUTH,NORFOLK,Massachusetts,2190,SOUTH WEYMOUTH NAVAL AIR STATION
1,NORTH SMITHFIELD,PROVIDENCE,Rhode Island,2824,"STAMINA MILLS, INC."
1,NEW BEDFORD,BRISTOL,Massachusetts,2740,SULLIVAN'S LEDGE
1,TEWKSBURY,MIDDLESEX,Massachusetts,1876,SUTTON BROOK DISPOSAL AREA
1,NASHUA,HILLSBOROUGH,New Hampshire,3062,SYLVESTER
1,BENNINGTON,BENNINGTON,Vermont,5404,"TANSITOR ELECTRONICS, INC."
1,BARRINGTON,STRAFFORD,New Hampshire,3825,TIBBETTS ROAD
1,LONDONDERRY,ROCKINGHAM,New Hampshire,3053,TINKHAM GARAGE
1,LONDONDERRY,ROCKINGHAM,New Hampshire,3053,TOWN GARAGE/RADIO BEACON
1,TROY,CHESHIRE,New Hampshire,3465,TROY MILLS LANDFILL
1,SOUTH HOPE,KNOX,Maine,4862,"UNION CHEMICAL CO., INC."
1,ACTON,MIDDLESEX,Massachusetts,1720,"W.R. GRACE & CO., INC. (ACTON PLANT)"
1,ATTLEBORO,BRISTOL,Massachusetts,2703,WALTON & LONSBURY INC.
1,WOBURN,MIDDLESEX,Massachusetts,1801,WELLS G&H
1,SOUTH KINGSTOWN,WASHINGTON,Rhode Island,2881,WEST KINGSTON TOWN DUMP/URI DISPOSAL AREA
1,PLYMOUTH,PENOBSCOT,Maine,4969,WEST SITE/HOWS CORNERS
1,BURRILLVILLE,PROVIDENCE,Rhode Island,2895,WESTERN SAND & GRAVEL
1,WINTHROP,KENNEBEC,Maine,4364,WINTHROP LANDFILL
1,CANTERBURY,WINDHAM,Connecticut,6331,YAWORSKI WASTE LAGOON
2,SPARTA TOWNSHIP,SUSSEX,New Jersey,7871,A. O. POLYMER
2,COPIAGUE,SUFFOLK,New York,11701,"ACTION ANODIZING, PLATING, & POLISHING CORP."
2,BRIDGEWATER,SOMERSET,New Jersey,8805,AMERICAN CYANAMID CO
2,SOUTH CAIRO,GREENE,New York,12482,AMERICAN THERMOSTAT CO.
2,HICKSVILLE,NASSAU,New York,11801,ANCHOR CHEMICALS
2,GLENWOOD LANDING,NASSAU,New York,11545,APPLIED ENVIRONMENTAL SERVICES
2,MILLINGTON,MORRIS,New Jersey,7946,ASBESTOS DUMP
2,VIEQUES,VIEQUES,Puerto Rico,765,ATLANTIC FLEET WEAPONS TRAINING AREA
2,SAYREVILLE,MIDDLESEX,New Jersey,8872,ATLANTIC RESOURCES
2,FLORIDA AFUERA,[blank county],Puerto Rico,617,BARCELONETA LANDFILL
2,BATAVIA,GENESEE,New York,14020,BATAVIA LANDFILL
2,BERKELEY TOWNSHIP,OCEAN,New Jersey,8722,BEACHWOOD/BERKELEY WELLS
2,VESTAL,BROOME,New York,13850,BEC TRUCKING
2,BOHEMIA,SUFFOLK,New York,11716,"BIOCLINICAL LABORATORIES, INC."
2,TOWN OF CHAMPION,JEFFERSON,New York,13619,BLACK RIVER PCBS
2,HOWELL TOWNSHIP,MONMOUTH,New Jersey,7727,BOG CREEK FARM
2,PUTNAM COUNTY,PUTNAM,New York,10509,BREWSTER WELL FIELD
2,BRICK TOWNSHIP,OCEAN,New Jersey,8723,BRICK TOWNSHIP LANDFILL
2,BRIDGEPORT,GLOUCESTER,New Jersey,8014,BRIDGEPORT RENTAL & OIL SERVICES
2,BOUND BROOK,SOMERSET,New Jersey,8805,BROOK INDUSTRIAL PARK
2,UPTON,SUFFOLK,New York,11961,BROOKHAVEN NATIONAL LABORATORY (USDOE)
2,MARLBORO TOWNSHIP,MONMOUTH,New Jersey,7746,BURNT FLY BOG
2,BYRON TOWNSHIP,GENESEE,New York,14422,BYRON BARREL & DRUM
2,HAMILTON,MADISON,New York,13346,C & J DISPOSAL LEASING CO. DUMP
2,CABO ROJO,CABO ROJO,Puerto Rico,623,CABO ROJO GROUND WATER CONTAMINATION
2,FAIRFIELD,ESSEX,New Jersey,7004,CALDWELL TRUCKING CO.
2,PORT JERVIS,ORANGE,New York,12771,CARROLL & DUBIES SEWAGE DISPOSAL
2,UNION SPRINGS,CAYUGA,New York,13160,CAYUGA GROUNDWATER CONTAMINATION SITE
2,ELIZABETH,UNION,New Jersey,7202,CHEMICAL CONTROL
2,EDISON TOWNSHIP,MIDDLESEX,New Jersey,8817,CHEMICAL INSECTICIDE CORP.
2,BRIDGEPORT,GLOUCESTER,New Jersey,8014,"CHEMICAL LEAMAN TANK LINES, INC."
2,PISCATAWAY,MIDDLESEX,New Jersey,8854,"CHEMSOL, INC."
2,TOMS RIVER,OCEAN,New Jersey,8753,CIBA-GEIGY CORP.
2,CIDRA,CIDRA,Puerto Rico,8750,CIDRA GROUNDWATER CONTAMINATION
2,CINNAMINSON TOWNSHIP,BURLINGTON,New Jersey,8077,CINNAMINSON TOWNSHIP (BLOCK 702) GROUND WATER CONTAMINATION
2,EAST FARMINGDALE,SUFFOLK,New York,11735,CIRCUITRON CORP.
2,OLD BETHPAGE,NASSAU,New York,11804,CLAREMONT POLYCHEMICAL
2,TOWN OF GRANBY,OSWEGO,New York,13069,CLOTHIER DISPOSAL
2,TOWN OF COLESVILLE,BROOME,New York,13813,COLESVILLE MUNICIPAL LANDFILL
2,MOUNT OLIVE TOWNSHIP,MORRIS,New Jersey,7828,COMBE FILL NORTH LANDFILL
2,CHESTER TOWNSHIP,MORRIS,New Jersey,7930,COMBE FILL SOUTH LANDFILL
2,HAUPPAUGE,SUFFOLK,New York,11788,COMPUTER CIRCUITS
2,CONKLIN,BROOME,New York,13748,CONKLIN DUMPS
2,NEWBURGH,ORANGE,New York,12550,CONSOLIDATED IRON AND METAL
2,VOORHEES TOWNSHIP,CAMDEN,New Jersey,8043,COOPER ROAD
2,SOUTH PLAINFIELD,MIDDLESEX,New Jersey,7080,CORNELL DUBILIER ELECTRONICS INC.
2,COROZAL,COROZAL,Puerto Rico,783,COROZAL WELL
2,VIL OF NARROWSBURG,SULLIVAN,New York,12764,CORTESE LANDFILL
2,BEVERLY,BURLINGTON,New Jersey,8010,COSDEN CHEMICAL COATINGS CORP.
2,OLD BRIDGE TOWNSHIP,MIDDLESEX,New Jersey,8857,CPS/MADISON INDUSTRIES
2,CARTHAGE,JEFFERSON,New York,13619,CROWN CLEANERS OF WATERTOWN INC.
2,ALEXANDRIA TOWNSHIP,HUNTERDON,New Jersey,8848,CROWN VANTAGE LANDFILL
2,SADDLE BROOK TWP,BERGEN,New Jersey,7662,"CURCIO SCRAP METAL, INC."
2,MILFORD,HUNTERDON,New Jersey,8848,"CURTIS SPECIALTY PAPERS, INC"
2,HAMILTON TOWNSHIP,ATLANTIC,New Jersey,8330,D'IMPERIO PROPERTY
2,WHARTON BOROUGH,MORRIS,New Jersey,7885,DAYCO CORP./L.E CARPENTER CO.
2,KINGWOOD TOWNSHIP,HUNTERDON,New Jersey,8825,DE REWAL CHEMICAL CO.
2,EGG HARBOR TOWNSHIP,ATLANTIC,New Jersey,8221,DELILAH ROAD
2,BAYVILLE,OCEAN,New Jersey,8721,DENZER & SCHAFER X-RAY CO.
2,NASSAU,RENSSELAER,New York,12123,DEWEY LOEFFEL LANDFILL
2,NEWARK,ESSEX,New Jersey,7105,DIAMOND ALKALI CO.
2,KEARNY,HUDSON,New Jersey,7032,DIAMOND HEAD OIL REFINERY DIV.
2,HOLLEY,ORLEANS,New York,14470,DIAZ CHEMICAL
2,DORADO,DORADO,Puerto Rico,646,DORADO GROUND WATER CONTAMINATION
2,DOVER,MORRIS,New Jersey,7801,DOVER MUNICIPAL WELL 4
2,LOCKPORT,NIAGARA,New York,14094,EIGHTEENMILE CREEK
2,ELLENVILLE,ULSTER,New York,12428,ELLENVILLE SCRAP IRON AND METAL
2,EVESHAM TOWNSHIP,BURLINGTON,New Jersey,8053,ELLIS PROPERTY
2,GALLOWAY TOWNSHIP,ATLANTIC,New Jersey,8215,EMMELL'S SEPTIC LANDFILL
2,VILLAGE OF ENDICOTT,BROOME,New York,13760,ENDICOTT VILLAGE WELL FIELD
2,OLD BRIDGE TOWNSHIP,MIDDLESEX,New Jersey,8857,EVOR PHILLIPS LEASING
2,SHAMONG TOWNSHIP,BURLINGTON,New Jersey,8088,EWAN PROPERTY
2,ELMIRA,CHEMUNG,New York,14903,"FACET ENTERPRISES, INC."
2,FAIR LAWN,BERGEN,New Jersey,7410,FAIR LAWN WELL FIELD
2,ATLANTIC COUNTY,ATLANTIC,New Jersey,8405,FEDERAL AVIATION ADMINISTRATION TECHNICAL CENTER (USDOT)
2,MANVILLE,SOMERSET,New Jersey,8835,FEDERAL CREOSOTE
2,JOBOS,[blank county],Puerto Rico,654,FIBERS PUBLIC SUPPLY WELLS
2,FLORENCE TOWNSHIP,BURLINGTON,New Jersey,8518,"FLORENCE LAND RECONTOURING, INC., LANDFILL"
2,TOWN OF SHELBY,ORLEANS,New York,14103,FMC CORP. (DUBLIN ROAD LANDFILL)
2,NIAGARA FALLS,NIAGARA,New York,14301,FOREST GLEN MOBILE HOME SUBDIVISION
2,VINELAND,CUMBERLAND,New Jersey,8360,FORMER KIL-TONE COMPANY
2,PEMBERTON TOWNSHIP,BURLINGTON,New Jersey,8562,FORT DIX (LANDFILL SITE)
2,FRANKLIN TOWNSHIP,GLOUCESTER,New Jersey,8322,FRANKLIN BURN
2,EAST BRUNSWICK TOWNSHIP,MIDDLESEX,New Jersey,8816,FRIED INDUSTRIES
2,UPPER FREEHOLD TWP,MONMOUTH,New Jersey,8514,FRIEDMAN PROPERTY
2,RIO ABAJO,HUMACAO,Puerto Rico,661,FRONTERA CREEK
2,GARDEN CITY PARK,NASSAU,New York,11040,FULTON AVENUE
2,FULTON,OSWEGO,New York,13069,FULTON TERMINALS
2,MINOTOLA,ATLANTIC,New Jersey,8341,GARDEN STATE CLEANERS CO.
2,GARFIELD,BERGEN,New Jersey,7026,GARFIELD GROUND WATER CONTAMINATION
2,VILLAGE OF SIDNEY,DELAWARE,New York,13838,GCL TIE AND TREATING INC.
2,SOUTH GLENS FALLS,SARATOGA,New York,12803,GE MOREAU
2,JUANA DIAZ,[blank county],Puerto Rico,665,GE WIRING DEVICES
2,GLOUCESTER TOWNSHIP,CAMDEN,New Jersey,8012,GEMS LANDFILL
2,MASSENA,ST. LAWRENCE,New York,13662,GENERAL MOTORS (CENTRAL FOUNDRY DIVISION)
2,FRANKLIN SQUARE,NASSAU,New York,11010,GENZALE PLATING CO.
2,GLEN RIDGE,ESSEX,New Jersey,7028,GLEN RIDGE RADIUM SITE
2,OLD BRIDGE TOWNSHIP,MIDDLESEX,New Jersey,8857,GLOBAL SANITARY LANDFILL
2,HOLBROOK,SUFFOLK,New York,11741,"GOLDISC RECORDINGS, INC."
2,PLUMSTEAD TOWNSHIP,OCEAN,New Jersey,8533,GOOSE FARM
2,BROOKLYN,KINGS,New York,11231,GOWANUS CANAL
2,HOBOKEN,HUDSON,New Jersey,7030,GRAND STREET MERCURY
2,ROME,ONEIDA,New York,13440,GRIFFISS AIR FORCE BASE (11 AREAS)
2,TOWN OF HYDE PARK,DUTCHESS,New York,12538,HAVILAND COMPLEX
2,MANTUA TOWNSHIP,GLOUCESTER,New Jersey,8051,HELEN KRAMER LANDFILL
2,GIBBSTOWN,GLOUCESTER,New Jersey,8027,"HERCULES, INC. (GIBBSTOWN PLANT)"
2,PLATTEKILL,ULSTER,New York,12568,HERTEL LANDFILL
2,KINGSTON,SOMERSET,New Jersey,8526,HIGGINS DISPOSAL
2,FRANKLIN TOWNSHIP,SOMERSET,New Jersey,8540,HIGGINS FARM
2,WEST WINFIELD,HERKIMER,New York,13491,HITEMAN LEATHER
2,NIAGARA FALLS,NIAGARA,New York,14304,HOOKER (102ND STREET)
2,NIAGARA FALLS,NIAGARA,New York,14304,HOOKER (HYDE PARK)
2,NIAGARA FALLS,NIAGARA,New York,14303,HOOKER (S AREA)
2,HICKSVILLE,NASSAU,New York,11801,HOOKER CHEMICAL & PLASTICS CORP./RUCO POLYMER CORP.
2,HOPEWELL JUNCTION,DUTCHESS,New York,12533-8323,HOPEWELL PRECISION
2,PLUMSTEAD TOWNSHIP,OCEAN,New Jersey,8533,HOPKINS FARM
2,CAGUAS,CAGUAS,Puerto Rico,725,HORMIGAS GROUND WATER PLUME
2,SAYREVILLE,MIDDLESEX,New Jersey,8872,HORSESHOE ROAD
2,HUDSON RIVER,WASHINGTON,New York,12801,HUDSON RIVER PCBS
2,HILLBURN,ROCKLAND,New York,10931,"HUDSON TECHNOLOGIES, INC."
2,VINELAND,CUMBERLAND,New Jersey,8360,ICELAND COIN LAUNDRY AREA GW PLUME
2,MORGANVILLE,MONMOUTH,New Jersey,7751,"IMPERIAL OIL CO., INC./CHAMPION CHEMICALS"
2,WALLINGTON BOROUGH,BERGEN,New Jersey,7057,INDUSTRIAL LATEX CORP.
2,CHRISTIANSTED,ST. CROIX,Virgin Islands of the U.S.,820,ISLAND CHEMICAL CORP/VIRGIN ISLANDS CHEMICAL CORP.
2,ISLIP,SUFFOLK,New York,11751,ISLIP MUNICIPAL SANITARY LANDFILL
2,MINEOLA/NORTH HEMPSTEAD,NASSAU,New York,11501,JACKSON STEEL
2,JACKSON TOWNSHIP,OCEAN,New Jersey,8527,JACKSON TOWNSHIP LANDFILL
2,SOUTH BRUNSWICK,MIDDLESEX,New Jersey,8831,JIS LANDFILL
2,TOWN OF JOHNSTOWN,FULTON,New York,12095,JOHNSTOWN CITY LANDFILL
2,CALEDONIA,LIVINGSTON,New York,14423,"JONES CHEMICALS, INC."
2,HYDE PARK,DUTCHESS,New York,12538,JONES SANITATION
2,JUNCOS,JUNCOS,Puerto Rico,666,JUNCOS LANDFILL
2,TOWN OF BEDFORD,WESTCHESTER,New York,10536,KATONAH MUNICIPAL WELL
2,SPRINGFIELD TWP(JOBSTOWN),BURLINGTON,New Jersey,8041,"KAUFFMAN & MINTEER, INC."
2,FARMINGDALE,SUFFOLK,New York,11735,KENMARK TEXTILE CORP.
2,HORSEHEADS,CHEMUNG,New York,14845,KENTUCKY AVENUE WELL FIELD
2,EDISON TOWNSHIP,MIDDLESEX,New Jersey,8817,KIN-BUC LANDFILL
2,WINSLOW TOWNSHIP,CAMDEN,New Jersey,8095,KING OF PRUSSIA
2,HILLSBOROUGH TOWNSHIP,SOMERSET,New Jersey,8853,KRYSOWATY FARM
2,MOUNT HOLLY,BURLINGTON,New Jersey,8060,LANDFILL & DEVELOPMENT CO.
2,PEMBERTON TOWNSHIP,BURLINGTON,New Jersey,8015,LANG PROPERTY
2,PORT JEFFERSON STATION,SUFFOLK,New York,11776,"LAWRENCE AVIATION INDUSTRIES, INC."
2,LINDEN,UNION,New Jersey,7036,LCP CHEMICALS INC.
2,LE ROY,GENESEE,New York,14482,LEHIGH VALLEY RAILROAD
2,GLEN COVE,NASSAU,New York,11542,LI TUNGSTEN CORP.
2,FARMINGDALE,NASSAU,New York,11735,LIBERTY INDUSTRIAL FINISHING
2,WINSLOW TOWNSHIP,CAMDEN,New Jersey,8009,LIGHTMAN DRUM COMPANY
2,PITMAN,GLOUCESTER,New Jersey,8071,LIPARI LANDFILL
2,LITTLE VALLEY,CATTARAUGUS,New York,14755,LITTLE VALLEY
2,LODI,BERGEN,New Jersey,7644,LODI MUNICIPAL WELL
2,FREEHOLD TOWNSHIP,MONMOUTH,New Jersey,7728,LONE PINE LANDFILL
2,NIAGARA FALLS,NIAGARA,New York,14304,LOVE CANAL
2,CLAYVILLE,ONEIDA,New York,13322,LUDLOW SAND & GRAVEL
2,ASBURY PARK,MONMOUTH,New Jersey,7755,M&T DELISA LANDFILL
2,CENTRAL ISLIP,SUFFOLK,New York,11722,MACKENZIE CHEMICAL WORKS
2,CORTLANDT MANOR,WESTCHESTER,New York,10567,MAGNA METALS
2,MALTA,SARATOGA,New York,12020,MALTA ROCKET FUEL AREA
2,GALLOWAY TOWNSHIP,ATLANTIC,New Jersey,8213,MANNHEIM AVENUE DUMP
2,BYRAM,SUSSEX,New Jersey,7874,MANSFIELD TRAIL DUMP
2,COLD SPRINGS,PUTNAM,New York,10516,MARATHON BATTERY CORP.
2,CAMDEN,CAMDEN,New Jersey,8104,"MARTIN AARON, INC."
2,WOOLWICH TOWNSHIP,GLOUCESTER,New Jersey,8085,"MATLACK, INC."
2,THOROFARE,GLOUCESTER,New Jersey,8086,MATTEO & SONS INC.
2,GLEN COVE,NASSAU,New York,11542,"MATTIACE PETROCHEMICAL CO., INC."
2,MAUNABO,MAUNABO,Puerto Rico,707,MAUNABO URBANO PUBLIC WELLS
2,MAYWOOD/ROCHELLE PARK,BERGEN,New Jersey,7607,MAYWOOD CHEMICAL CO.
2,WRIGHTSTOWN,BURLINGTON,New Jersey,8641,MCGUIRE AIR FORCE BASE #1
2,COLONIE,ALBANY,New York,12205,"MERCURY REFINING, INC."
2,FRANKLIN BOROUGH,SUSSEX,New Jersey,7416,METALTEC/AEROSYSTEMS
2,MIDDLESEX,MIDDLESEX,New Jersey,8846,MIDDLESEX SAMPLING PLANT (USDOE)
2,HIGH FALLS,ULSTER,New York,12440,MOHONK ROAD INDUSTRIAL PLANT
2,WALL TOWNSHIP,MONMOUTH,New Jersey,7727,"MONITOR DEVICES, INC./INTERCIRCUITS, INC."
2,MONROE TOWNSHIP,MIDDLESEX,New Jersey,8520,MONROE TOWNSHIP LANDFILL
2,MONTCLAIR/WEST ORANGE,ESSEX,New Jersey,7044,MONTCLAIR/WEST ORANGE RADIUM SITE
2,MONTGOMERY TOWNSHIP,SOMERSET,New Jersey,8558,MONTGOMERY TOWNSHIP HOUSING DEVELOPMENT
2,FRANKLIN TOWNSHIP,HUNTERDON,New Jersey,8822,MYERS PROPERTY
2,MILLVILLE,CUMBERLAND,New Jersey,8332,NASCOLITE CORP.
2,LAKEHURST,OCEAN,New Jersey,8733,NAVAL AIR ENGINEERING CENTER
2,SABANA SECA,[blank county],Puerto Rico,749,NAVAL SECURITY GROUP ACTIVITY
2,COLTS NECK,MONMOUTH,New Jersey,7722,NAVAL WEAPONS STATION EARLE (SITE A)
2,MAYBROOK,ORANGE,New York,12543,"NEPERA CHEMICAL CO., INC."
2,NEW CASSEL/HICKSVILLE,NASSAU,New York,11590,NEW CASSEL/HICKSVILLE GROUND WATER CONTAMINATION
2,"BROOKLYN, QUEENS",[blank county],New York,11222,NEWTOWN CREEK
2,WHEATFIELD,NIAGARA,New York,14150,NIAGARA COUNTY REFUSE
2,SARATOGA SPRINGS,SARATOGA,New York,12866,NIAGARA MOHAWK POWER CORP. (SARATOGA SPRINGS PLANT)
2,PEDRICKTOWN (OLDMANS TOWN,SALEM,New Jersey,8067,NL INDUSTRIES
2,NORTH SEA,SUFFOLK,New York,11968,NORTH SEA MUNICIPAL LANDFILL
2,OYSTER BAY,NASSAU,New York,11804,OLD BETHPAGE LANDFILL
2,GARDEN CITY,NASSAU,New York,11530,OLD ROOSEVELT FIELD CONTAMINATED GW AREA
2,OLEAN,CATTARAUGUS,New York,14760,OLEAN WELL FIELD
2,SYRACUSE,ONONDAGA,New York,13209,ONONDAGA LAKE
2,WEST ORANGE/ORANGE,ESSEX,New Jersey,7051,ORANGE VALLEY REGIONAL GROUND WATER CONTAMINATION
2,UTUADO,[blank county],Puerto Rico,641,"PAPELERA PUERTORRIQUENA, INC."
2,HEMPSTEAD,NASSAU,New York,11530,"PASLEY SOLVENTS & CHEMICALS, INC."
2,HEWLETT,NASSAU,New York,11557,PENINSULA BOULEVARD GROUNDWATER PLUME
2,BOONTON,MORRIS,New Jersey,7005,PEPE FIELD
2,ARECIBO,ARECIBO,Puerto Rico,612,PESTICIDE WAREHOUSE I
2,MANATI,MANATI,Puerto Rico,701,PESTICIDE WAREHOUSE III
2,GOWANDA,CATTARAUGUS,New York,14070,PETER COOPER
2,DAYTON,CATTARAUGUS,New York,14138,PETER COOPER CORPORATION (MARKHAMS)
2,CHEEKTOWAGA,ERIE,New York,14225,PFOHL BROTHERS LANDFILL
2,ROCKAWAY TOWNSHIP,MORRIS,New Jersey,7801,PICATINNY ARSENAL (USARMY)
2,NEWARK,ESSEX,New Jersey,7105,PIERSON'S CREEK
2,PLUMSTEAD TOWNSHIP,OCEAN,New Jersey,8533,PIJAK FARM
2,JERSEY CITY,HUDSON,New Jersey,7306,PJP LANDFILL
2,PLATTSBURGH,CLINTON,New York,12901,PLATTSBURGH AIR FORCE BASE
2,WARREN COUNTY,WARREN,New Jersey,7882,POHATCONG VALLEY GROUND WATER CONTAMINATION
2,OSWEGO,OSWEGO,New York,13126,POLLUTION ABATEMENT SERVICES
2,GALLOWAY TOWNSHIP,ATLANTIC,New Jersey,8240,POMONA OAKS RESIDENTIAL WELLS
2,PORT WASHINGTON,NASSAU,New York,11050,PORT WASHINGTON LANDFILL
2,FARMINGDALE,SUFFOLK,New York,11735,PREFERRED PLATING CORP.
2,PLEASANTVILLE,ATLANTIC,New Jersey,8232,PRICE LANDFILL
2,PENUELAS,PENUELAS,Puerto Rico,624,PROTECO
2,PENNSAUKEN TOWNSHIP,CAMDEN,New Jersey,8110,PUCHACK WELL FIELD
2,EDGEWATER,BERGEN,New Jersey,7020,QUANTA RESOURCES
2,ROCKAWAY TOWNSHIP,MORRIS,New Jersey,7866,"RADIATION TECHNOLOGY, INC."
2,QUEENS,QUEENS,New York,11377,"RADIUM CHEMICAL CO., INC."
2,RAMAPO,ROCKLAND,New York,10974,RAMAPO LANDFILL
2,OLD BRIDGE TWP/SAYREVILLE,MIDDLESEX,New Jersey,8879,RARITAN BAY SLAG
2,BARCELONETA,[blank county],Puerto Rico,617,RCA DEL CARIBE
2,PLEASANT PLAINS,OCEAN,New Jersey,8753,REICH FARMS
2,EDISON TOWNSHIP,MIDDLESEX,New Jersey,8837,"RENORA, INC."
2,SIDNEY CENTER,DELAWARE,New York,13839,RICHARDSON HILL ROAD LANDFILL/POND
2,RINGWOOD BOROUGH,PASSAIC,New Jersey,7456,RINGWOOD MINES/LANDFILL
2,NEWARK,ESSEX,New Jersey,7104,RIVERSIDE INDUSTRIAL PARK
2,TOWN OF VESTAL,BROOME,New York,13850,"ROBINTECH, INC./NATIONAL PIPE CO."
2,ROCKAWAY TOWNSHIP,MORRIS,New Jersey,7866,ROCKAWAY BOROUGH WELL FIELD
2,ROCKAWAY TOWNSHIP,MORRIS,New Jersey,7866,ROCKAWAY TOWNSHIP WELLS
2,ROCKY HILL BOROUGH,SOMERSET,New Jersey,8553,ROCKY HILL MUNICIPAL WELL
2,FLORENCE,BURLINGTON,New Jersey,8554,ROEBLING STEEL CO.
2,GREEN VILLAGE,MORRIS,New Jersey,7935,ROLLING KNOLLS LF
2,CORTLAND,CORTLAND,New York,13045,ROSEN BROTHERS SCRAP YARD/DUMP
2,GIBBSBORO,CAMDEN,New Jersey,8026,ROUTE 561 DUMP
2,NOYACK/SAG HARBOR,SUFFOLK,New York,11963,ROWE INDUSTRIES GROUND WATER CONTAMINATION
2,VILLAGE OF HOOSICK FALLS,RENSSELAER,New York,12090,SAINT-GOBAIN PERFORMANCE PLASTICS
2,San German,SAN GERMAN,Puerto Rico,683,SAN GERMAN GROUND WATER CONTAMINATION
2,AMENIA,DUTCHESS,New York,12501,SARNEY FARM
2,SAYREVILLE,MIDDLESEX,New Jersey,8872,SAYREVILLE LANDFILL
2,CARLSTADT,BERGEN,New Jersey,7072,SCIENTIFIC CHEMICAL PROCESSING
2,CANDELERIA WARD,[blank county],Puerto Rico,759,"SCORPIO RECYCLING, INC."
2,LISBON,ST. LAWRENCE,New York,13669,"SEALAND RESTORATION, INC."
2,ROMULUS,SENECA,New York,14541,SENECA ARMY DEPOT
2,"PARSIPPANY, TROY HLS",MORRIS,New Jersey,7054,SHARKEY LANDFILL
2,EAST FISHKILL,DUTCHESS,New York,12533,SHENANDOAH ROAD GROUNDWATER CONTAMINATION
2,Gibbsboro,CAMDEN,New Jersey,8026,SHERWIN-WILLIAMS/HILLIARDS CREEK
2,NEWFIELD BOROUGH,GLOUCESTER,New Jersey,8344,SHIELDALLOY CORP.
2,SIDNEY,DELAWARE,New York,13839,SIDNEY LANDFILL
2,WELLSVILLE,ALLEGANY,New York,14895,SINCLAIR REFINERY
2,SMITHTOWN,SUFFOLK,New York,11780,SMITHTOWN GROUND WATER CONTAMINATION
2,DEER PARK,SUFFOLK,New York,11729,"SMS INSTRUMENTS, INC."
2,LINCKLAEN,CHENANGO,New York,13052,SOLVENT SAVERS
2,SOUTH BRUNSWICK,MIDDLESEX,New Jersey,8852,SOUTH BRUNSWICK LANDFILL
2,MINOTOLA,ATLANTIC,New Jersey,8341,SOUTH JERSEY CLOTHING CO.
2,PLUMSTEAD TOWNSHIP,OCEAN,New Jersey,8533,SPENCE FARM
2,KEARNY,HUDSON,New Jersey,7032,STANDARD CHLORINE
2,GREAT NECK,NASSAU,New York,11021,STANTON CLEANERS AREA GROUND WATER CONTAMINATION
2,VILLAGE OF SUFFERN,ROCKLAND,New York,10901,SUFFERN VILLAGE WELL FIELD
2,PENNSAUKEN TOWNSHIP,CAMDEN,New Jersey,8110,SWOPE OIL & CHEMICAL CO.
2,SOUTH KEARNY,HUDSON,New Jersey,7032,SYNCON RESINS
2,OYSTER BAY,NASSAU,New York,11791,SYOSSET LANDFILL
2,TABERNACLE TOWNSHIP,BURLINGTON,New Jersey,8088,TABERNACLE DRUM DUMP
2,ARECIBO,ARECIBO,Puerto Rico,612,THE BATTERY RECYCLING COMPANY
2,PORT CRANE,BROOME,New York,13833,"TRI-CITIES BARREL CO., INC."
2,FARMINGDALE,SUFFOLK,New York,11735,"TRONIC PLATING CO., INC."
2,TUTU,ST. THOMAS,Virgin Islands of the U.S.,801,TUTU WELLFIELD
2,ORANGE,ESSEX,New Jersey,7050,U.S. RADIUM CORP.
2,FAIRFIELD,ESSEX,New Jersey,7004,UNIMATIC MANUFACTURING CORPORATION
2,GIBBSBORO,CAMDEN,New Jersey,8026,UNITED STATES AVENUE BURN
2,EAST RUTHERFORD,BERGEN,New Jersey,7073,UNIVERSAL OIL PRODUCTS (CHEMICAL DIVISION)
2,BARCELONETA,BARCELONETA,Puerto Rico,617,UPJOHN FACILITY
2,UPPER DEERFIELD TOWNSHIP,CUMBERLAND,New Jersey,8302,UPPER DEERFIELD TOWNSHIP SANITARY LANDFILL
2,ALMIRANTE NORTE WARD,VEGA BAJA,Puerto Rico,763,V&M/ALBALADEJO
2,VEGA ALTA,[blank county],Puerto Rico,762,VEGA ALTA PUBLIC SUPPLY WELLS
2,RIO ABAJO WARD,VEGA BAJA,Puerto Rico,763,VEGA BAJA SOLID WASTE DISPOSAL
2,WOOD RIDGE BOROUGH,BERGEN,New Jersey,7075,VENTRON/VELSICOL
2,VESTAL,BROOME,New York,13850,VESTAL WATER SUPPLY WELL 1-1
2,VESTAL,BROOME,New York,13850,VESTAL WATER SUPPLY WELL 4-2
2,VINELAND,CUMBERLAND,New Jersey,8360,"VINELAND CHEMICAL CO., INC."
2,VINELAND,CUMBERLAND,New Jersey,8360,VINELAND STATE SCHOOL
2,TOWN OF VOLNEY,OSWEGO,New York,13069,VOLNEY MUNICIPAL LANDFILL
2,WAYNE TOWNSHIP,PASSAIC,New Jersey,7470,"W.R. GRACE & CO., INC./WAYNE INTERIM STORAGE SITE (USDOE)"
2,WALL TOWNSHIP,MONMOUTH,New Jersey,7719,"WALDICK AEROSPACE DEVICES, INC."
2,"WAPPINGER FALLS, TOWN OF WAPPINGER, TOWN OF POUGHKEEPSIE",DUTCHESS,New York,12590,WAPPINGER CREEK
2,WARWICK,ORANGE,New York,10990,WARWICK LANDFILL
2,CAMDEN AND GLOUCESTER CIT,CAMDEN,New Jersey,8030,WELSBACH & GENERAL GAS MANTLE (CAMDEN RADIATION)
2,NEWARK,ESSEX,New Jersey,7114,WHITE CHEMICAL CORP.
2,WALL TWP,MONMOUTH,New Jersey,7719,WHITE SWAN LAUNDRY AND CLEANER INC.
2,BRANT,ERIE,New York,14027,WIDE BEACH DEVELOPMENT
2,SWAINTON MIDDLE,CAPE MAY,New Jersey,8210,WILLIAMS PROPERTY
2,PLUMSTEAD TOWNSHIP,[blank county],New Jersey,8533,WILSON FARM
2,OAKLAND,BERGEN,New Jersey,7436,WITCO CHEMICAL CORP. (OAKLAND PLANT)
2,RIDGEWOOD,QUEENS,New York,11385,WOLFF-ALPORT CHEMICAL COMPANY
2,SOUTH PLAINFIELD,MIDDLESEX,New Jersey,8820,WOODBROOK ROAD DUMP
2,WOODLAND TOWNSHIP,BURLINGTON,New Jersey,8019,WOODLAND ROUTE 532 DUMP
2,WOODLAND TOWNSHIP,BURLINGTON,New Jersey,8019,WOODLAND ROUTE 72 DUMP
2,MOIRA,FRANKLIN,New York,12957,YORK OIL CO.
2,HOWELL TOWNSHIP,MONMOUTH,New Jersey,7731,ZSCHIEGNER REFINING
3,ROSEDALE,BALTIMORE,Maryland,21237,68TH STREET DUMP/INDUSTRIAL ENTERPRISES
3,EXTON,CHESTER,Pennsylvania,19341,A.I.W. FRANK/MID-COUNTY MUSTANG
3,EDGEWOOD,HARFORD,Maryland,21010,ABERDEEN PROVING GROUND (EDGEWOOD AREA)
3,ABERDEEN,HARFORD,Maryland,21005,ABERDEEN PROVING GROUND (MICHAELSVILLE LANDFILL)
3,PORTSMOUTH,PORTSMOUTH CITY,Virginia,23704,ABEX CORP.
3,SCOTT TOWNSHIP,LACKAWANNA,Pennsylvania,18411,ALADDIN PLATING
3,MINERAL COUNTY,MINERAL,West Virginia,26753,ALLEGANY BALLISTICS LABORATORY (USNAVY)
3,AMBLER,MONTGOMERY,Pennsylvania,19002,AMBLER ASBESTOS PILES
3,GLEN ROCK,YORK,Pennsylvania,17327,"AMP, INC. (GLEN ROCK FACILITY)"
3,ANDREWS AIR FORCE BASE,PRINCE GEORGE'S,Maryland,20762,ANDREWS AIR FORCE BASE
3,NEW CASTLE,NEW CASTLE,Delaware,19720,ARMY CREEK LANDFILL
3,MONTROSS,WESTMORELAND,Virginia,22520,"ARROWHEAD ASSOCIATES, INC./SCOVILL CORP."
3,PORTSMOUTH,PORTSMOUTH CITY,Virginia,23704,"ATLANTIC WOOD INDUSTRIES, INC."
3,DELAWARE COUNTY,DELAWARE,Pennsylvania,19050,AUSTIN AVENUE RADIATION SITE
3,WILLIAMSPORT,LYCOMING,Pennsylvania,17701,AVCO LYCOMING (WILLIAMSPORT DIVISION)
3,FRONT ROYAL,WARREN,Virginia,22630,"AVTEX FIBERS, INC."
3,HARLEYSVILLE,MONTGOMERY,Pennsylvania,19438,BAGHURST DRIVE
3,BALLY,BERKS,Pennsylvania,19503,BALLY GROUND WATER CONTAMINATION
3,TERRY TOWNSHIP,BRADFORD,Pennsylvania,18853,BELL LANDFILL
3,BELTSVILLE,PRINCE GEORGE'S,Maryland,20705,BELTSVILLE AGRICULTURAL RESEARCH CENTER (USDA)
3,SOUTH MONTROSE,SUSQUEHANNA,Pennsylvania,18843,BENDIX FLIGHT SYSTEMS DIVISION
3,DENVER,LANCASTER,Pennsylvania,17517,BERKLEY PRODUCTS CO. DUMP
3,SPRING TOWNSHIP,BERKS,Pennsylvania,19608,BERKS LANDFILL
3,LONGSWAMP TOWNSHIP,BERKS,Pennsylvania,19539,BERKS SAND PIT
3,FAIRMONT,MARION,West Virginia,26554,BIG JOHN SALVAGE - HOULT ROAD
3,WEST CALN TOWNSHIP,CHESTER,Pennsylvania,19376,BLOSENSKI LANDFILL
3,BRIDGETON TOWNSHIP,BUCKS,Pennsylvania,18972,BOARHEAD FARMS
3,AMBLER,MONTGOMERY,Pennsylvania,19002,BORIT ASBESTOS
3,BRANDYWINE,PRINCE GEORGE'S,Maryland,20613,BRANDYWINE DRMO
3,CORAOPOLIS,ALLEGHENY,Pennsylvania,15108,"BRESLUBE-PENN, INC."
3,STROUDSBURG,MONROE,Pennsylvania,18360,BRODHEAD CREEK
3,HAMBURG,BERKS,Pennsylvania,19526,BROWN'S BATTERY BREAKING
3,BRUIN BOROUGH,BUTLER,Pennsylvania,16022,BRUIN LAGOON
3,BUCKINGHAM,BUCKINGHAM,Virginia,23936,BUCKINGHAM COUNTY LANDFILL
3,ABINGDON,HARFORD,Maryland,21009,BUSH VALLEY LANDFILL
3,PITTSTON TOWNSHIP,LUZERNE,Pennsylvania,18640,BUTLER MINE TUNNEL
3,STROUDSBURG,MONROE,Pennsylvania,18360,BUTZ LANDFILL
3,FOSTER TOWNSHIP,LUZERNE,Pennsylvania,18224,C & D RECYCLING
3,CHESTERFIELD COUNTY,CHESTERFIELD,Virginia,23237,"C & R BATTERY CO., INC."
3,HAGERSTOWN,WASHINGTON,Maryland,21742,CENTRAL CHEMICAL (HAGERSTOWN)
3,STATE COLLEGE,CENTRE,Pennsylvania,16801,CENTRE COUNTY KEPONE
3,Doylestown,BUCKS,Pennsylvania,18901,CHEM-FAB
3,DOVER,KENT,Delaware,19901-4264,"CHEM-SOLV, INC."
3,BALTIMORE,BALTIMORE CITY,Maryland,21230,"CHEMICAL METALS INDUSTRIES, INC."
3,YORK COUNTY,YORK,Virginia,23692,CHISMAN CREEK
3,CHESWOLD,KENT,Delaware,19936,COKER'S SANITATION SERVICE LANDFILLS
3,LOWER PROVIDENCE TOWNSHIP,MONTGOMERY,Pennsylvania,19403,COMMODORE SEMICONDUCTOR GROUP
3,PARKER,ARMSTRONG,Pennsylvania,16049,CRAIG FARM DRUM
3,UPPER MERION TOWNSHIP,MONTGOMERY,Pennsylvania,19406,"CRATER RESOURCES, INC./KEYSTONE COKE CO./ALAN WOOD STEEL CO."
3,HEREFORD TOWNSHIP,BERKS,Pennsylvania,18056,CROSSLEY FARM
3,CROYDON TOWNSHIP,BUCKS,Pennsylvania,19020,CROYDON TCE
3,WORMAN TOWNSHIP,BERKS,Pennsylvania,19512,"CRYOCHEM, INC."
3,CULPEPER,CULPEPER,Virginia,22701,"CULPEPER WOOD PRESERVERS, INC."
3,BALTIMORE,ANNE ARUNDEL,Maryland,21226,CURTIS BAY COAST GUARD YARD
3,CHESTERFIELD COUNTY,CHESTERFIELD,Virginia,23237,DEFENSE GENERAL SUPPLY CENTER (DLA)
3,NEW CASTLE,NEW CASTLE,Delaware,19720,DELAWARE CITY PVC PLANT
3,NEW CASTLE,NEW CASTLE,Delaware,19720,DELAWARE SAND & GRAVEL LANDFILL
3,ANTIS/LOGAN TWPS,BLAIR,Pennsylvania,16602,"DELTA QUARRIES & DISPOSAL, INC./STOTLER LANDFILL"
3,SALEM,ROANOKE,Virginia,24153,DIXIE CAVERNS COUNTY LANDFILL
3,UPPER MACUNGIE TOWNSHIP,LEHIGH,Pennsylvania,19539,DORNEY ROAD LANDFILL
3,DOUGLASSVILLE,BERKS,Pennsylvania,19518,DOUGLASSVILLE DISPOSAL
3,DOVER,KENT,Delaware,19901,DOVER AIR FORCE BASE
3,DOVER,KENT,Delaware,19904,DOVER GAS LIGHT CO.
3,LOCK HAVEN,CLINTON,Pennsylvania,17745,DRAKE CHEMICAL
3,DUBLIN BOROUGH,BUCKS,Pennsylvania,18917,DUBLIN TCE SITE
3,ELKTON,CECIL,Maryland,21921,DWYER PROPERTY GROUND WATER PLUME
3,NEWPORT,NEW CASTLE,Delaware,19804,"E.I. DU PONT DE NEMOURS & CO., INC. (NEWPORT PIGMENT PLANT LANDFILL)"
3,SPRINGETTSBURY TOWNSHIP,YORK,Pennsylvania,17402,EAST MOUNT ZION
3,MARCUS HOOK,DELAWARE,Pennsylvania,19061,EAST TENTH STREET
3,HOMETOWN,SCHUYLKILL,Pennsylvania,18252,EASTERN DIVERSIFIED METALS
3,ELIZABETHTOWN,LANCASTER,Pennsylvania,17022,ELIZABETHTOWN LANDFILL
3,PHILADELPHIA,PHILADELPHIA,Pennsylvania,19153,ENTERPRISE AVENUE
3,NITRO,PUTNAM,West Virginia,25143,"FIKE CHEMICAL, INC."
3,PITTSYLVANIA COUNTY,PITTSYLVANIA,Virginia,24531,FIRST PIEDMONT CORP. ROCK QUARRY (ROUTE 719)
3,WARMINSTER,BUCKS,Pennsylvania,18974,FISCHER & PORTER CO.
3,FOLLANSBEE,BROOKE,West Virginia,26037,FOLLANSBEE
3,EAST WHITELAND TOWNSHIP,CHESTER,Pennsylvania,19355,FOOTE MINERAL CO.
3,SUFFOLK,SUFFOLK CITY,Virginia,23435,FORMER NANSEMOND ORDNANCE DEPOT
3,FORT DETRICK,FREDERICK,Maryland,21702,FORT DETRICK AREA B GROUND WATER
3,NEWPORT NEWS,NEWPORT NEWS CITY,Virginia,23604,FORT EUSTIS (US ARMY)
3,ODENTON,ANNE ARUNDEL,Maryland,21113,FORT GEORGE G. MEADE
3,Mountain Top,LUZERNE,Pennsylvania,18707,FOSTER WHEELER ENERGY CORP./CHURCH ROAD TCE
3,PHILADELPHIA,PHILADELPHIA,Pennsylvania,19134,FRANKLIN SLAG PILE (MDC)
3,NEWTOWN,ALBEMARLE,Virginia,22943,GREENWOOD CHEMICAL CO.
3,FARRINGTON,HANOVER,Virginia,23192,"H & H INC., BURN PIT"
3,NEW CASTLE,NEW CASTLE,Delaware,19720,HALBY CHEMICAL CO.
3,MOUNDSVILLE,MARSHALL,West Virginia,26041,HANLIN-ALLIED-OLIN
3,KIRKWOOD,NEW CASTLE,Delaware,19708,"HARVEY & KNOTT DRUM, INC."
3,HAVERFORD,DELAWARE,Pennsylvania,19083,HAVERTOWN PCP
3,WEISENBERG TOWNSHIP,LEHIGH,Pennsylvania,18062,HEBELKA AUTO SALVAGE YARD
3,NORTH WHITEHALL TWP,LEHIGH,Pennsylvania,18037,HELEVA LANDFILL
3,HELLERTOWN,NORTHAMPTON,Pennsylvania,18055,HELLERTOWN MANUFACTURING CO.
3,UPPER MERION TOWNSHIP,MONTGOMERY,Pennsylvania,19406,HENDERSON ROAD
3,Sterling,LOUDOUN,Virginia,20165,HIDDEN LANE LANDFILL
3,HOCKESSIN,NEW CASTLE,Delaware,19707,HOCKESSIN GROUNDWATER
3,BUFFALO TOWNSHIP,BUTLER,Pennsylvania,16055,HRANICA LANDFILL
3,STRABAN TOWNSHIP,ADAMS,Pennsylvania,17325,HUNTERSTOWN ROAD
3,INDIAN HEAD,CHARLES,Maryland,20640,INDIAN HEAD NAVAL SURFACE WARFARE CENTER
3,WILLIAMS TOWNSHIP,NORTHAMPTON,Pennsylvania,18042,INDUSTRIAL LANE
3,MAITLAND,MIFFLIN,Pennsylvania,17044,"JACKS CREEK/SITKIN SMELTING & REFINING, INC."
3,FALLS CREEK,JEFFERSON,Pennsylvania,15840,"JACKSON CERAMIX, INC"
3,BALTIMORE,BALTIMORE CITY,Maryland,21224,KANE & LOMBARD STREET DRUMS
3,UNION TOWNSHIP,ADAMS,Pennsylvania,17331,KEYSTONE SANITATION LANDFILL
3,SELMA,ALLEGHANY,Virginia,24474,KIM-STAN LANDFILL
3,EAST PIKELAND TOWNSHIP,CHESTER,Pennsylvania,19442,KIMBERTON
3,NEWPORT,NEW CASTLE,Delaware,19804,"KOPPERS CO., INC. (NEWPORT PLANT)"
3,SPOTSYLVANIA,SPOTSYLVANIA,Virginia,22553,L.A. CLARKE & SON
3,OLD FORGE,LACKAWANNA,Pennsylvania,18518,LACKAWANNA REFUSE
3,HAMPTON,HAMPTON CITY,Virginia,23665,LANGLEY AIR FORCE BASE/NASA LANGLEY RESEARCH CENTER
3,LANSDOWNE,DELAWARE,Pennsylvania,19050,LANSDOWNE RADIATION SITE
3,LEETOWN,JEFFERSON,West Virginia,25430,LEETOWN PESTICIDE
3,OLD FORGE,LACKAWANNA,Pennsylvania,18518,LEHIGH ELECTRIC & ENGINEERING CO.
3,FRANKLIN COUNTY,FRANKLIN,Pennsylvania,17201,LETTERKENNY ARMY DEPOT (PDO AREA)
3,CHAMBERSBURG,FRANKLIN,Pennsylvania,17201,LETTERKENNY ARMY DEPOT (SE AREA)
3,CUMBERLAND,ALLEGANY,Maryland,21502,LIMESTONE ROAD
3,HARRISON TOWNSHIP,ALLEGHENY,Pennsylvania,15065,LINDANE DUMP
3,GIRARD TOWNSHIP,ERIE,Pennsylvania,16417,LORD-SHOPE LANDFILL
3,DARBY TWP,DELAWARE,Pennsylvania,19023,LOWER DARBY CREEK AREA
3,MALVERN,CHESTER,Pennsylvania,19355,MALVERN TCE
3,QUANTICO,PRINCE WILLIAM,Virginia,22134,MARINE CORPS COMBAT DEVELOPMENT COMMAND
3,ROANOKE,ROANOKE,Virginia,24153,MATTHEWS ELECTROPLATING
3,MCADOO BOROUGH,SCHUYLKILL,Pennsylvania,18237,MCADOO ASSOCIATES
3,PHILADELPHIA,PHILADELPHIA,Pennsylvania,19135,METAL BANK
3,TRAINER,DELAWARE,Pennsylvania,19061,METRO CONTAINER CORPORATION
3,FRACKVILLE,SCHUYLKILL,Pennsylvania,17931,"METROPOLITAN MIRROR AND GLASS CO., INC."
3,HARMANS,ANNE ARUNDEL,Maryland,21077,"MID-ATLANTIC WOOD PRESERVERS, INC."
3,MIDDLETOWN,DAUPHIN,Pennsylvania,17057,MIDDLETOWN AIR FIELD
3,ANNAPOLIS,ANNE ARUNDEL,Maryland,21401,MIDDLETOWN ROAD DUMP
3,ERIE,ERIE,Pennsylvania,16505,MILL CREEK DUMP
3,MILLSBORO,SUSSEX,Delaware,19966,MILLSBORO TCE
3,LOWER WINDSOR TWP,YORK,Pennsylvania,17406-8240,MODERN SANITATION LANDFILL
3,EAGLEVILLE,MONTGOMERY,Pennsylvania,19426,MOYERS LANDFILL
3,VALLEY TOWNSHIP,MONTOUR,Pennsylvania,17821,MW MANUFACTURING
3,WARMINSTER TOWNSHIP,BUCKS,Pennsylvania,18974,NAVAL AIR DEVELOPMENT CENTER (8 WASTE AREAS)
3,VIRGINIA BEACH,VIRGINIA BEACH CITY,Virginia,23455,NAVAL AMPHIBIOUS BASE LITTLE CREEK
3,DAHLGREN,KING GEORGE,Virginia,22448,NAVAL SURFACE WARFARE CENTER - DAHLGREN
3,YORKTOWN,YORK,Virginia,23690,NAVAL WEAPONS STATION - YORKTOWN
3,MECHANICSBURG,CUMBERLAND,Pennsylvania,17055,NAVY SHIPS PARTS CONTROL CENTER
3,MILLSBORO,SUSSEX,Delaware,19966,NCR CORP. (MILLSBORO PLANT)
3,NEW CASTLE,NEW CASTLE,Delaware,19720-3638,NEW CASTLE SPILL
3,NEW CASTLE,NEW CASTLE,Delaware,19720,NEW CASTLE STEEL
3,NEWARK,NEW CASTLE,Delaware,19713,NEWARK SOUTH GROUND WATER PLUME
3,NORFOLK,NORFOLK CITY,Virginia,23511,NORFOLK NAVAL BASE (SEWELLS POINT NAVAL COMPLEX)
3,PORTSMOUTH,PORTSMOUTH CITY,Virginia,23709,NORFOLK NAVAL SHIPYARD
3,CLARKSBURG,HARRISON,West Virginia,26301,NORTH 25TH STREET GLASS AND ZINC
3,SOUDERTON,MONTGOMERY,Pennsylvania,18964,NORTH PENN - AREA 1
3,WORCESTER,MONTGOMERY,Pennsylvania,19490,NORTH PENN - AREA 12
3,HATFIELD,MONTGOMERY,Pennsylvania,19440,NORTH PENN - AREA 2
3,MONTGOMERY TOWNSHIP,MONTGOMERY,Pennsylvania,18915,NORTH PENN - AREA 5
3,LANSDALE,MONTGOMERY,Pennsylvania,19446,NORTH PENN - AREA 6
3,NORTH WALES,MONTGOMERY,Pennsylvania,19454,NORTH PENN - AREA 7
3,SOUTH WHITEHALL TOWNSHIP,LEHIGH,Pennsylvania,18104,NOVAK SANITARY LANDFILL
3,YORKTOWN,YORK,Virginia,23185,NWS YORKTOWN - CHEATHAM ANNEX
3,LOWER POTTSGROVE TOWNSHIP,MONTGOMERY,Pennsylvania,19464,OCCIDENTAL CHEMICAL CORP./FIRESTONE TIRE & RUBBER CO.
3,NEVILLE ISLAND,ALLEGHENY,Pennsylvania,15225,OHIO RIVER PARK
3,SEVEN VALLEYS,YORK,Pennsylvania,17360,OLD CITY OF YORK LANDFILL
3,SADSBURYVILLE,CHESTER,Pennsylvania,19320,OLD WILMINGTON ROAD GW CONTAMINATION
3,NORTH EAST,CECIL,Maryland,21901-2507,"ORDNANCE PRODUCTS, INC."
3,MORGANTOWN,MONONGALIA,West Virginia,26505,ORDNANCE WORKS DISPOSAL AREAS
3,GROVE CITY,MERCER,Pennsylvania,16127,OSBORNE LANDFILL
3,PALMERTON,CARBON,Pennsylvania,18071,PALMERTON ZINC PILE
3,PAOLI,CHESTER,Pennsylvania,19301,PAOLI RAIL YARD
3,PATUXENT RIVER,ST. MARY'S,Maryland,20670,PATUXENT RIVER NAVAL AIR STATION
3,PORTSMOUTH,PORTSMOUTH CITY,Virginia,23704,PECK IRON AND METAL
3,ERIE,ERIE,Pennsylvania,16505,PRESQUE ISLE
3,HAMBURG,BERKS,Pennsylvania,19526,PRICE BATTERY LEAD SMELTER
3,PHILADELPHIA,PHILADELPHIA,Pennsylvania,19148,PUBLICKER INDUSTRIES INC.
3,RAVENSWOOD,JACKSON,West Virginia,26164,RAVENSWOOD PCE
3,HATBORO,MONTGOMERY,Pennsylvania,19040,RAYMARK
3,E COVENTRY TWP,CHESTER,Pennsylvania,19457,RECTICON/ALLIED STEEL CORP.
3,UPPER MACUNGIE TWP,LEHIGH,Pennsylvania,18051,REESER'S LANDFILL
3,RICHMOND,HENRICO,Virginia,23228,"RENTOKIL, INC. (VIRGINIA WOOD PRESERVING DIVISION)"
3,JEFFERSON BOROUGH,ALLEGHENY,Pennsylvania,15025,RESIN DISPOSAL
3,NOCKAMIXON TOWNSHIP,BUCKS,Pennsylvania,18972,REVERE CHEMICAL CO.
3,FREDERICK COUNTY,FREDERICK,Virginia,22601,RHINEHART TIRE FIRE DUMP
3,HERMITAGE,MERCER,Pennsylvania,16148,"RIVER ROAD LANDFILL (WASTE MANAGEMENT, INC.)"
3,EMMAUS BOROUGH,LEHIGH,Pennsylvania,18049,"RODALE MANUFACTURING CO., INC."
3,POCONO SUMMIT,MONROE,Pennsylvania,18350,ROUTE 940 DRUM DUMP
3,HEIDELBERG TWP,BERKS,Pennsylvania,19567,RYELAND ROAD ARSENIC SITE
3,SAEGERTOWN,CRAWFORD,Pennsylvania,16433,SAEGERTOWN INDUSTRIAL AREA
3,BLOOMSBURG,COLUMBIA,Pennsylvania,17815,SAFETY LIGHT CORPORATION
3,LOWER SALFORD TOWNSHIP,MONTGOMERY,Pennsylvania,19438,SALFORD QUARRY
3,SALTVILLE,SMYTH,Virginia,24370,SALTVILLE WASTE DISPOSAL PONDS
3,ELKTON,CECIL,Maryland,21921,"SAND, GRAVEL AND STONE"
3,DUNDALK,BALTIMORE,Maryland,21222,SAUER DUMP
3,CHUCKATUCK,SUFFOLK CITY,Virginia,23432,SAUNDERS SUPPLY CO.
3,MIDDLETOWN,NEW CASTLE,Delaware,19709,SEALAND LIMITED
3,MINDEN,FAYETTE,West Virginia,25879,SHAFFER EQUIPMENT/ARBUCKLE CREEK AREA
3,FAIRMONT,MARION,West Virginia,26554,SHARON STEEL CORP (FAIRMONT COKE WORKS)
3,HERMITAGE,MERCER,Pennsylvania,16159,SHARON STEEL CORP (FARRELL WORKS DISPOSAL AREA)
3,STRABAN TOWNSHIP,ADAMS,Pennsylvania,17325,SHRIVER'S CORNER
3,HOLLYWOOD,ST. MARY'S,Maryland,20636,SOUTHERN MARYLAND WOOD TREATING
3,ELKTON,CECIL,Maryland,21921,"SPECTRON, INC."
3,CHESAPEAKE,CHESAPEAKE CITY,Virginia,23323,ST. JULIENS CREEK ANNEX (U.S. NAVY)
3,NEW CASTLE,NEW CASTLE,Delaware,19720,"STANDARD CHLORINE OF DELAWARE, INC."
3,KING OF PRUSSIA,MONTGOMERY,Pennsylvania,19406,STANLEY KESSLER
3,NEWLIN TOWNSHIP,CHESTER,Pennsylvania,19320,STRASBURG LANDFILL
3,SUFFOLK,SUFFOLK CITY,Virginia,23434,SUFFOLK CITY LANDFILL
3,LAUREL,SUSSEX,Delaware,19956,SUSSEX COUNTY LANDFILL NO. 5
3,TAYLOR BOROUGH,LACKAWANNA,Pennsylvania,18517,TAYLOR BOROUGH DUMP
3,TOBYHANNA,MONROE,Pennsylvania,18466-5086,TOBYHANNA ARMY DEPOT
3,NESQUEHONING,CARBON,Pennsylvania,18240,TONOLLI CORP.
3,NEW CASTLE,NEW CASTLE,Delaware,19720,TYBOUTS CORNER LANDFILL
3,SMYRNA,KENT,Delaware,19977,TYLER REFRIGERATION PIT
3,UPPER MERION TWP,MONTGOMERY,Pennsylvania,19406,TYSONS DUMP
3,PINEY RIVER,NELSON,Virginia,22964,U.S. TITANIUM
3,COLUMBIA,LANCASTER,Pennsylvania,17512,UGI COLUMBIA GAS PLANT
3,WEST HAZLETON,LUZERNE,Pennsylvania,18201,VALMONT TCE SITE (FORMER - VALMONT INDUSTRIAL PARK)
3,VIENNA,WOOD,West Virginia,26105,VIENNA TETRACHLOROETHENE
3,UPPER SAUCON TWP,LEHIGH,Pennsylvania,18034,VOORTMAN FARM
3,CHESTER,DELAWARE,Pennsylvania,19013,WADE (ABM)
3,HONEYBROOK TOWNSHIP,CHESTER,Pennsylvania,19344,WALSH LANDFILL
3,WASHINGTON,DISTRICT OF COLUMBIA,District of Columbia,20374-0001,WASHINGTON NAVY YARD
3,RICHLAND TOWNSHIP,BUCKS,Pennsylvania,18951,WATSON JOHNSON LANDFILL
3,POINT PLEASANT,MASON,West Virginia,25550,WEST VIRGINIA ORDNANCE (USARMY)
3,SHARON,MERCER,Pennsylvania,16146,WESTINGHOUSE ELECTRIC CORP. (SHARON PLANT)
3,GETTYSBURG,ADAMS,Pennsylvania,17325,WESTINGHOUSE ELEVATOR CO. PLANT
3,WESTLINE,MCKEAN,Pennsylvania,16740,WESTLINE
3,JACKSON TOWNSHIP,LEBANON,Pennsylvania,17067,WHITMOYER LABORATORIES
3,DOVER,KENT,Delaware,19901,WILDCAT LANDFILL
3,WEST CALN TOWNSHIP,CHESTER,Pennsylvania,19376,WILLIAM DICK LAGOONS
3,HORSHAM,MONTGOMERY,Pennsylvania,19040,WILLOW GROVE NAVAL AIR AND AIR RESERVE STATION
3,COLORA,CECIL,Maryland,21917,WOODLAWN COUNTY LANDFILL
3,HOPEWELL TOWNSHIP,YORK,Pennsylvania,17363,YORK COUNTY SOLID WASTE AND REFUSE AUTHORITY LANDFILL
4,BIRMINGHAM,JEFFERSON,Alabama,35207,35TH AVENUE
4,BROOKS,BULLITT,Kentucky,40165,A.L. TAYLOR (VALLEY OF DRUMS)
4,JACKSONVILLE,ONSLOW,North Carolina,28540,ABC ONE HOUR CLEANERS
4,Aberdeen,MOORE,North Carolina,28315,ABERDEEN CONTAMINATED GROUND WATER
4,ABERDEEN,MOORE,North Carolina,28315,ABERDEEN PESTICIDE DUMPS
4,WILLISTON,BARNWELL,South Carolina,29853,ADMIRAL HOME APPLIANCES
4,PENSACOLA,ESCAMBIA,Florida,32505,AGRICO CHEMICAL CO.
4,CALVERT CITY,MARSHALL,Kentucky,42029,AIRCO
4,MIAMI,MIAMI-DADE,Florida,33142,AIRCO PLATING CO.
4,CHILDERSBURG,TALLADEGA,Alabama,35044,ALABAMA ARMY AMMUNITION PLANT
4,VINCENT,SHELBY,Alabama,35178,"ALABAMA PLATING COMPANY, INC."
4,ALAMO,CROCKETT,Tennessee,38001,ALAMO CONTAMINATED GROUND WATER
4,TAMPA,HILLSBOROUGH,Florida,33619,ALARIC AREA GW PLUME
4,LAKELAND,POLK,Florida,33810,ALPHA CHEMICAL CORP.
4,AUGUSTA,RICHMOND,Georgia,30904,ALTERNATE ENERGY RESOURCES INC
4,HEADLAND,HENRY,Alabama,36345,AMERICAN BRASS INC.
4,LOUISVILLE,WINSTON,Mississippi,39339,AMERICAN CREOSOTE WORKS INC (LOUISVILLE)
4,JACKSON,MADISON,Tennessee,38301,"AMERICAN CREOSOTE WORKS, INC. (JACKSON PLANT)"
4,PENSACOLA,ESCAMBIA,Florida,32501,"AMERICAN CREOSOTE WORKS, INC. (PENSACOLA PLANT)"
4,CHATTANOOGA,HAMILTON,Tennessee,37406,AMNICOLA DUMP
4,MIAMI,MIAMI-DADE,Florida,33147-4433,ANACONDA ALUMINUM CO./MILGO ELECTRONICS CORP.
4,ANNISTON,CALHOUN,Alabama,36253,ANNISTON ARMY DEPOT (SOUTHEAST INDUSTRIAL AREA)
4,ANNISTON,CALHOUN,Alabama,36201,ANNISTON PCB SITE (MONSANTO CO)
4,NORTH MIAMI BEACH,MIAMI-DADE,Florida,33169,"ANODYNE, INC."
4,GREER,SPARTANBURG,South Carolina,29651,AQUA-TECH ENVIRONMENTAL INC (GROCE LABS)
4,THONOTOSASSA,HILLSBOROUGH,Florida,33592,ARKLA TERRA PROPERTY
4,ARLINGTON,SHELBY,Tennessee,38002,ARLINGTON BLENDING & PACKAGING
4,MACON,BIBB,Georgia,31206,ARMSTRONG WORLD INDUSTRIES
4,HIALEAH,MIAMI-DADE,Florida,33010,"B&B CHEMICAL CO., INC."
4,CALVERT CITY,MARSHALL,Kentucky,42029,B.F. GOODRICH
4,WAYNESVILLE,HAYWOOD,North Carolina,28786,BARBER ORCHARD
4,MCCORMICK,MCCORMICK,South Carolina,29835,BARITE HILL/NEVADA GOLDFIELDS
4,FOUNTAIN INN,GREENVILLE,South Carolina,29644,BEAUNIT CORP. (CIRCULAR KNIT & DYEING PLANT)
4,HAZELWOOD,HAYWOOD,North Carolina,28738,"BENFIELD INDUSTRIES, INC."
4,PENSACOLA,ESCAMBIA,Florida,32506,BEULAH LANDFILL
4,ARDEN,BUNCOMBE,North Carolina,28704,BLUE RIDGE PLATING COMPANY
4,LAKE PARK,PALM BEACH,Florida,33403,BMI-TEXTRON
4,ISLAND,MCLEAN,Kentucky,42350,BRANTLEY LANDFILL
4,JEFFERSON,CHESTERFIELD,South Carolina,29718,BREWER GOLD MINE
4,LIVE OAK,SUWANNEE,Florida,32060,BROWN WOOD PRESERVING
4,JACKSONVILLE,DUVAL,Florida,32209,BROWN'S DUMP
4,BRUNSWICK,GLYNN,Georgia,31520,BRUNSWICK WOOD PRESERVING
4,CHERAW,CHESTERFIELD,South Carolina,29520,BURLINGTON INDUSTRIES CHERAW
4,CONCORD,CABARRUS,North Carolina,28025,BYPASS 601 GROUND WATER CONTAMINATION
4,GAINESVILLE,ALACHUA,Florida,32601,CABOT/KOPPERS
4,AUBURN,LOGAN,Kentucky,42206,"CALDWELL LACE LEATHER CO., INC."
4,LAKE ALFRED,POLK,Florida,33850,CALLAWAY & SON DRUM SERVICE
4,CAMILLA,MITCHELL,Georgia,31730,CAMILLA WOOD PRESERVING COMPANY
4,ONSLOW COUNTY,ONSLOW,North Carolina,28542,CAMP LEJEUNE MILITARY RES. (USNAVY)
4,FAYETTEVILLE,CUMBERLAND,North Carolina,28303,CAPE FEAR WOOD PRESERVING
4,MONTGOMERY,MONTGOMERY,Alabama,36109,CAPITOL CITY PLUME
4,FORT LAWN,CHESTER,South Carolina,29714,"CAROLAWN, INC."
4,FAYETTEVILLE,CUMBERLAND,North Carolina,28301,CAROLINA TRANSFORMER CO.
4,COLLIERVILLE,SHELBY,Tennessee,38017,CARRIER AIR CONDITIONING CO.
4,TALLAHASSEE,LEON,Florida,32301,CASCADE LANDFILL
4,TALLAHASSEE,LEON,Florida,32301,CASCADE PARK GASIFICATION PLANT
4,CEDARTOWN,POLK,Georgia,30125,"CEDARTOWN INDUSTRIES, INC."
4,CEDARTOWN,POLK,Georgia,30125,CEDARTOWN MUNICIPAL LANDFILL
4,SHELBY,CLEVELAND,North Carolina,28150,CELANESE CORP. (SHELBY FIBER OPERATIONS)
4,CORDOVA,RICHMOND,North Carolina,28330,CHARLES MACON LAGOON AND DRUM STORAGE
4,MOSCOW,FAYETTE,Tennessee,38057,CHEMET CO.
4,GULFPORT,HARRISON,Mississippi,39505,"CHEMFAX, INC."
4,POMPANO BEACH,BROWARD,Florida,33069,"CHEMFORM, INC."
4,SWANNANOA,BUNCOMBE,North Carolina,28778,"CHEMTRONICS, INC."
4,HAVELOCK,CRAVEN,North Carolina,28533,CHERRY POINT MARINE CORPS AIR STATION
4,ORLANDO,ORANGE,Florida,32804,CHEVRON CHEMICAL CO. (ORTHO DIVISION)
4,MCINTOSH,WASHINGTON,Alabama,36553,CIBA-GEIGY CORP. (MCINTOSH PLANT)
4,ORLANDO,ORANGE,Florida,32807,"CITY INDUSTRIES, INC."
4,HARRIMAN,ROANE,Tennessee,37748,CLINCH RIVER CORPORATION
4,WHITEHOUSE,DUVAL,Florida,32220-1806,COLEMAN-EVANS WOOD PRESERVING CO.
4,MIAMI,MIAMI-DADE,Florida,33150,CONTINENTAL CLEANERS
4,COPPERHILL,POLK,Tennessee,37317,COPPER BASIN MINING DISTRICT
4,PLANT CITY,HILLSBOROUGH,Florida,33564,CORONET INDUSTRIES
4,OXFORD,GRANVILLE,North Carolina,27565,CRISTEX DRUM
4,ASHEVILLE,BUNCOMBE,North Carolina,28803,"CTS OF ASHEVILLE, INC."
4,DAVIE,BROWARD,Florida,33314,DAVIE LANDFILL
4,GASTONIA,GASTON,North Carolina,28052,DAVIS PARK ROAD TCE
4,HATTIESBURG,LAMAR,Mississippi,39401,DAVIS TIMBER COMPANY
4,CEDARTOWN,POLK,Georgia,30125,DIAMOND SHAMROCK CORP. LANDFILL
4,WEST POINT,HARDIN,Kentucky,40117,DISTLER BRICKYARD
4,JEFFERSON COUNTY,JEFFERSON,Kentucky,40272,DISTLER FARM
4,CANTONMENT,ESCAMBIA,Florida,32533,DUBOSE OIL PRODUCTS CO.
4,PISGAH FOREST,TRANSYLVANIA,North Carolina,28768,ECUSTA MILL
4,GREER,SPARTANBURG,South Carolina,29651,ELMORE WASTE DISPOSAL
4,PENSACOLA,ESCAMBIA,Florida,32522,ESCAMBIA WOOD - PENSACOLA
4,JACKSONVILLE,DUVAL,Florida,32209,FAIRFAX ST. WOOD TREATERS
4,STATESVILLE,IREDELL,North Carolina,28677,"FCX, INC. (STATESVILLE PLANT)"
4,WASHINGTON,BEAUFORT,North Carolina,27889,"FCX, INC. (WASHINGTON PLANT)"
4,ALBANY,DOUGHERTY,Georgia,31701,FIRESTONE TIRE & RUBBER CO. (ALBANY PLANT)
4,Pompano Beach,BROWARD,Florida,33064,FLASH CLEANERS
4,FORT LAUDERDALE,BROWARD,Florida,33314,FLORIDA PETROLEUM REPROCESSORS
4,INDIANTOWN,MARTIN,Florida,33956,FLORIDA STEEL CORP.
4,FLOWOOD,RANKIN,Mississippi,39208,FLOWOOD SITE
4,MEMPHIS,SHELBY,Tennessee,38111,FORMER CUSTOM CLEANERS
4,OLATON,OHIO,Kentucky,42361,FORT HARTFORD COAL CO. STONE QUARRY
4,GALLAWAY,FAYETTE,Tennessee,38036,GALLAWAY PITS
4,RANTOULES,CHARLESTON,South Carolina,29494,GEIGER (C & M OIL)
4,ABERDEEN,MOORE,North Carolina,28315,GEIGY CHEMICAL CORP. (ABERDEEN PLANT)
4,LONGWOOD,SEMINOLE,Florida,32750,GENERAL DYNAMICS LONGWOOD
4,EAST FLAT ROCK,HENDERSON,North Carolina,28726,GENERAL ELECTRIC CO/SHEPHERD FARM
4,MAYFIELD,GRAVES,Kentucky,42066,GENERAL TIRE & RUBBER CO. (MAYFIELD LANDFILL)
4,ROXBORO,PERSON,North Carolina,27574,GMH ELECTRONICS
4,MIAMI,MIAMI-DADE,Florida,33155-2802,GOLD COAST OIL CORP.
4,SIMPSONVILLE,GREENVILLE,South Carolina,29681,GOLDEN STRIP SEPTIC TANK SERVICE
4,MACEO,DAVIESS,Kentucky,42365,"GREEN RIVER DISPOSAL, INC."
4,SELMA,JOHNSTON,North Carolina,27576,GURLEY PESTICIDE BURIAL
4,PALM BAY,BREVARD,Florida,32905,HARRIS CORP. (PALM BAY PLANT)
4,TAMPA,HILLSBOROUGH,Florida,33619,HELENA CHEMICAL CO. (TAMPA PLANT)
4,FAIRFAX,ALLENDALE,South Carolina,29829,HELENA CHEMICAL CO. LANDFILL
4,GASTONIA,GASTON,North Carolina,28056,HEMPHILL ROAD TCE
4,CLOVER,YORK,South Carolina,29710,HENRY'S KNOB
4,BRUNSWICK,GLYNN,Georgia,31521,HERCULES 009 LANDFILL
4,DUVAL COUNTY,DUVAL,Florida,32222,HIPPS ROAD LANDFILL
4,YADKINVILLE,YADKIN,North Carolina,27055,HOLCOMB CREOSOTE CO
4,FORT LAUDERDALE,BROWARD,Florida,33309,HOLLINGSWORTH SOLDERLESS TERMINAL
4,RIEGELWOOD,COLUMBUS,North Carolina,28456,HOLTRA CHEM/HONEYWELL INC.
4,HOMESTEAD AIR FORCE BASE,MIAMI-DADE,Florida,33039-1299,HOMESTEAD AIR FORCE BASE
4,WILMINGTON,NEW HANOVER,North Carolina,28401,HORTON IRON AND METAL
4,HOWE VALLEY,HARDIN,Kentucky,42732,HOWE VALLEY LANDFILL
4,JACKSON,MADISON,Tennessee,38301,ICG ISELIN RAILROAD YARD
4,MEMPHIS,SHELBY,Tennessee,38109,ILLINOIS CENTRAL RAILROAD COMPANY'S JOHNSTON YARD SUPERFUND SITE
4,BEAUFORT,BEAUFORT,South Carolina,29902,INDEPENDENT NAIL CO.
4,SPARTANBURG,SPARTANBURG,South Carolina,29302,INTERNATIONAL MINERALS AND CHEMICALS (IMC)
4,LEEDS,JEFFERSON,Alabama,35094,INTERSTATE LEAD CO. (ILCO)
4,MADISON,MADISON,Florida,32340,"ITT-THOMPSON INDUSTRIES, INC"
4,JACKSONVILLE,DUVAL,Florida,32209,JACKSONVILLE ASH SITE
4,JACKSONVILLE,DUVAL,Florida,32212,JACKSONVILLE NAVAL AIR STATION
4,BELMONT,GASTON,North Carolina,28012,JADCO-HUGHES FACILITY
4,OXFORD,GRANVILLE,North Carolina,27565,JFD ELECTRONICS/CHANNEL MASTER
4,RUSKIN,HILLSBOROUGH,Florida,33570,JJ SEIFERT MACHINE
4,BEAUFORT,BEAUFORT,South Carolina,29902,KALAMA SPECIALTY CHEMICALS
4,TAMPA,HILLSBOROUGH,Florida,33619,KASSAUF-KIMERLING BATTERY DISPOSAL
4,COLUMBUS,LOWNDES,Mississippi,39701,KERR-MCGEE CHEMICAL CORP - COLUMBUS
4,JACKSONVILLE,DUVAL,Florida,32206,KERR-MCGEE CHEMICAL CORP - JACKSONVILLE
4,NAVASSA,BRUNSWICK,North Carolina,28451,KERR-MCGEE CHEMICAL CORP - NAVASSA
4,CHARLESTON,CHARLESTON,South Carolina,29405,"KOPPERS CO., INC. (CHARLESTON PLANT)"
4,FLORENCE,FLORENCE,South Carolina,29503,"KOPPERS CO., INC. (FLORENCE PLANT)"
4,MORRISVILLE,WAKE,North Carolina,27560,"KOPPERS CO., INC. (MORRISVILLE PLANT)"
4,LAKELAND,POLK,Florida,33815,LANDIA CHEMICAL COMPANY
4,BRUNSWICK,GLYNN,Georgia,31520,LCP CHEMICALS GEORGIA
4,LOUISVILLE,JEFFERSON,Kentucky,40216,LEE'S LANE LANDFILL
4,ROCK HILL,YORK,South Carolina,29704,"LEONARD CHEMICAL CO., INC."
4,LEWISBURG,MARSHALL,Tennessee,37091,LEWISBURG DUMP
4,CAYCE,LEXINGTON,South Carolina,29033,LEXINGTON COUNTY LANDFILL AREA
4,ATHENS,CLARKE,Georgia,30622,"LUMINOUS PROCESSES, INC."
4,LYMAN,SPARTANBURG,South Carolina,29365,LYMAN DYEING AND FINISHING
4,NORTH CHARLESTON,CHARLESTON,South Carolina,29405,MACALLOY CORPORATION
4,MACON,BIBB,Georgia,31206,MACON NAVAL ORDNANCE PLANT
4,MADISON,MADISON,Florida,32340,MADISON COUNTY SANITARY LANDFILL
4,WAYNESBORO,WAYNE,Tennessee,38485,MALLORY CAPACITOR CO.
4,ALBANY,DOUGHERTY,Georgia,31704,MARINE CORPS LOGISTICS BASE
4,CHARLOTTE,MECKLENBURG,North Carolina,28214,"MARTIN-MARIETTA, SODYECO, INC."
4,TIFTON,TIFT,Georgia,31794,MARZONE INC./CHEVRON CHEMICAL CO.
4,KENSINGTON,WALKER,Georgia,30728,MATHIS BROTHERS LANDFILL (SOUTH MARBLE TOP ROAD)
4,HILLSBORO,FLEMING,Kentucky,41049,MAXEY FLATS NUCLEAR DISPOSAL
4,GAFFNEY,CHEROKEE,South Carolina,29340,MEDLEY FARM DRUM DUMP
4,MEMPHIS,SHELBY,Tennessee,38114,MEMPHIS DEFENSE DEPOT (DLA)
4,MIAMI,MIAMI-DADE,Florida,33166,MIAMI DRUM SERVICES
4,MILAN,CARROLL,Tennessee,38358,MILAN ARMY AMMUNITION PLANT
4,PASCAGOULA,JACKSON,Mississippi,39581,MISSISSIPPI PHOSPHATES CORPORATION
4,AUGUSTA,RICHMOND,Georgia,30903,MONSANTO CORP. (AUGUSTA PLANT)
4,GREENVILLE,BUTLER,Alabama,36037,MOWBRAY ENGINEERING CO.
4,TAMPA,HILLSBOROUGH,Florida,33619,MRI CORP (TAMPA)
4,NORTH MIAMI,MIAMI-DADE,Florida,33161,MUNISPORT LANDFILL
4,LAWRENCEBURG,LAWRENCE,Tennessee,38464,MURRAY-OHIO DUMP
4,DAYHOIT,HARLAN,Kentucky,40824,NATIONAL ELECTRIC COIL CO./COOPER INDUSTRIES
4,CORDOVA,SHELBY,Tennessee,38018,NATIONAL FIREWORKS
4,HAWESVILLE,HANCOCK,Kentucky,42348,NATIONAL SOUTHWIRE ALUMINUM CO.
4,SALISBURY,ROWAN,North Carolina,28144,NATIONAL STARCH & CHEMICAL CORP.
4,WILMINGTON,NEW HANOVER,North Carolina,28401,NEW HANOVER CNTY AIRPORT BURN PIT
4,NEWPORT,CAMPBELL,Kentucky,41072,NEWPORT DUMP
4,COLUMBIA,MARION,Mississippi,39429,"NEWSOM BROTHERS/OLD REICHHOLD CHEMICALS, INC."
4,NOCATEE,[blank county],Florida,34268,NOCATEE HULL CREOSOTE
4,TEMPLE TERRACE,HILLSBOROUGH,Florida,33617,NORMANDY PARK APARTMENTS
4,NORTH BELMONT,GASTON,North Carolina,28012,NORTH BELMONT PCE
4,RALEIGH,WAKE,North Carolina,27607,"NORTH CAROLINA STATE UNIVERSITY (LOT 86, FARM UNIT #1)"
4,MEMPHIS,SHELBY,Tennessee,38108,NORTH HOLLYWOOD DUMP
4,HIALEAH,MIAMI-DADE,Florida,33012,NORTHWEST 58TH STREET LANDFILL
4,OAK RIDGE,[blank county],Tennessee,37830,OAK RIDGE RESERVATION (USDOE)
4,MCINTOSH,WASHINGTON,Alabama,36553,OLIN CORP. (MCINTOSH PLANT)
4,Ashe County,ASHE,North Carolina,28640,ORE KNOB MINE
4,ORLANDO,ORANGE,Florida,32801,ORLANDO GASIFICATION PLANT
4,PADUCAH,MCCRACKEN,Kentucky,42053,PADUCAH GASEOUS DIFFUSION PLANT (USDOE)
4,COLUMBIA,RICHLAND,South Carolina,29203,"PALMETTO RECYCLING, INC."
4,DIXIANA,LEXINGTON,South Carolina,29033,PALMETTO WOOD PRESERVING
4,SIMPSONVILLE,GREENVILLE,South Carolina,29681,"PARA-CHEM SOUTHERN, INC."
4,MOUNT PLEASANT,GADSDEN,Florida,32352,PARRAMORE SURPLUS
4,PARRIS ISLAND,BEAUFORT,South Carolina,29902,PARRIS ISLAND MARINE CORPS RECRUIT DEPOT
4,AUGUSTA,RICHMOND,Georgia,30906,PEACH ORCHARD RD PCE GROUNDWATER PLUME SITE
4,TAMPA,HILLSBOROUGH,Florida,33619,PEAK OIL CO./BAY DRUM CO.
4,PENSACOLA,ESCAMBIA,Florida,32508,PENSACOLA NAVAL AIR STATION
4,MEDLEY,MIAMI-DADE,Florida,33178-1135,"PEPPER STEEL & ALLOYS, INC."
4,PERDIDO,BALDWIN,Alabama,36562,PERDIDO GROUND WATER CONTAMINATION
4,PEMBROKE PARK,BROWARD,Florida,33024,PETROLEUM PRODUCTS CORP.
4,PICAYUNE,PEARL RIVER,Mississippi,39466,PICAYUNE WOOD TREATING SITE
4,JACKSONVILLE,DUVAL,Florida,32205,PICKETTVILLE ROAD LANDFILL
4,PENSACOLA,ESCAMBIA,Florida,32526,PIONEER SAND CO.
4,VERO BEACH,INDIAN RIVER,Florida,32960,PIPER AIRCRAFT CORP./VERO BEACH WATER & SEWER DEPARTMENT
4,QUINCY,GADSDEN,Florida,32351,POST AND LUMBER PRESERVING CO INC
4,WESSON,COPIAH,Mississippi,39191,POTTER CO.
4,MACO,BRUNSWICK,North Carolina,28451,POTTER'S SEPTIC TANK SERVICE PITS
4,PEACH COUNTY,PEACH,Georgia,31074,POWERSVILLE SITE
4,TAMPA,HILLSBOROUGH,Florida,33619,RALEIGH STREET DUMP
4,CHARLOTTE,MECKLENBURG,North Carolina,28212,RAM LEATHER CARE SITE
4,CASTLE HAYNE,NEW HANOVER,North Carolina,28429,REASOR CHEMICAL COMPANY
4,CLARKSDALE,COAHOMA,Mississippi,38614,RED PANTHER CHEMICAL COMPANY
4,PEEWEE VALLEY,OLDHAM,Kentucky,40014,RED PENN SANITATION CO. LANDFILL
4,SARALAND,MOBILE,Alabama,36571,"REDWING CARRIERS, INC. (SARALAND)"
4,TAMPA,HILLSBOROUGH,Florida,33691-7721,REEVES SOUTHEASTERN GALVANIZING CORP.
4,210 MILES OF ROADS,WARREN,North Carolina,27589,ROADSIDE PCB SPILL
4,HOUSTON COUNTY,HOUSTON,Georgia,31098,ROBINS AIR FORCE BASE (LANDFILL #4/SLUDGE LAGOON)
4,TRAVELERS REST,GREENVILLE,South Carolina,29690,ROCHESTER PROPERTY
4,ROCK HILL,YORK,South Carolina,29730,ROCK HILL CHEMICAL CO.
4,GRENADA,GRENADA,Mississippi,38901,ROCKWELL INTERNATIONAL WHEEL & TRIM
4,ROSSVILLE,FAYETTE,Tennessee,38066,ROSS METALS INC.
4,SANFORD,SEMINOLE,Florida,32771,SANFORD DRY CLEANERS
4,SANFORD,SEMINOLE,Florida,32771,SANFORD GASIFICATION PLANT
4,PICKENS,PICKENS,South Carolina,29671,"SANGAMO WESTON, INC./TWELVE-MILE CREEK/LAKE HARTWELL PCB CONTAMINATION"
4,COTTONDALE,JACKSON,Florida,32431,SAPP BATTERY SALVAGE
4,AIKEN,[blank county],South Carolina,29802,SAVANNAH RIVER SITE (USDOE)
4,PLANT CITY,HILLSBOROUGH,Florida,33566,SCHUYLKILL METALS CORP.
4,COLUMBIA,RICHLAND,South Carolina,29209,SCRDI BLUFF ROAD
4,CAYCE,LEXINGTON,South Carolina,29033,SCRDI DIXIANA
4,DELAND,VOLUSIA,Florida,32724,SHERWOOD MEDICAL INDUSTRIES
4,BARNWELL,BARNWELL,South Carolina,29812,SHURON INC.
4,STATESVILLE,IREDELL,North Carolina,28677,SIGMON'S SEPTIC TANK SERVICE
4,MEMPHIS,SHELBY,Tennessee,38107,SIXTY ONE INDUSTRIAL PARK
4,TAMPA,HILLSBOROUGH,Florida,33619,SIXTY-SECOND STREET DUMP
4,COLLIERVILLE,SHELBY,Tennessee,38017,SMALLEY-PIPER
4,BROOKS,BULLITT,Kentucky,40165,SMITH'S FARM
4,KNOXVILLE,KNOX,Tennessee,37920,SMOKEY MOUNTAIN SMELTERS
4,WEST PALM BEACH,PALM BEACH,Florida,33404,SOLITRON DEVICES INC
4,STUART,MARTIN,Florida,34997,SOLITRON MICROWAVE
4,FLOWOOD,RANKIN,Mississippi,39208-3227,SONFORD PRODUCTS
4,CANTON,MADISON,Mississippi,39046,SOUTHEASTERN WOOD PRESERVING
4,TAMPA,HILLSBOROUGH,Florida,33605,"SOUTHERN SOLVENTS, INC."
4,CHATTANOOGA,HAMILTON,Tennessee,37408,SOUTHSIDE CHATTANOOGA LEAD
4,LONGWOOD,SEMINOLE,Florida,32750,SPRAGUE ELECTRIC COMPANY
4,HIALEAH,MIAMI-DADE,Florida,33010,STANDARD AUTO BUMPER CORP.
4,TAMPA,HILLSBOROUGH,Florida,33619,STAUFFER CHEMICAL CO (TAMPA)
4,BUCKS,MOBILE,Alabama,36512,STAUFFER CHEMICAL CO. (COLD CREEK PLANT)
4,AXIS,MOBILE,Alabama,36505,STAUFFER CHEMICAL CO. (LEMOYNE PLANT)
4,TARPON SPRINGS,PINELLAS,Florida,34689,STAUFFER CHEMICAL CO. (TARPON SPRINGS)
4,BRANDON,HILLSBOROUGH,Florida,33594,SYDNEY MINE SLUDGE PONDS
4,ALBANY,DOUGHERTY,Georgia,31707,T.H. AGRICULTURE & NUTRITION CO. (ALBANY PLANT)
4,MONTGOMERY,MONTGOMERY,Alabama,36108,T.H. AGRICULTURE & NUTRITION CO. (MONTGOMERY PLANT)
4,SEFFNER,HILLSBOROUGH,Florida,33619,TAYLOR ROAD LANDFILL
4,CHATTANOOGA,HAMILTON,Tennessee,37410,TENNESSEE PRODUCTS
4,BRUNSWICK,GLYNN,Georgia,31520,TERRY CREEK DREDGE SPOIL AREAS/HERCULES OUTFALL
4,CLERMONT,LAKE,Florida,34711,TOWER CHEMICAL CO.
4,PONTIAC,RICHLAND,South Carolina,29045,TOWNSEND SAW CHAIN CO.
4,LAKE PARK,PALM BEACH,Florida,33403,"TRANS CIRCUITS, INC."
4,SHEPHERDSVILLE,BULLITT,Kentucky,40109,TRI-CITY DISPOSAL CO.
4,TAMPA,HILLSBOROUGH,Florida,33617,"TRI-CITY OIL CONSERVATIONIST, INC"
4,LIMESTONE/MORGAN,[blank county],Alabama,35898,TRIANA/TENNESSEE RIVER
4,PANAMA CITY,BAY,Florida,32403,TYNDALL AIR FORCE BASE
4,MARIANNA,JACKSON,Florida,32446,"UNITED METALS, INC."
4,GREENVILLE,GREENVILLE,South Carolina,29617,US FINISHING/CONE MILLS
4,HUNTSVILLE,MADISON,Alabama,35808,USARMY/NASA REDSTONE ARSENAL
4,JACKSONVILLE,DUVAL,Florida,32215,USN AIR STATION CECIL FIELD
4,MIAMI,MIAMI-DADE,Florida,33159,VARSOL SPILL
4,TOONE,HARDEMAN,Tennessee,38381,VELSICOL CHEMICAL CORP. (HARDEMAN COUNTY)
4,GREENVILLE,WASHINGTON,Mississippi,38701,WALCOTTE CHEMICAL CO. WAREHOUSES
4,COLLIERVILLE,SHELBY,Tennessee,38017,"WALKER MACHINE PRODUCTS, INC."
4,BURTON,BEAUFORT,South Carolina,29902,"WAMCHEM, INC."
4,RALEIGH,WAKE,North Carolina,27614,WARD TRANSFORMER
4,PLYMOUTH,MARTIN,North Carolina,27962,WEYERHAEUSER CO PLYMOUTH WOOD TRTNG PT
4,WHITEHOUSE,DUVAL,Florida,32220,WHITEHOUSE OIL PITS
4,MILTON,SANTA ROSA,Florida,32570,WHITING FIELD NAVAL AIR STATION
4,POMPANO BEACH,BROWARD,Florida,33069,"WILSON CONCEPTS OF FLORIDA, INC."
4,FORT LAUDERDALE,BROWARD,Florida,33311,WINGATE ROAD MUNICIPAL INCINERATOR DUMP
4,PRINCETON,MIAMI-DADE,Florida,33032,WOODBURY CHEMICAL CO. (PRINCETON PLANT)
4,FORT VALLEY,PEACH,Georgia,31030,"WOOLFOLK CHEMICAL WORKS, INC."
4,RIEGELWOOD,COLUMBUS,North Carolina,28456,WRIGHT CHEMICAL CORPORATION
4,WRIGLEY,HICKMAN,Tennessee,37098,WRIGLEY CHARCOAL PLANT
4,BALDWIN,DUVAL,Florida,32234,YELLOW WATER ROAD
4,ZELLWOOD,ORANGE,Florida,32757,ZELLWOOD GROUND WATER CONTAMINATION
5,GREENUP,CUMBERLAND,Illinois,62428,"A & F MATERIAL RECLAIMING, INC."
5,MORRISTOWN,WINNEBAGO,Illinois,61109,"ACME SOLVENT RECLAIMING, INC. (MORRISTOWN PLANT)"
5,LANSING,INGHAM,Michigan,48917,ADAM'S PLATING
5,QUINCY,ADAMS,Illinois,62301,ADAMS COUNTY QUINCY LANDFILLS 2&3
5,ADRIAN,NOBLES,Minnesota,56110,ADRIAN MUNICIPAL WELL FIELD
5,FAIRVIEW TOWNSHIP,CASS,Minnesota,56473,AGATE LAKE SCRAPYARD
5,COLUMBUS,FRANKLIN,Ohio,43219,AIR FORCE PLANT 85
5,BENTON HARBOR,BERRIEN,Michigan,49022,AIRCRAFT COMPONENTS (D & L SALES)
5,ALBION,CALHOUN,Michigan,49224,ALBION-SHERIDAN TOWNSHIP LANDFILL
5,EAST ST. LOUIS,ST. CLAIR,Illinois,62205,ALCOA PROPERTIES
5,ALGOMA,KEWAUNEE,Wisconsin,54201,ALGOMA MUNICIPAL LANDFILL
5,IRONTON,LAWRENCE,Ohio,45638,ALLIED CHEMICAL & IRONTON COKE
5,KALAMAZOO,KALAMAZOO,Michigan,49003,"ALLIED PAPER, INC./PORTAGE CREEK/KALAMAZOO RIVER"
5,GNADENHUTTEN,TUSCARAWAS,Ohio,44629,ALSCO ANACONDA
5,CEDARBURG,OZAUKEE,Wisconsin,53012,AMCAST INDUSTRIAL CORPORATION
5,IONIA,IONIA,Michigan,48846,"AMERICAN ANODCO, INC."
5,GRIFFITH,LAKE,Indiana,46319,"AMERICAN CHEMICAL SERVICE, INC."
5,JOLIET,WILL,Illinois,60434,AMOCO CHEMICALS (JOLIET LANDFILL)
5,ADRIAN,LENAWEE,Michigan,49221,ANDERSON DEVELOPMENT CO.
5,DARKE COUNTY,DARKE,Ohio,45304,ARCANUM IRON & METAL
5,HAMILTON,BUTLER,Ohio,45011,ARMCO INCORPORATION-HAMILTON PLANT
5,HERMANTOWN,ST. LOUIS,Minnesota,55810,ARROWHEAD REFINERY CO.
5,TAYLOR SPRINGS,MONTGOMERY,Illinois,62089,ASARCO TAYLOR SPRINGS
5,ASHLAND,ASHLAND,Wisconsin,54806,ASHLAND/NORTHERN STATES POWER LAKEFRONT
5,KALAMAZOO,KALAMAZOO,Michigan,49006,"AUTO ION CHEMICALS, INC."
5,TRAVERSE CITY,GRAND TRAVERSE,Michigan,49684,"AVENUE ""E"" GROUND WATER CONTAMINATION"
5,LANSING,INGHAM,Michigan,48906,"BARRELS, INC."
5,GALENA,JO DAVIESS,Illinois,61036,BAUTSCH-GRAY MINE
5,BAY CITY,BAY,Michigan,48706,BAY CITY MIDDLEGROUNDS
5,BAYTOWN TOWNSHIP,WASHINGTON,Minnesota,55042,BAYTOWN TOWNSHIP GROUND WATER PLUME
5,SOUTH BEND,ST. JOSEPH,Indiana,46619,BECK'S LAKE
5,DAYTON,MONTGOMERY,Ohio,45404,BEHR DAYTON THERMAL SYSTEM VOC PLUME
5,ROCKTON,WINNEBAGO,Illinois,61072,BELOIT CORP.
5,BELVIDERE,BOONE,Illinois,61008,BELVIDERE MUNICIPAL LANDFILL
5,ST. JOSEPH,BERRIEN,Michigan,49085,BENDIX CORP./ALLIED AUTOMOTIVE
5,BLOOMINGTON,MONROE,Indiana,47401,BENNETT STONE QUARRY
5,SWARTZ CREEK,GENESEE,Michigan,48473,BERLIN & FARRO
5,DE PERE,BROWN,Wisconsin,54115,BETTER BRITE PLATING CO. CHROME AND ZINC SHOPS
5,KINGSVILLE,ASHTABULA,Ohio,44048,BIG D CAMPGROUND
5,MUSKEGON,MUSKEGON,Michigan,49442,"BOFORS NOBEL, INC."
5,FRIDLEY,ANOKA,Minnesota,55432,"BOISE CASCADE/ONAN CORP./MEDTRONICS, INC."
5,CIRCLEVILLE,PICKAWAY,Ohio,43113,BOWERS LANDFILL
5,ANDERSON,MADISON,Indiana,46016,BROADWAY STREET CORRIDOR GROUNDWATER CONTAMINATION
5,ST. CLAIRSVILLE,BELMONT,Ohio,43950,BUCKEYE RECLAMATION
5,BRAINERD/BAXTER,CROW WING,Minnesota,56401,BURLINGTON NORTHERN (BRAINERD/BAXTER PLANT)
5,MILWAUKEE,MILWAUKEE,Wisconsin,53204,BURNHAM CANAL - MILLER COMPRESSING COMPANY
5,HARTFORD,VAN BUREN,Michigan,49057,BURROWS SANITATION
5,GRAND RAPIDS,KENT,Michigan,49504,BUTTERWORTH #2 LANDFILL
5,BYRON,OGLE,Illinois,61010,BYRON SALVAGE YARD
5,WESTVILLE,LA PORTE,Indiana,46391,CAM-OR INC.
5,SAULT STE MARIE,CHIPPEWA,Michigan,49783,"CANNELTON INDUSTRIES, INC."
5,DETROIT,WAYNE,Michigan,48208,"CARTER INDUSTRIALS, INC."
5,INDIANAPOLIS,MARION,Indiana,46222,CARTER LEE LUMBER CO.
5,CEDARBURG,OZAUKEE,Wisconsin,53012,CEDAR CREEK
5,ROSE CENTER,OAKLAND,Michigan,48442,CEMETERY DUMP
5,TAYLORVILLE,CHRISTIAN,Illinois,62568,CENTRAL ILLINOIS PUBLIC SERVICE CO.
5,RANTOUL,CHAMPAIGN,Illinois,61866,CHANUTE AIR FORCE BASE
5,CHARLEVOIX,CHARLEVOIX,Michigan,49720,CHARLEVOIX MUNICIPAL WELL
5,WYOMING TOWNSHIP,KENT,Michigan,49548,CHEM CENTRAL
5,HAMILTON,BUTLER,Ohio,45011,CHEM-DYNE
5,HARTFORD,MADISON,Illinois,62048,CHEMETCO
5,CLEVELAND,CUYAHOGA,Ohio,44102,CHEMICAL & MINERALS RECLAMATION
5,ELYRIA,LORAIN,Ohio,44035,CHEMICAL RECOVERY
5,BECKEMEYER,CLINTON,Illinois,62231,CIRCLE SMELTING CORP.
5,DUNN,DANE,Wisconsin,53575,CITY DISPOSAL CORP. LANDFILL
5,CLARE,CLARE,Michigan,48617,CLARE WATER SUPPLY
5,LOGANSPORT,CASS,Indiana,46947,CLIFF DRIVE GROUNDWATER CONTAMINATION
5,MARQUETTE,MARQUETTE,Michigan,49855,CLIFF/DOW DUMP
5,COLUMBUS,BARTHOLOMEW,Indiana,47201,COLUMBUS OLD MUNICIPAL LANDFILL #1
5,ELKHART,ELKHART,Indiana,46514,CONRAIL RAIL YARD (ELKHART)
5,KOKOMO,HOWARD,Indiana,46902,CONTINENTAL STEEL CORP.
5,COPLEY,SUMMIT,Ohio,44321,COPLEY SQUARE PLAZA
5,FRANKLIN TOWNSHIP,COSHOCTON,Ohio,43812,COSHOCTON LANDFILL
5,PEMBROKE TOWNSHIP,KANKAKEE,Illinois,60944,CROSS BROTHERS PAIL RECYCLING (PEMBROKE)
5,CANNON FALLS,DAKOTA,Minnesota,55031,DAKHUE SANITARY LANDFILL
5,DELAVAN,WALWORTH,Wisconsin,53115,DELAVAN MUNICIPAL WELL #4
5,DEPUE,BUREAU,Illinois,61356,DEPUE/NEW JERSEY ZINC/MOBIL CHEMICAL CORP.
5,PAINESVILLE,LAKE,Ohio,44077,DIAMOND SHAMROCK CORP. (PAINESVILLE WORKS)
5,DONNELSVILLE,CLARK,Ohio,45319,DONNELSVILLE CONTAMINATED AQUIFER
5,MISHAWAKA,ST. JOSEPH,Indiana,46544,"DOUGLASS ROAD/UNIROYAL, INC., LANDFILL"
5,DOVER,TUSCARAWAS,Ohio,44622,DOVER CHEMICAL CORP.
5,GIBRALTAR,WAYNE,Michigan,48173-9736,DSC MCLOUTH STEEL GIBRALTAR PLANT
5,DALTON TOWNSHIP,MUSKEGON,Michigan,49445,DUELL & GARDNER LANDFILL
5,WARRENVILLE,DUPAGE,Illinois,60555,DUPAGE COUNTY LANDFILL/BLACKWELL FOREST PRESERVE
5,HAMILTON TOWNSHIP,LAWRENCE,Ohio,45695,E.H. SCHILLING LANDFILL
5,HILLSBORO,MONTGOMERY,Illinois,62049,EAGLE ZINC CO DIV T L DIAMOND
5,EAST BETHEL TOWNSHIP,ANOKA,Minnesota,55011,EAST BETHEL DEMOLITION LANDFILL
5,TROY,MIAMI,Ohio,45373,EAST TROY CONTAMINATED AQUIFER
5,EAU CLAIRE,EAU CLAIRE,Wisconsin,54701,EAU CLAIRE MUNICIPAL WELL FIELD
5,BUCHANAN,BERRIEN,Michigan,49107,ELECTROVOICE
5,DOWNERS GROVE,DUPAGE,Illinois,60515,ELLSWORTH INDUSTRIAL PARK
5,TERRE HAUTE,VIGO,Indiana,47807-1920,ELM STREET GROUND WATER CONTAMINATION
5,ZIONSVILLE,BOONE,Indiana,46077,ENVIROCHEM CORP.
5,CALUMET CITY,COOK,Illinois,60409,ESTECH GENERAL CHEMICAL COMPANY
5,WINNEBAGO COUNTY,WINNEBAGO,Illinois,61073,EVERGREEN MANOR GROUND WATER CONTAMINATION
5,FRANKLIN,MILWAUKEE,Wisconsin,53132,FADROWSKI DRUM DISPOSAL
5,FERNALD,[blank county],Ohio,45030,FEED MATERIALS PRODUCTION CENTER (USDOE)
5,ASHTABULA,ASHTABULA,Ohio,44004,FIELDS BROOK
5,LA PORTE,LA PORTE,Indiana,46350,FISHER-CALO
5,FRIDLEY,ANOKA,Minnesota,55421,FMC CORP. (FRIDLEY PLANT)
5,GRAND RAPIDS,KENT,Michigan,49504,FOLKERTSMA REFUSE
5,ELYRIA,LORAIN,Ohio,44035,FORD RD IND LDFL
5,OTISVILLE,GENESEE,Michigan,48463,FOREST WASTE PRODUCTS
5,FORT WAYNE,ALLEN,Indiana,46803,FORT WAYNE REDUCTION DUMP
5,GREEN BAY,BROWN,Wisconsin,54302,FOX RIVER NRDA/PCB RELEASES
5,SPENCER,OWEN,Indiana,47460,FRANKLIN STREET GROUNDWATER CONTAMINATION
5,BURNSVILLE,DAKOTA,Minnesota,55337,FREEWAY SANITARY LANDFILL
5,FRIDLEY,ANOKA,Minnesota,55432,FRIDLEY COMMONS PARK WELL FIELD
5,JACKSON TOWNSHIP,GUERNSEY,Ohio,43723,FULTZ LANDFILL
5,UTICA,MACOMB,Michigan,48316,G&H LANDFILL
5,OSCEOLA,ST. JOSEPH,Indiana,46561,GALEN MYERS DUMP/DRUM SALVAGE
5,GALESBURG,KNOX,Illinois,60401,GALESBURG/KOPPERS CO.
5,GARDEN CITY,BARTHOLOMEW,Indiana,47201,GARDEN CITY GROUND WATER PLUME
5,GARY,LAKE,Indiana,46406,GARY DEVELOPMENT LANDFILL
5,MINNEAPOLIS,HENNEPIN,Minnesota,55414,GENERAL MILLS/HENKEL CORP.
5,GREILICKVILLE,LEELANAU,Michigan,49684,GRAND TRAVERSE OVERALL SUPPLY CO.
5,ST. LOUIS,GRATIOT,Michigan,48880,GRATIOT COUNTY GOLF COURSE
5,ST. LOUIS,GRATIOT,Michigan,48880,GRATIOT COUNTY LANDFILL
5,BELDING,IONIA,Michigan,48809,H & K SALES
5,GRAND RAPIDS,KENT,Michigan,49544,"H. BROWN CO., INC."
5,ANTIOCH,LAKE,Illinois,60002,H.O.D. LANDFILL
5,STOUGHTON,DANE,Wisconsin,53589,HAGEN FARM
5,WILLIAMSTOWN,DODGE,Wisconsin,53032,HECHIMOVICH SANITARY LANDFILL
5,OSCODA,IOSCO,Michigan,48750,HEDBLUM INDUSTRIES
5,DANVILLE,VERMILION,Illinois,61832,HEGELER ZINC
5,HIGHLAND,OAKLAND,Michigan,48356,HI-MILL MANUFACTURING CO.
5,ELKHART,ELKHART,Indiana,46514,HIMCO DUMP
5,CALEDONIA,RACINE,Wisconsin,53108,HUNTS DISPOSAL LANDFILL
5,EAST CAPE GIRARDEAU,ALEXANDER,Illinois,62957,ILADA ENERGY CO.
5,LAWRENCEVILLE,LAWRENCE,Illinois,62439,INDIAN REFINERY-TEXACO LAWRENCEVILLE
5,UNIONTOWN,STARK,Ohio,44685,INDUSTRIAL EXCESS LANDFILL
5,TERRE HAUTE,VIGO,Indiana,47802,INTERNATIONAL MINERALS (E. PLANT)
5,ROCKFORD,WINNEBAGO,Illinois,61109,"INTERSTATE POLLUTION CONTROL, INC."
5,IONIA,IONIA,Michigan,48846,IONIA CITY LANDFILL
5,ROCHESTER HILLS,OAKLAND,Michigan,48307,J & L LANDFILL
5,EVANSVILLE,VANDERBURGH,Indiana,47710,JACOBSVILLE NEIGHBORHOOD SOIL CONTAMINATION
5,JANESVILLE,ROCK,Wisconsin,53545,JANESVILLE ASH BEDS
5,JANESVILLE,ROCK,Wisconsin,53545,JANESVILLE OLD LANDFILL
5,GRANITE CITY,MADISON,Illinois,62040,JENNISON-WRIGHT CORPORATION
5,WAUKEGAN,LAKE,Illinois,60085,JOHNS-MANVILLE CORP.
5,JOLIET,WILL,Illinois,60434,JOLIET ARMY AMMUNITION PLANT (LOAD-ASSEMBLY-PACKING AREA)
5,JOLIET,WILL,Illinois,60434,JOLIET ARMY AMMUNITION PLANT (MANUFACTURING AREA)
5,BROOKLYN CENTER,HENNEPIN,Minnesota,55422,JOSLYN MANUFACTURING & SUPPLY CO.
5,OSHTEMO TOWNSHIP,KALAMAZOO,Michigan,49009,K&L AVENUE LANDFILL
5,MUSKEGON,MUSKEGON,Michigan,49441,KAYDON CORP.
5,KENT CITY,KENT,Michigan,49330,KENT CITY MOBILE HOME PARK
5,KENTWOOD,KENT,Michigan,49512,KENTWOOD LANDFILL
5,DUPAGE COUNTY,DUPAGE,Illinois,60185,KERR-MCGEE (KRESS CREEK/WEST BRANCH OF DUPAGE RIVER)
5,WEST CHICAGO,DUPAGE,Illinois,60185,KERR-MCGEE (REED-KEPPLER PARK)
5,WEST CHICAGO,DUPAGE,Illinois,60185,KERR-MCGEE (RESIDENTIAL AREAS)
5,WEST CHICAGO,DUPAGE,Illinois,60185,KERR-MCGEE (SEWAGE TREATMENT PLANT)
5,INDIANAPOLIS,MARION,Indiana,46205,KEYSTONE CORRIDOR GROUND WATER CONTAMINATION
5,ROSEMOUNT,DAKOTA,Minnesota,55058,KOCH REFINING CO./N-REN CORP.
5,KOHLER,SHEBOYGAN,Wisconsin,53044,KOHLER CO. LANDFILL
5,KOKOMO,HOWARD,Indiana,46901-4900,KOKOMO CONTAMINATED GROUND WATER PLUME
5,ST. PAUL,RAMSEY,Minnesota,55104,KOPPERS COKE
5,BEMIDJI,BELTRAMI,Minnesota,56601,KUMMER SANITARY LANDFILL
5,FRIDLEY,ANOKA,Minnesota,55421,KURT MANUFACTURING CO.
5,CADILLAC,WEXFORD,Michigan,49601,KYSOR INDUSTRIAL CORP.
5,LAGRAND TOWNSHIP,DOUGLAS,Minnesota,56308,LAGRAND SANITARY LANDFILL
5,CHICAGO,COOK,Illinois,60633,LAKE CALUMET CLUSTER
5,GARY,LAKE,Indiana,46404,LAKE SANDY JO (M&M LANDFILL)
5,CLAYPOOL,KOSCIUSKO,Indiana,46510,"LAKELAND DISPOSAL SERVICE, INC."
5,BEAVERCREEK,GREENE,Ohio,45385,LAMMERS BARREL FACTORY
5,ELKHART,ELKHART,Indiana,46514,LANE STREET GROUND WATER CONTAMINATION
5,LA SALLE,LA SALLE,Illinois,61301,LASALLE ELECTRIC UTILITIES
5,JEFFERSON TOWNSHIP,ASHTABULA,Ohio,44047,LASKIN/POPLAR OIL CO.
5,MENOMONEE FALLS,WAUKESHA,Wisconsin,53051,LAUER I SANITARY LANDFILL
5,LEHILLIER,BLUE EARTH,Minnesota,56001,LEHILLIER/MANKATO
5,WHITELAW,MANITOWOC,Wisconsin,54247,"LEMBERGER LANDFILL, INC."
5,FRANKLIN TOWNSHIP,MANITOWOC,Wisconsin,54247,LEMBERGER TRANSPORT & RECYCLING
5,BLOOMINGTON,MONROE,Indiana,47401,LEMON LANE LANDFILL
5,LEMONT,DUPAGE,Illinois,60439,"LENZ OIL SERVICE, INC."
5,UTICA,MACOMB,Michigan,48317,"LIQUID DISPOSAL, INC."
5,MARION COUNTY,MARION,Ohio,43302,LITTLE SCIOTO RIVER
5,LONG PRAIRIE,TODD,Minnesota,56347,LONG PRAIRIE GROUND WATER CONTAMINATION
5,WYANDOTTE,WAYNE,Michigan,48192,LOWER ECORSE CREEK DUMP
5,Elkhart,ELKHART,Indiana,46516,LUSHER STREET GROUND WATER CONTAMINATION
5,NEW BRIGHTON,RAMSEY,Minnesota,55112,MACGILLIS & GIBBS CO./BELL LUMBER & POLE CO.
5,BLOOMING GROVE,DANE,Wisconsin,53713,MADISON METROPOLITAN SEWERAGE DISTRICT LAGOONS
5,ELKHART,ELKHART,Indiana,46514,MAIN STREET WELL FIELD
5,MARION,GRANT,Indiana,46952,MARION (BRAGG) DUMP
5,PERE MARQUETTE TWP,MASON,Michigan,49431,MASON COUNTY LANDFILL
5,BROOKFIELD,WAUKESHA,Wisconsin,53005,MASTER DISPOSAL SERVICE LANDFILL
5,LA SALLE,LA SALLE,Illinois,61301,MATTHIESSEN AND HEGELER ZINC COMPANY
5,ALBION,CALHOUN,Michigan,49224,MCGRAW EDISON CORP.
5,TRENTON,WAYNE,Michigan,48183,MCLOUTH STEEL CORP
5,LAKE ANN,BENZIE,Michigan,49650,METAL WORKING SHOP
5,METAMORA,LAPEER,Michigan,48455,METAMORA LANDFILL
5,TROY,MIAMI,Ohio,45337,MIAMI COUNTY INCINERATOR
5,KALAMAZOO,KALAMAZOO,Michigan,49001,MICHIGAN DISPOSAL SERVICE (CORK STREET LANDFILL)
5,CLEVELAND TOWNSHIP,MARATHON,Wisconsin,53013,"MID-STATE DISPOSAL, INC. LANDFILL"
5,GARY,LAKE,Indiana,46401,MIDCO I
5,GARY,LAKE,Indiana,46406,MIDCO II
5,BELVIDERE,BOONE,Illinois,61008,MIG/DEWANE LANDFILL
5,MILFORD,CLERMONT,Ohio,45150,MILFORD CONTAMINATED AQUIFER
5,MORRIS,STEVENS,Minnesota,56267,MORRIS ARSENIC DUMP
5,MILWAUKEE,MILWAUKEE,Wisconsin,53244,"MOSS-AMERICAN CO., INC. (KERR-MCGEE OIL CO.)"
5,LANSING TOWNSHIP,INGHAM,Michigan,48906,"MOTOR WHEEL, INC."
5,MIAMISBURG,MONTGOMERY,Ohio,45342,MOUND PLANT (USDOE)
5,MUSKEGO,WAUKESHA,Wisconsin,53150,MUSKEGO SANITARY LANDFILL
5,WHITEHALL,MUSKEGON,Michigan,49461,MUSKEGON CHEMICAL CO.
5,APPLETON,OUTAGAMIE,Wisconsin,54914,"N.W. MAUTHE CO., INC."
5,EAU CLAIRE,CHIPPEWA,Wisconsin,54701,"NATIONAL PRESTO INDUSTRIES, INC."
5,FRIDLEY,ANOKA,Minnesota,55421,NAVAL INDUSTRIAL RESERVE ORDNANCE PLANT
5,SPENCER,OWEN,Indiana,47460,NEAL'S DUMP (SPENCER)
5,BLOOMINGTON,MONROE,Indiana,47401,NEAL'S LANDFILL (BLOOMINGTON)
5,SALEM,MAHONING,Ohio,44460,NEASE CHEMICAL
5,NEW BRIGHTON,RAMSEY,Minnesota,55112,NEW BRIGHTON/ARDEN HILLS/TCAAP (USARMY)
5,NEW CARLISLE,CLARK,Ohio,45344,NEW CARLISLE LANDFILL
5,NEW LYME,ASHTABULA,Ohio,44076,NEW LYME LANDFILL
5,GARY,LAKE,Indiana,46402,NINTH AVENUE DUMP
5,GRANITE CITY,MADISON,Illinois,62040,NL INDUSTRIES/TARACORP LEAD SMELTER
5,ST. LOUIS PARK,HENNEPIN,Minnesota,55426,NL INDUSTRIES/TARACORP/GOLDEN AUTO
5,BRONSON,BRANCH,Michigan,49028,NORTH BRONSON INDUSTRIAL AREA
5,DAYTON,MONTGOMERY,Ohio,45404,NORTH SANITARY LANDFILL
5,ELKHART,ELKHART,Indiana,46514,NORTH SHORE DRIVE
5,WAUKEGAN,LAKE,Illinois,60085,NORTH SHORE GAS (NSG) NORTH PLANT
5,WAUKEGAN,LAKE,Illinois,60085,NORTH SHORE GAS SOUTH PLANT
5,SPARTA,MONROE,Wisconsin,54656,NORTHERN ENGRAVING CO.
5,CADILLAC,WEXFORD,Michigan,49601,NORTHERNAIRE PLATING
5,ZIONSVILLE,BOONE,Indiana,46077,"NORTHSIDE SANITARY LANDFILL, INC"
5,TEMPERANCE,MONROE,Michigan,48182,NOVACO INDUSTRIES
5,FARIBAULT,RICE,Minnesota,55021,NUTTING TRUCK & CASTER CO.
5,OAK GROVE TOWNSHIP,ANOKA,Minnesota,55011,OAK GROVE SANITARY LANDFILL
5,OAKDALE,WASHINGTON,Minnesota,55128,OAKDALE DUMP
5,ASHIPPUN,DODGE,Wisconsin,53003,"OCONOMOWOC ELECTROPLATING CO., INC."
5,FAIRMONT CITY,ST. CLAIR,Illinois,62201,OLD AMERICAN ZINC PLANT
5,ROCK CREEK,ASHTABULA,Ohio,44084,OLD MILL
5,ORONOCO,OLMSTED,Minnesota,55960,OLMSTED COUNTY SANITARY LANDFILL
5,GERMANTOWN,WASHINGTON,Wisconsin,53022,OMEGA HILLS NORTH LANDFILL
5,ONALASKA,LA CROSSE,Wisconsin,54650,ONALASKA MUNICIPAL LANDFILL
5,GRANDVILLE,KENT,Michigan,49418,"ORGANIC CHEMICALS, INC."
5,HANNIBAL,MONROE,Ohio,43946,ORMET CORP.
5,OSSINEKE,ALPENA,Michigan,49766,OSSINEKE GROUND WATER CONTAMINATION
5,DALTON TOWNSHIP,MUSKEGON,Michigan,49445,OTT/STORY/CORDOVA CHEMICAL CO.
5,OTTAWA,LA SALLE,Illinois,61350,OTTAWA RADIATION AREAS
5,NAPLATE,LA SALLE,Illinois,61350,OTTAWA TOWNSHIP FLAT GLASS SITE
5,WAUKEGAN,LAKE,Illinois,60085,OUTBOARD MARINE CORP.
5,FILER CITY,MANISTEE,Michigan,49634,PACKAGING CORP. OF AMERICA
5,ROCKFORD,WINNEBAGO,Illinois,61109,PAGEL'S PIT
5,BELVIDERE,BOONE,Illinois,61008-2308,PARSONS CASKET HARDWARE CO.
5,GRAND LEDGE,EATON,Michigan,48837,"PARSONS CHEMICAL WORKS, INC."
5,MUSKEGON,MUSKEGON,Michigan,49444,PEERLESS PLATING CO.
5,DANIELS,BURNETT,Wisconsin,54872,PENTA WOOD PRODUCTS
5,CHICAGO,COOK,Illinois,60623,PEOPLES GAS CRAWFORD STATION FORMER MGP
5,CHICAGO,COOK,Illinois,60608,PEOPLES GAS LIGHT & COKE - 22ND ST
5,CHICAGO,COOK,Illinois,60622,PEOPLES GAS LIGHT & COKE - DIVISION ST
5,CHICAGO,COOK,Illinois,60610,PEOPLES GAS LIGHT & COKE NORTH STA
5,CHICAGO,COOK,Illinois,60614,PEOPLES GAS LIGHT & COKE WILLOW ST STATION
5,CHICAGO,COOK,Illinois,60645,PEOPLES GAS NORTH SHORE AVENUE STATION FORMER MGP
5,CHICAGO,COOK,Illinois,60608,PEOPLES GAS SOUTH STATION FORMER MGP
5,CHICAGO,COOK,Illinois,60608,PEOPLES GAS THROOP STREET FORMER MGP
5,PERHAM,OTTER TAIL,Minnesota,56573,PERHAM ARSENIC SITE
5,KINGS MILLS,WARREN,Ohio,45039,PETERS CARTRIDGE FACTORY
5,LIBERTYVILLE,LAKE,Illinois,60048,PETERSEN SAND & GRAVEL
5,MARTINSVILLE,MORGAN,Indiana,46151,PIKE AND MULBERRY STREETS PCE PLUME
5,DAKOTA COUNTY,DAKOTA,Minnesota,55075,PINE BEND SANITARY LANDFILL
5,PETOSKEY,EMMET,Michigan,49770,PMC GROUNDWATER
5,HANCOCK COUNTY,HANCOCK,Indiana,46117,POER FARM
5,DAYTON,MONTGOMERY,Ohio,45424,POWELL ROAD LANDFILL
5,VINCENNES,KNOX,Indiana,47591,PRESTOLITE BATTERY DIVISION
5,READING,HAMILTON,Ohio,45215,"PRISTINE, INC."
5,BRIGHTON,LIVINGSTON,Michigan,48116,RASMUSSEN'S DUMP
5,MIDDLETON,DANE,Wisconsin,53562,REFUSE HIDEAWAY LANDFILL
5,DOVER,TUSCARAWAS,Ohio,44622,REILLY TAR & CHEMICAL CORP. (DOVER PLANT)
5,INDIANAPOLIS,MARION,Indiana,46241,REILLY TAR & CHEMICAL CORP. (INDIANAPOLIS PLANT)
5,ST. LOUIS PARK,HENNEPIN,Minnesota,55426,REILLY TAR & CHEMICAL CORP. (ST. LOUIS PARK PLANT)
5,ELYRIA,LORAIN,Ohio,44035,REPUBLIC STEEL CORP. QUARRY
5,FOND DU LAC COUNTY,FOND DU LAC,Wisconsin,54971,RIPON CITY LANDFILL
5,SEBEKA,WADENA,Minnesota,56477,RITARI POST & POLE
5,INDIANAPOLIS,MARION,Indiana,46202,RIVERSIDE GROUND WATER CONTAMINATION
5,ALLEGAN,ALLEGAN,Michigan,49010,ROCKWELL INTERNATIONAL CORP. (ALLEGAN PLANT)
5,ROSE TOWNSHIP,OAKLAND,Michigan,48654,ROSE TOWNSHIP DUMP
5,KALAMAZOO,KALAMAZOO,Michigan,49002,"ROTO-FINISH CO., INC."
5,SANDOVAL,MARION,Illinois,62882,SANDOVAL ZINC COMPANY
5,CARTERVILLE,WILLIAMSON,Illinois,62959,SANGAMO ELECTRIC DUMP/CRAB ORCHARD NATIONAL WILDLIFE REFUGE (USDOI)
5,MORAINE,MONTGOMERY,Ohio,45409,"SANITARY LANDFILL CO. (INDUSTRIAL WASTE DISPOSAL CO., INC.)"
5,SAUGET,ST. CLAIR,Illinois,62206,SAUGET AREA 1
5,SAUGET,ST. CLAIR,Illinois,62201,SAUGET AREA 2
5,EXCELSIOR,SAUK,Wisconsin,53959,SAUK COUNTY LANDFILL
5,SAVANNA,JO DAVIESS,Illinois,61074,SAVANNA ARMY DEPOT ACTIVITY
5,MUSKEGON HEIGHTS,MUSKEGON,Michigan,49444,SCA INDEPENDENT LANDFILL
5,HARRISON,CALUMET,Wisconsin,54911,SCHMALZ DUMP
5,MEDFORD,TAYLOR,Wisconsin,54451,"SCRAP PROCESSING CO., INC."
5,SEYMOUR,JACKSON,Indiana,47274,SEYMOUR RECYCLING CORP.
5,SHEBOYGAN,SHEBOYGAN,Wisconsin,53081,SHEBOYGAN HARBOR & RIVER
5,HOWELL,LIVINGSTON,Michigan,48843,SHIAWASSEE RIVER
5,WEST CHESTER,BUTLER,Ohio,45069,SKINNER LANDFILL
5,MILWAUKEE,MILWAUKEE,Wisconsin,53204,SOLVAY COKE AND GAS COMPANY
5,ANDOVER,ANOKA,Minnesota,55303,SOUTH ANDOVER SITE
5,MORAINE,MONTGOMERY,Ohio,45439,SOUTH DAYTON DUMP & LANDFILL
5,MACOMB TOWNSHIP,MACOMB,Michigan,48083,SOUTH MACOMB DISPOSAL AUTHORITY (LANDFILLS #9 AND #9A)
5,MINNEAPOLIS,HENNEPIN,Minnesota,55407,SOUTH MINNEAPOLIS RESIDENTIAL SOIL CONTAMINATION
5,SOUTH POINT,LAWRENCE,Ohio,45680,SOUTH POINT PLANT
5,ROCKFORD,WINNEBAGO,Illinois,61109,SOUTHEAST ROCKFORD GROUND WATER CONTAMINATION
5,INDIANAPOLIS,MARION,Indiana,46221-5004,SOUTHSIDE SANITARY LANDFILL
5,PARK TOWNSHIP,OTTAWA,Michigan,49424,SOUTHWEST OTTAWA COUNTY LANDFILL
5,SPARTA TOWNSHIP,KENT,Michigan,49345,SPARTA LANDFILL
5,WYOMING,KENT,Michigan,49509,SPARTAN CHEMICAL CO.
5,SPENCER,MARATHON,Wisconsin,54479,SPICKLER LANDFILL
5,GREEN OAK TOWNSHIP,LIVINGSTON,Michigan,48116,SPIEGELBERG LANDFILL
5,SPRING PARK,HENNEPIN,Minnesota,55384,SPRING PARK MUNICIPAL WELL FIELD
5,DAVISBURG,OAKLAND,Michigan,49405,SPRINGFIELD TOWNSHIP DUMP
5,ST. AUGUSTA TOWNSHIP,STEARNS,Minnesota,56301,ST. AUGUSTA SANITARY LANDFILL/ENGEN DUMP
5,ST. LOUIS COUNTY,ST. LOUIS,Minnesota,55808,ST. LOUIS RIVER SITE
5,CASS LAKE,CASS,Minnesota,56633,ST. REGIS PAPER CO.
5,GRAND RAPIDS,KENT,Michigan,49505,"STATE DISPOSAL LANDFILL, INC."
5,STOUGHTON,DANE,Wisconsin,53589,STOUGHTON CITY LANDFILL
5,STURGIS,ST. JOSEPH,Michigan,49091,STURGIS MUNICIPAL WELLS
5,DEERFIELD TOWNSHIP,PORTAGE,Ohio,44411,SUMMIT NATIONAL
5,MANCELONA TOWNSHIP,ANTRIM,Michigan,49659,TAR LAKE
5,ST. CLAIR SHORES,MACOMB,Michigan,48081,TEN-MILE DRAIN
5,MUSKEGON,MUSKEGON,Michigan,49442,"THERMO-CHEM, INC."
5,LAFAYETTE,TIPPECANOE,Indiana,47905,"TIPPECANOE SANITARY LANDFILL, INC."
5,MIDLAND,MIDLAND,Michigan,48640,"TITTABAWASSEE RIVER, SAGINAW RIVER & BAY"
5,TOMAH,MONROE,Wisconsin,54660,TOMAH ARMORY
5,TOMAH,MONROE,Wisconsin,54660,TOMAH FAIRGROUNDS
5,TOMAH,MONROE,Wisconsin,54660,TOMAH MUNICIPAL SANITARY LANDFILL
5,HOUGHTON COUNTY,HOUGHTON,Michigan,49934,TORCH LAKE
5,TOWN OF PINES,PORTER,Indiana,46360,TOWN OF PINES GROUNDWATER PLUME
5,GERMAN TOWNSHIP,CLARK,Ohio,45502,TREMONT CITY BARREL FILL
5,ELGIN,KANE,Illinois,60177,"TRI-COUNTY LANDFILL CO./WASTE MANAGEMENT OF ILLINOIS, INC."
5,COLUMBUS,BARTHOLOMEW,Indiana,47201,TRI-STATE PLATING
5,MINERVA,STARK,Ohio,44657,"TRW, INC. (MINERVA PLANT)"
5,MINNEAPOLIS,HENNEPIN,Minnesota,55450,TWIN CITIES AIR FORCE RESERVE BASE (SMALL ARMS RANGE LANDFILL)
5,HOWARD TOWNSHIP,CASS,Michigan,49120,U.S. AVIEX
5,EAST CHICAGO,LAKE,Indiana,46312,"U.S. SMELTER AND LEAD REFINERY, INC."
5,MINNEAPOLIS,HENNEPIN,Minnesota,55411,UNION SCRAP IRON & METAL CO.
5,TROY,MIAMI,Ohio,45373,"UNITED SCRAP LEAD CO., INC."
5,ROSEMOUNT,DAKOTA,Minnesota,55068,UNIVERSITY OF MINNESOTA (ROSEMOUNT RESEARCH CENTER)
5,RIVERSIDE,MONTGOMERY,Ohio,45404-2609,VALLEY PIKE VOCS
5,MARIETTA,WASHINGTON,Ohio,45750,VAN DALE JUNKYARD
5,ST. LOUIS,GRATIOT,Michigan,48880,VELSICOL BURN PIT
5,MARSHALL,CLARK,Illinois,62441,VELSICOL CHEMICAL CORP. (MARSHALL PLANT)
5,ST. LOUIS,GRATIOT,Michigan,48880,VELSICOL CHEMICAL CORP. (MICHIGAN)
5,BATTLE CREEK,CALHOUN,Michigan,49017,VERONA WELL FIELD
5,WAITE PARK,STEARNS,Minnesota,56387,WAITE PARK WELLS
5,PLEASANT PLAINS TWP,LAKE,Michigan,49304,WASH KING LAUNDRY
5,LAKE ELMO,WASHINGTON,Minnesota,55042,WASHINGTON COUNTY LANDFILL
5,ANDOVER,ANOKA,Minnesota,55304,WASTE DISPOSAL ENGINEERING
5,HOLLAND,OTTAWA,Michigan,49424,WASTE MANAGEMENT OF MICHIGAN (HOLLAND LAGOONS)
5,BROOKFIELD,WAUKESHA,Wisconsin,53005,"WASTE MANAGEMENT OF WISCONSIN, INC. (BROOKFIELD SANITARY LANDFILL)"
5,EAU CLAIRE,EAU CLAIRE,Wisconsin,54701,WASTE RESEARCH & RECLAMATION CO.
5,MICHIGAN CITY,LA PORTE,Indiana,46360,"WASTE, INC., LANDFILL"
5,WAUCONDA,LAKE,Illinois,60084,WAUCONDA SAND & GRAVEL
5,WAUSAU,MARATHON,Wisconsin,54401,WAUSAU GROUND WATER CONTAMINATION
5,COLUMBIA CITY,WHITLEY,Indiana,46725,WAYNE WASTE OIL
5,LEBANON,BOONE,Indiana,46052,"WEDZEB ENTERPRISES, INC."
5,TROY,MIAMI,Ohio,45373,WEST TROY CONTAMINATED AQUIFER
5,LA PRAIRIE TOWNSHIP,ROCK,Wisconsin,53545,WHEELER PIT
5,SOUTH BEND,ST. JOSEPH,Indiana,46619,WHITEFORD SALES & SERVICE INC./NATIONALEASE
5,WHITEHALL,MUSKEGON,Michigan,49461,WHITEHALL MUNICIPAL WELLS
5,MINNEAPOLIS,HENNEPIN,Minnesota,55418,WHITTAKER CORP.
5,WINDOM,COTTONWOOD,Minnesota,56101,WINDOM DUMP
5,WOODSTOCK,MCHENRY,Illinois,60098,WOODSTOCK MUNICIPAL LANDFILL
5,SHEBOYGAN,SHEBOYGAN,Wisconsin,53081-3935,WPSC CAMP MARINA MGP
5,GREEN BAY,BROWN,Wisconsin,54301,WPSC GREEN BAY MGP
5,MANITOWOC,MANITOWOC,Wisconsin,54220,WPSC MANITOWOC MGP
5,MARINETTE,MARINETTE,Wisconsin,54143,WPSC MARINETTE MGP
5,OSHKOSH,WINNEBAGO,Wisconsin,54901,WPSC OSHKOSH MGP
5,STEVENS POINT,PORTAGE,Wisconsin,54492,WPSC STEVENS POINT
5,TWO RIVERS,MANITOWOC,Wisconsin,54241,WPSC TWO RIVERS MGP
5,DAYTON,[blank county],Ohio,45324,WRIGHT-PATTERSON AIR FORCE BASE
5,OSCODA,IOSCO,Michigan,54961,WURTSMITH AIR FORCE BASE
5,WAUKEGAN,LAKE,Illinois,60085-5428,YEOMAN CREEK LANDFILL
5,ZANESVILLE,MUSKINGUM,Ohio,43701,ZANESVILLE WELL FIELD
6,NEW ORLEANS,ORLEANS,Louisiana,70126,AGRICULTURE STREET LANDFILL
6,FORT WORTH,TARRANT,Texas,76108,AIR FORCE PLANT #4 (GENERAL DYNAMICS)
6,POINT COMFORT,CALHOUN,Texas,77979,ALCOA (POINT COMFORT)/LAVACA BAY
6,DERIDDER,BEAUREGARD,Louisiana,70634,AMERICAN CREOSOTE DERIDDER
6,WINNFIELD,WINN,Louisiana,71483,"AMERICAN CREOSOTE WORKS, INC. (WINNFIELD PLANT)"
6,OMAHA,BOONE,Arkansas,72662,"ARKWOOD, INC."
6,CLOVIS,CURRY,New Mexico,88101,AT & SF (CLOVIS)
6,ALBUQUERQUE,BERNALILLO,New Mexico,87102,AT&SF (ALBUQUERQUE)
6,BRIDGE CITY,ORANGE,Texas,77611,BAILEY WASTE DISPOSAL
6,SAN ANTONIO,BEXAR,Texas,78238,BANDERA ROAD GROUND WATER PLUME
6,SLIDELL,ST. TAMMANY,Louisiana,70458,BAYOU BONFOUCA
6,BAYOU SORREL,IBERVILLE,Louisiana,70764,BAYOU SORREL
6,GRAND PRAIRIE,DALLAS,Texas,75051,"BIO-ECOLOGY SYSTEMS, INC."
6,CORPUS CHRISTI,NUECES,Texas,78409,BRINE SERVICE COMPANY
6,FRIENDSWOOD,HARRIS,Texas,77089,"BRIO REFINING, INC."
6,LEMITAR,SOCORRO,New Mexico,87823,CAL WEST METALS (USSBA)
6,NEWPORT,JACKSON,Arkansas,72112,CECIL LINDSEY
6,WEST HELENA,PHILLIPS,Arkansas,72342,CEDAR CHEMICAL CORPORATION
6,SLAUGHTER,EAST FELICIANA,Louisiana,70722,CENTRAL WOOD PRESERVING CO.
6,QUESTA,TAOS,New Mexico,87556,CHEVRON QUESTA MINE
6,CARRIZOZO,LINCOLN,New Mexico,88301,CIMARRON MINING CORP.
6,WILLOW PARK,PARKER,Texas,76087,CIRCLE COURT GROUND WATER PLUME
6,PERRYTON,OCHILTREE,Texas,79070,CITY OF PERRYTON WELL NO. 2
6,SORRENTO,ASCENSION,Louisiana,70778,CLEVE REBER
6,SILVER CITY,GRANT,New Mexico,88062,CLEVELAND MILL
6,BOGALUSA,WASHINGTON,Louisiana,70429,COLONIAL CREOSOTE
6,DENHAM SPRINGS,LIVINGSTON,Louisiana,70726,"COMBUSTION, INC."
6,TULSA,TULSA,Oklahoma,74107,COMPASS INDUSTRIES (AVERY DRIVE)
6,CONROE,MONTGOMERY,Texas,77301,CONROE CREOSOTING CO.
6,HOUSTON,HARRIS,Texas,77042,CRYSTAL CHEMICAL CO.
6,CRYSTAL CITY,ZAVALA,Texas,78839,CRYSTAL CITY AIRPORT
6,ABBEVILLE,VERMILION,Louisiana,70510,"D.L. MUD, INC."
6,PONCHATOULA,TANGIPAHOA,Louisiana,70454,DELATTE METALS
6,GRAND PRAIRIE,DALLAS,Texas,75050,DELFASCO FORGE
6,HOUMA,TERREBONNE,Louisiana,70363,DELTA SHIPYARD
6,SCOTLANDVILLE,EAST BATON ROUGE,Louisiana,70813,DEVIL'S SWAMP LAKE
6,FRIENDSWOOD,HARRIS,Texas,77546,"DIXIE OIL PROCESSORS, INC."
6,Donna,HIDALGO,Texas,78537,DONNA RESERVOIR AND CANAL SYSTEM
6,OKLAHOMA CITY,OKLAHOMA,Oklahoma,73152,DOUBLE EAGLE REFINERY CO.
6,ASCENSION PARISH,ASCENSION,Louisiana,70734,DUTCHTOWN TREATMENT PLANT
6,MIDWEST CITY,OKLAHOMA,Oklahoma,73130,EAGLE INDUSTRIES
6,SOCORRO,SOCORRO,New Mexico,87801,EAGLE PICHER CAREFREE BATTERY
6,ODESSA,ECTOR,Texas,79762,EAST 67TH STREET GROUND WATER PLUME
6,LIVE OAK,BEXAR,Texas,78233,"ELDORADO CHEMICAL CO., INC."
6,JENNINGS,ACADIA,Louisiana,70546,EVR-WOOD TREATING/EVANGELINE REFINING COMPANY
6,INGLESIDE,SAN PATRICIO,Texas,78362,FALCON REFINERY
6,OKLAHOMA CITY,OKLAHOMA,Oklahoma,73117,FOURTH STREET ABANDONED REFINERY
6,CROSBY,HARRIS,Texas,77532,"FRENCH, LTD."
6,WALNUT RIDGE,LAWRENCE,Arkansas,72476,FRIT INDUSTRIES
6,ALBUQUERQUE,BERNALILLO,New Mexico,87102,FRUIT AVENUE PLUME
6,LONGVIEW,GREGG,Texas,75602,GARLAND CREOSOTING
6,HOUSTON,HARRIS,Texas,77017,GENEVA INDUSTRIES/FUHRMANN ENERGY
6,GRANTS,CIBOLA,New Mexico,[blank code],GRANTS CHLORINATED SOLVENTS
6,LAS CRUCES,DONA ANA,New Mexico,88004,GRIGGS & WALNUT GROUND WATER PLUME
6,ABBEVILLE,VERMILION,Louisiana,70510,GULF COAST VACUUM SERVICES
6,LAKE CHARLES,[blank county],Louisiana,70601,GULF STATE UTILITIES-NORTH RYAN STREET
6,FREEPORT,BRAZORIA,Texas,77541,GULFCO MARINE MAINTENANCE
6,EDMONDSEN,CRITTENDEN,Arkansas,72332,GURLEY PIT
6,CRINER,MCCLAIN,Oklahoma,73080,HARDAGE/CRINER
6,HOUSTON,HARRIS,Texas,77034,HARRIS (FARLEY STREET)
6,JASPER,JASPER,Texas,75951,HART CREOSOTING COMPANY
6,HIGHLANDS,HARRIS,Texas,77562,HIGHLANDS ACID PIT
6,KERMIT,WINKLER,Texas,79745,HIGHWAY 18 GROUND WATER
6,BOSSIER CITY,BOSSIER,Louisiana,71111,HIGHWAY 71/72 REFINERY
6,MILAN,CIBOLA,New Mexico,87020,HOMESTAKE MINING CO.
6,CUSHING,PAYNE,Oklahoma,74023,HUDSON REFINERY
6,ARDMORE,CARTER,Oklahoma,73402,IMPERIAL REFINING COMPANY
6,FORT SMITH,SEBASTIAN,Arkansas,72901,INDUSTRIAL WASTE CONTROL
6,LAGUNA PUEBLO,CIBOLA,New Mexico,87040,JACKPILE-PAGUATE URANIUM MINE
6,JACKSONVILLE,LONOKE,Arkansas,72076,JACKSONVILLE MUNICIPAL LANDFILL
6,JASPER,JASPER,Texas,75951,JASPER CREOSOTING COMPANY INC.
6,HOUSTON,HARRIS,Texas,[blank code],JONES ROAD GROUND WATER PLUME
6,TEXARKANA,BOWIE,Texas,75501,"KOPPERS CO., INC. (TEXARKANA PLANT)"
6,DALLAS,DALLAS,Texas,75241,"LANE PLATING WORKS, INC"
6,ROSWELL,CHAVES,New Mexico,88202,LEA AND WEST SECOND STREET
6,FARMINGTON,SAN JUAN,New Mexico,87413,LEE ACRES LANDFILL (USDOI)
6,TEXARKANA,BOWIE,Texas,75501,LONE STAR ARMY AMMUNITION PLANT
6,KARNACK,HARRISON,Texas,75670,LONGHORN ARMY AMMUNITION PLANT
6,DOYLINE,WEBSTER,Louisiana,71130,LOUISIANA ARMY AMMUNITION PLANT
6,NORPHLET,UNION,Arkansas,71759,MACMILLAN RING FREE OIL
6,MADISONVILLE,ST. TAMMANY,Louisiana,70447,MADISONVILLE CREOSOTE WORKS
6,BURNET,BURNET,Texas,78611,MAIN STREET GROUND WATER PLUME
6,GRAND CHENIERE,CAMERON,Louisiana,70542,MALLARD BAY LANDING BULK PLANT
6,TEXAS CITY,GALVESTON,Texas,77590,MALONE SERVICE CO - SWAN LAKE PLANT
6,HOUSTON,HARRIS,Texas,77020,"MANY DIVERSIFIED INTERESTS, INC."
6,MARION,UNION,Louisiana,71260,MARION PRESSURE TREATING
6,ROSWELL,CHAVES,New Mexico,88201,MCGAFFEY AND MAIN GROUNDWATER PLUME
6,MENA,POLK,Arkansas,71953,MID-SOUTH WOOD PRODUCTS
6,MIDLAND,MIDLAND,Texas,79706,MIDESSA GROUND WATER PLUME
6,OLA/BIRTA,YELL,Arkansas,72853,MIDLAND PRODUCTS
6,PARAGOULD,GREENE,Arkansas,72450,MONROE AUTO EQUIPMENT CO. (PARAGOULD PIT)
6,OKLAHOMA CITY,OKLAHOMA,Oklahoma,73117,MOSLEY ROAD SANITARY LANDFILL
6,LA MARQUE,GALVESTON,Texas,77590,"MOTCO, INC."
6,PLAINVIEW,YELL,Arkansas,72857,MOUNTAIN PINE PRESSURE TREATING
6,BARTLESVILLE,WASHINGTON,Oklahoma,74003,NATIONAL ZINC CORP.
6,HOUSTON,HARRIS,Texas,77070,NORTH CAVALCADE STREET
6,Happy,SWISHER,Texas,79042,NORTH EAST 2ND STREET SITE
6,ESPANOLA,RIO ARRIBA,New Mexico,87532,NORTH RAILROAD AVENUE PLUME
6,ODESSA,ECTOR,Texas,79762,ODESSA CHROMIUM #1
6,ODESSA,ECTOR,Texas,79762,ODESSA CHROMIUM #2 (ANDREWS HIGHWAY)
6,CYRIL,CADDO,Oklahoma,73029,OKLAHOMA REFINING CO.
6,GREENVILLE,HUNT,Texas,75401,OLD ESCO MANUFACTURING
6,DARROW,ASCENSION,Louisiana,70725,OLD INGER OIL REFINERY
6,READER,OUACHITA,Arkansas,71726,OUACHITA NEVADA WOOD TREATER
6,ABBEVILLE,VERMILION,Louisiana,70510,"PAB OIL & CHEMICAL SERVICE, INC."
6,LOS LUNAS,VALENCIA,New Mexico,87031,PAGANO SALVAGE
6,PORT ARTHUR,JEFFERSON,Texas,77640,PALMER BARGE LINE
6,PANTEX VILLAGE,CARSON,Texas,79111,PANTEX PLANT (USDOE)
6,DEER PARK,HARRIS,Texas,77536,PATRICK BAYOU
6,FORT WORTH,TARRANT,Texas,76110,PESSES CHEMICAL CO.
6,LIBERTY,LIBERTY,Texas,77575,"PETRO-CHEMICAL SYSTEMS, INC. (TURTLE BAYOU)"
6,SCOTLANDVILLE,EAST BATON ROUGE,Louisiana,70807,"PETRO-PROCESSORS OF LOUISIANA, INC."
6,EL DORADO,UNION,Arkansas,71730,"POPILE, INC."
6,PREWITT,MCKINLEY,New Mexico,87045,PREWITT ABANDONED REFINERY
6,SAN ANTONIO,BEXAR,Texas,78211,R & H OIL/TROPICANA
6,SAN ANTONIO,BEXAR,Texas,78253,RIVER CITY METAL FINISHING
6,BELL COUNTY,BELL,Texas,76903,ROCKWOOL INDUSTRIES INC.
6,JACKSONVILLE,PULASKI,Arkansas,72076,ROGERS ROAD MUNICIPAL LANDFILL
6,DALLAS,DALLAS,Texas,75115,RSR CORPORATION
6,ALEXANDRIA,RAPIDES,Louisiana,71302,RUSTON FOUNDRY
6,Channelview,HARRIS,Texas,77530,SAN JACINTO RIVER WASTE PITS
6,SAND SPRINGS,TULSA,Oklahoma,74063,SAND SPRINGS PETROCHEMICAL COMPLEX
6,PELICAN BAY,TARRANT,Texas,76020,SANDY BEACH ROAD GROUND WATER PLUME
6,JENNINGS,JEFFERSON DAVIS,Louisiana,70546,SBA SHIPYARD
6,HEMPSTEAD,WALLER,Texas,77445,SHERIDAN DISPOSAL SERVICES
6,CROSBY,HARRIS,Texas,77532,SIKES DISPOSAL PITS
6,HOUSTON,HARRIS,Texas,77054,SOL LYNN/INDUSTRIAL TRANSFORMERS
6,WEST MEMPHIS,CRITTENDEN,Arkansas,72301,SOUTH 8TH STREET LANDFILL
6,HOUSTON,HARRIS,Texas,77020,SOUTH CAVALCADE STREET
6,ALBUQUERQUE,BERNALILLO,New Mexico,87105,SOUTH VALLEY
6,SLIDELL,ST. TAMMANY,Louisiana,70459,SOUTHERN SHIPBUILDING
6,ODESSA,ECTOR,Texas,79764,SPRAGUE ROAD GROUND WATER PLUME
6,PORT NECHES,JEFFERSON,Texas,77651,STAR LAKE CANAL
6,JEFFERSON COUNTY,JEFFERSON,Texas,77642,STATE MARINE OF PORT ARTHUR
6,LEVELLAND,HOCKLEY,Texas,79336,STATE ROAD 114 GROUNDWATER PLUME
6,WASKOM,HARRISON,Texas,75692,"STEWCO, INC."
6,OTTAWA COUNTY,OTTAWA,Oklahoma,74339,TAR CREEK (OTTAWA COUNTY)
6,OKLAHOMA CITY,OKLAHOMA,Oklahoma,73111,TENTH STREET DUMP/JUNKYARD
6,TEXAS CITY,GALVESTON,Texas,77568,TEX-TIN CORP.
6,TEXARKANA,BOWIE,Texas,75501,TEXARKANA WOOD PRESERVING CO.
6,OKLAHOMA CITY,OKLAHOMA,Oklahoma,73145,TINKER AIR FORCE BASE (SOLDIER CREEK/BUILDING 3001)
6,BRIDGE CITY,ORANGE,Texas,77611,TRIANGLE CHEMICAL CO.
6,COLLINSVILLE,TULSA,Oklahoma,74021,TULSA FUEL AND MANUFACTURING
6,CONROE,MONTGOMERY,Texas,77301,UNITED CREOSOTING CO.
6,CHURCH ROCK,MCKINLEY,New Mexico,87311,UNITED NUCLEAR CORP.
6,PASADENA,HARRIS,Texas,77506,US OIL RECOVERY
6,TERRELL,KAUFMAN,Texas,75160,VAN DER HORST USA CORPORATION
6,JACKSONVILLE,PULASKI,Arkansas,72076,"VERTAC, INC."
6,MIDLAND,MIDLAND,Texas,79706,WEST COUNTY ROAD 112 GROUND WATER
6,CREEK COUNTY,CREEK,Oklahoma,74010,WILCOX OIL COMPANY
7,COLUMBUS,PLATTE,Nebraska,68601,10TH STREET SITE
7,WICHITA,SEDGWICK,Kansas,67219,29TH & MEAD GROUND WATER CONTAMINATION
7,WICHITA,SEDGWICK,Kansas,67219,57TH AND NORTH BROADWAY STREETS SITE
7,COLBY,THOMAS,Kansas,67701,ACE SERVICES
7,MINEOLA,MILLS,Iowa,51554,AIDEX CORP.
7,ANNAPOLIS,IRON,Missouri,63620,ANNAPOLIS LEAD MINE
7,ARKANSAS CITY,COWLEY,Kansas,67005,ARKANSAS CITY DUMP
7,NORTH KANSAS CITY,CLAY,Missouri,64116,ARMOUR ROAD
7,MALDEN,DUNKLIN,Missouri,63863,BEE CEE MANUFACTURING CO.
7,DESLOGE,ST. FRANCOIS,Missouri,63601,BIG RIVER MINE TAILINGS/ST. JOE MINERALS CORP.
7,WICHITA,SEDGWICK,Kansas,67205,BIG RIVER SAND CO.
7,BRUNO,BUTLER,Nebraska,68014,BRUNO CO-OP ASSOCIATION/ASSOCIATED PROPERTIES
7,OLATHE,JOHNSON,Kansas,66061,"CHEMICAL COMMODITIES, INC."
7,GALENA,CHEROKEE,Kansas,66739,CHEROKEE COUNTY
7,GRAND ISLAND,HALL,Nebraska,68801,CLEBURN STREET WELL
7,ROGERSVILLE,GREENE,Missouri,65742,COMPASS PLAZA WELL TCE
7,KANSAS CITY,JACKSON,Missouri,64120,CONSERVATION CHEMICAL CO.
7,GRAND ISLAND,HALL,Nebraska,68802,CORNHUSKER ARMY AMMUNITION PLANT
7,DES MOINES,POLK,Iowa,50309,DES MOINES TCE
7,SHAWNEE MISSION,JOHNSON,Kansas,66218,DOEPKE DISPOSAL (HOLLIDAY)
7,WEST POINT,LEE,Iowa,52656,"E.I. DU PONT DE NEMOURS & CO., INC. (COUNTY ROAD X23)"
7,CEDAR RAPIDS,LINN,Iowa,52402,"ELECTRO-COATINGS, INC."
7,ELLISVILLE,ST. LOUIS,Missouri,63011,ELLISVILLE SITE
7,FAIRFIELD,JEFFERSON,Iowa,52556,FAIRFIELD COAL GASIFICATION PLANT
7,HOSPERS,SIOUX,Iowa,51238,FARMERS' MUTUAL COOPERATIVE
7,IOLA,ALLEN,Kansas,66749,FORMER UNITED ZINC & ASSOCIATED SMELTERS
7,JUNCTION CITY,GEARY,Kansas,66441,FORT RILEY
7,SPRINGFIELD,GREENE,Missouri,65803,FULBRIGHT LANDFILL
7,HASTINGS,ADAMS,Nebraska,68901,GARVEY ELEVATOR
7,HASTINGS,ADAMS,Nebraska,68901,HASTINGS GROUND WATER CONTAMINATION
7,TOPEKA,SHAWNEE,Kansas,66618,HYDRO-FLEX INC.
7,MIDDLETOWN,DES MOINES,Iowa,52638,IOWA ARMY AMMUNITION PLANT
7,IOWA CITY,JOHNSON,Iowa,52240,IOWA CITY FMGP
7,NORFOLK,MADISON,Nebraska,68701,IOWA-NEBRASKA LIGHT & POWER CO
7,OTTUMWA,WAPELLO,Iowa,52501,JOHN DEERE (OTTUMWA WORKS LANDFILLS)
7,WICHITA,SEDGWICK,Kansas,67212,JOHNS' SLUDGE POND
7,CAPE GIRARDEAU,CAPE GIRARDEAU,Missouri,63701,KEM-PEST LABORATORIES
7,CHARLES CITY,FLOYD,Iowa,50616,LABOUNTY
7,INDEPENDENCE,JACKSON,Missouri,64050,LAKE CITY ARMY AMMUNITION PLANT (NORTHWEST LAGOON)
7,CAMANCHE,CLINTON,Iowa,52730,LAWRENCE TODTZ FARM
7,LIBERTY,CLAY,Missouri,64068,LEE CHEMICAL
7,LINDSAY,PLATTE,Nebraska,68644,LINDSAY MANUFACTURING CO.
7,FREDERICKTOWN,MADISON,Missouri,63645,MADISON COUNTY MINES
7,MASON CITY,CERRO GORDO,Iowa,50401,MASON CITY COAL GASIFICATION PLANT
7,SERGEANT BLUFF,WOODBURY,Iowa,51054,MID-AMERICA TANNING CO.
7,KELLOGG,JASPER,Iowa,50135,MIDWEST MANUFACTURING/NORTH FARM
7,IMPERIAL,JEFFERSON,Missouri,63052,MINKER/STOUT/ROMAINE CREEK
7,CAPE GIRARDEAU,CAPE GIRARDEAU,Missouri,63701,MISSOURI ELECTRIC WORKS
7,MEAD,SAUNDERS,Nebraska,68041,NEBRASKA ORDNANCE PLANT (FORMER)
7,GRANBY,NEWTON,Missouri,64844,NEWTON COUNTY MINE TAILINGS
7,JOPLIN,NEWTON,Missouri,64804,NEWTON COUNTY WELLS
7,SPRINGFIELD,GREENE,Missouri,65801,NORTH-U DRIVE WELL CONTAMINATION
7,MASON CITY,CERRO GORDO,Iowa,50401,NORTHWESTERN STATES PORTLAND CEMENT CO.
7,SULLIVAN,FRANKLIN,Missouri,63080,OAK GROVE VILLAGE WELL
7,HUTCHINSON,RENO,Kansas,67501,OBEE ROAD
7,OGALLALA,KEITH,Nebraska,69153,OGALLALA GROUND WATER CONTAMINATION
7,VALLEY,DOUGLAS,Nebraska,68064,OLD HWY 275 AND N 288TH STREET
7,OMAHA,DOUGLAS,Nebraska,68102-1895,OMAHA LEAD
7,JOPLIN,JASPER,Missouri,64801,ORONOGO-DUENWEG MINING BELT
7,GRAND ISLAND,HALL,Nebraska,68803-5604,PARKVIEW WELL
7,ATLANTIC,CASS,Iowa,50022,PCE FORMER DRY CLEANER
7,YORK,YORK,Nebraska,68467,PCE SOUTHEAST CONTAMINATION
7,YORK,YORK,Nebraska,68467,PCE/TCE NORTHEAST CONTAMINATION
7,DUBUQUE,DUBUQUE,Iowa,52001,PEOPLES NATURAL GAS CO.
7,EL DORADO,BUTLER,Kansas,67042,PESTER REFINERY CO.
7,Great Bend,BARTON,Kansas,67530,"PLATING, INC."
7,NEOSHO,NEWTON,Missouri,64850,POOLS PRAIRIE
7,SIKESTON,SCOTT,Missouri,63801,QUALITY PLATING
7,WEST DES MOINES,POLK,Iowa,50265,RAILROAD AVENUE GROUNDWATER CONTAMINATION
7,RED OAK,MONTGOMERY,Iowa,51566,RED OAK CITY LANDFILL
7,NEW HAVEN,FRANKLIN,Missouri,63068,RIVERFRONT
7,CHARLES CITY,FLOYD,Iowa,50616,SHAW AVENUE DUMP
7,KEOKUK,LEE,Iowa,52632,SHELLER-GLOBE CORP. DISPOSAL
7,MOSCOW MILLS,LINCOLN,Missouri,63362,SHENANDOAH STABLES
7,NORFOLK,MADISON,Nebraska,68701,SHERWOOD MEDICAL CO.
7,REPUBLIC,GREENE,Missouri,65738,"SOLID STATE CIRCUITS, INC."
7,JEFFERSON COUNTY,JEFFERSON,Missouri,63023,SOUTHWEST JEFFERSON COUNTY MINING
7,WASHINGTON,FRANKLIN,Missouri,63090,SPORLAN VALVE PLANT #1
7,ST. LOUIS,ST. LOUIS,Missouri,63145,ST. LOUIS AIRPORT/HAZELWOOD INTERIM STORAGE/FUTURA COATINGS CO.
7,WINFIELD,COWLEY,Kansas,67156,STROTHER FIELD INDUSTRIAL PARK
7,VERONA,LAWRENCE,Missouri,65769,SYNTEX FACILITY
7,TIMES BEACH,ST. LOUIS,Missouri,63025,TIMES BEACH
7,DELAVAN,MORRIS,Kansas,67449,TRI-COUNTY PUBLIC AIRPORT
7,VALLEY PARK,ST. LOUIS,Missouri,63088,VALLEY PARK TCE
7,VIENNA,MARIES,Missouri,65582,VIENNA WELLS
7,MAURICE,SIOUX,Iowa,51306,VOGEL PAINT & WAX CO.
7,CALEDONIA,WASHINGTON,Missouri,63631,WASHINGTON COUNTY LEAD DISTRICT - FURNACE CREEK
7,Old Mines,WASHINGTON,Missouri,63630,WASHINGTON COUNTY LEAD DISTRICT - OLD MINES
7,Potosi,WASHINGTON,Missouri,63664,WASHINGTON COUNTY LEAD DISTRICT - POTOSI
7,Richwoods,WASHINGTON,Missouri,63071,WASHINGTON COUNTY LEAD DISTRICT - RICHWOODS
7,WATERLOO,BLACK HAWK,Iowa,50703,WATERLOO COAL GASIFICATION PLANT
7,WAVERLY,LANCASTER,Nebraska,68462,WAVERLY GROUND WATER CONTAMINATION
7,ST. CHARLES,ST. CHARLES,Missouri,63301,WELDON SPRING FORMER ARMY ORDNANCE WORKS
7,ST. CHARLES,ST. CHARLES,Missouri,63301,WELDON SPRING QUARRY/PLANT/PITS (USDOE/ARMY)
7,HASTINGS,ADAMS,Nebraska,68901,WEST HIGHWAY 6 & HIGHWAY 281
7,BRIDGETON,ST. LOUIS,Missouri,63044,WESTLAKE LANDFILL
7,AMAZONIA,ANDREW,Missouri,64421,"WHEELING DISPOSAL SERVICE CO., INC., LANDFILL"
7,CHARLES CITY,FLOYD,Iowa,50616,WHITE FARM EQUIPMENT CO. DUMP
7,WRIGHT,FORD,Kansas,67882,WRIGHT GROUND WATER CONTAMINATION
8,SALT LAKE CITY,SALT LAKE,Utah,84102,700 SOUTH 1600 EAST PCE PLUME
8,BLACK EAGLE,CASCADE,Montana,59414,ACM SMELTER AND REFINERY
8,LITTLETON,JEFFERSON,Colorado,80127,AIR FORCE PLANT PJKS
8,COLUMBIA FALLS,FLATHEAD,Montana,59912,ANACONDA ALUMINUM CO COLUMBIA FALLS REDUCTION PLANT
8,ANACONDA,DEER LODGE,Montana,59711,ANACONDA CO. SMELTER
8,SOUTHEAST,[blank county],North Dakota,58053,ARSENIC TRIOXIDE SITE
8,MONARCH,CASCADE,Montana,59465,BARKER HUGHESVILLE MINING DISTRICT
8,BASIN,JEFFERSON,Montana,59631,BASIN MINING AREA
8,LARAMIE,ALBANY,Wyoming,82070,BAXTER/UNION PACIFIC TIE TREATING
8,UNINCORPORATED,SAN JUAN,Colorado,81433,BONITA PEAK MINING DISTRICT
8,BOUNTIFUL,DAVIS,Utah,84010,BOUNTIFUL/WOODS CROSS 5TH S. PCE PLUME
8,DENVER,ADAMS,Colorado,80221,BRODERICK WOOD PRODUCTS
8,LEADVILLE,LAKE,Colorado,80461,CALIFORNIA GULCH
8,WARD,BOULDER,Colorado,80481,CAPTAIN JACK MILL
8,NEIHART,CASCADE,Montana,59465,CARPENTER SNOW CREEK MINING DISTRICT
8,IDAHO SPRINGS,CLEAR CREEK,Colorado,80452,"CENTRAL CITY, CLEAR CREEK"
8,DENVER,DENVER,Colorado,80216,CHEMICAL SALES CO.
8,PUEBLO,PUEBLO,Colorado,81006,COLORADO SMELTER
8,SANDY,SALT LAKE,Utah,84092,DAVENPORT AND FLAGSTAFF SMELTERS
8,DENVER,DENVER,Colorado,80204,DENVER RADIUM SITE
8,MINTURN,EAGLE,Colorado,81645,EAGLE MINE
8,EAST HELENA,LEWIS AND CLARK,Montana,59635,EAST HELENA SITE
8,ELLSWORTH AFB,[blank county],South Dakota,57706,ELLSWORTH AIR FORCE BASE
8,EUREKA,JUAB,Utah,84628,EUREKA MILLS
8,CHEYENNE,LARAMIE,Wyoming,82005,F.E. WARREN AIR FORCE BASE
8,WOODS CROSS/BOUNTIFUL,DAVIS,Utah,84010,FIVE POINTS PCE PLUME
8,SUPERIOR,MINERAL,Montana,59872,FLAT CREEK IMM
8,LEAD,LAWRENCE,South Dakota,57754,GILT EDGE MINE
8,HILL AFB,[blank county],Utah,84056,HILL AIR FORCE BASE
8,BOZEMAN,GALLATIN,Montana,59715,IDAHO POLE CO.
8,BOUNTIFUL,DAVIS,Utah,84010,INTERMOUNTAIN WASTE OIL REFINERY
8,TOOELE,TOOELE,Utah,84074,INTERNATIONAL SMELTING AND REFINING
8,STOCKTON,TOOELE,Utah,84071,JACOBS SMELTER
8,MAGNA,SALT LAKE,Utah,84044,KENNECOTT (NORTH ZONE)
8,COPPERTON,SALT LAKE,Utah,84006,KENNECOTT (SOUTH ZONE)
8,LIBBY,LINCOLN,Montana,59923,LIBBY ASBESTOS SITE
8,LIBBY,LINCOLN,Montana,59923,LIBBY GROUND WATER CONTAMINATION
8,CANON CITY,FREMONT,Colorado,81212,LINCOLN PARK
8,BILLINGS,YELLOWSTONE,Montana,59101,LOCKWOOD SOLVENT GROUND WATER PLUME
8,UNINCORPORATED ARAPAHOE COUNTY,ARAPAHOE,Colorado,80018,LOWRY LANDFILL
8,BOULDER,BOULDER,Colorado,80303,MARSHALL LANDFILL
8,MIDVALE,SALT LAKE,Utah,84047,MIDVALE SLAG
8,MILLTOWN,MISSOULA,Montana,59851,MILLTOWN RESERVOIR SEDIMENTS
8,MINOT,WARD,North Dakota,58701,MINOT LANDFILL
8,BUTTE,SILVER BOW,Montana,59701,MONTANA POLE AND TREATING
8,MONTICELLO,SAN JUAN,Utah,84535,MONTICELLO MILL TAILINGS (USDOE)
8,MONTICELLO,SAN JUAN,Utah,84535,MONTICELLO RADIOACTIVELY CONTAMINATED PROPERTIES
8,COLUMBUS,STILLWATER,Montana,59019,MOUAT INDUSTRIES
8,MURRAY CITY,SALT LAKE,Utah,84107,MURRAY SMELTER
8,EVANSVILLE,NATRONA,Wyoming,82636,MYSTERY BRIDGE RD/U.S. HIGHWAY 20
8,Creede,MINERAL,Colorado,81130,NELSON TUNNEL/COMMODORE WASTE ROCK
8,OGDEN,WEBER,Utah,84407,OGDEN DEFENSE DEPOT (DLA)
8,SALT LAKE CITY,SALT LAKE,Utah,84116,PETROCHEM RECYCLING CORP./EKOTEK PLANT
8,SALT LAKE CITY,SALT LAKE,Utah,84116,PORTLAND CEMENT (KILN DUST 2 & 3)
8,PARK CITY,SUMMIT,Utah,84060,RICHARDSON FLAT TAILINGS
8,GOLDEN,JEFFERSON,Colorado,80402,ROCKY FLATS PLANT (USDOE)
8,ADAMS COUNTY,ADAMS,Colorado,80022,ROCKY MOUNTAIN ARSENAL (USARMY)
8,SALT LAKE CITY,SALT LAKE,Utah,84116,ROSE PARK SLUDGE PIT
8,COMMERCE CITY,ADAMS,Colorado,80022,SAND CREEK INDUSTRIAL
8,MIDVALE,SALT LAKE,Utah,84047,SHARON STEEL CORP. (MIDVALE TAILINGS)
8,BUTTE,[blank county],Montana,59750,SILVER BOW CREEK/BUTTE AREA
8,SALIDA,CHAFFEE,Colorado,81201,SMELTERTOWN SITE
8,ASPEN,PITKIN,Colorado,81611,SMUGGLER MOUNTAIN
8,MISSOULA,MISSOULA,Montana,59808,SMURFIT-STONE MILL FRENCHTOWN
8,GUNNISON NATIONAL FOREST,GUNNISON,Colorado,81224,STANDARD MINE
8,RIO GRANDE COUNTY,RIO GRANDE,Colorado,81132,SUMMITVILLE MINE
8,TOOELE,TOOELE,Utah,84074,TOOELE ARMY DEPOT (NORTH AREA)
8,HELENA,LEWIS AND CLARK,Montana,59601,UPPER TENMILE CREEK MINING AREA
8,URAVAN,MONTROSE,Colorado,81436,URAVAN URANIUM PROJECT (UNION CARBIDE CORP.)
8,TOOELE COUNTY,TOOELE,Utah,84029,US MAGNESIUM
8,SALT LAKE CITY,SALT LAKE,Utah,84104,UTAH POWER & LIGHT/AMERICAN BARREL CO.
8,DENVER,DENVER,Colorado,80216,VASQUEZ BOULEVARD AND I-70
8,SALT LAKE CITY,SALT LAKE,Utah,84104,WASATCH CHEMICAL CO. (LOT 6)
8,WHITEWOOD,LAWRENCE,South Dakota,57793,WHITEWOOD CREEK
8,SIOUX FALLS,MINNEHAHA,South Dakota,57107,WILLIAMS PIPE LINE CO. DISPOSAL PIT
8,COMMERCE CITY,ADAMS,Colorado,80022,WOODBURY CHEMICAL CO.
9,SUNNYVALE,SANTA CLARA,California,94086,"ADVANCED MICRO DEVICES, INC."
9,SUNNYVALE,SANTA CLARA,California,94086,"ADVANCED MICRO DEVICES, INC. (BUILDING 915)"
9,RANCHO CORDOVA,SACRAMENTO,California,95670,AEROJET GENERAL CORP.
9,ALAMEDA,ALAMEDA,California,94501,ALAMEDA NAVAL AIR STATION
9,RIVERSIDE,RIVERSIDE,California,92501,ALARK HARD CHROME
9,OAKLAND,ALAMEDA,California,94607,AMCO CHEMICAL
9,YERINGTON,LYON,Nevada,89447,ANACONDA COPPER MINE
9,YIGO,GUAM,Guam,96929,ANDERSEN AIR FORCE BASE
9,SAINT DAVID,COCHISE,Arizona,85630,APACHE POWDER CO.
9,SANTA CLARA,SANTA CLARA,California,95051,APPLIED MATERIALS
9,JACKSON,AMADOR,California,95642,ARGONAUT MINE
9,HAYDEN,GILA,Arizona,85235,ASARCO HAYDEN PLANT
9,COALINGA,FRESNO,California,93210,ATLAS ASBESTOS MINE
9,BARSTOW,SAN BERNARDINO,California,92311,BARSTOW MARINE CORPS LOGISTICS BASE
9,PORTERVILLE,TULARE,California,93257,BECKMAN INSTRUMENTS (PORTERVILLE PLANT)
9,ROGUE RIVER-SISKIYOU NF,SISKIYOU,California,96086,BLUE LEDGE MINE
9,ARVIN,KERN,California,93203,"BROWN & BRYANT, INC. (ARVIN PLANT)"
9,CAMP PENDLETON,SAN DIEGO,California,92055,CAMP PENDLETON MARINE CORPS BASE
9,DAYTON,LYON,Nevada,89401,CARSON RIVER MERCURY SITE
9,CASMALIA,SANTA BARBARA,California,93429,CASMALIA RESOURCES
9,MERCED,MERCED,California,95342,CASTLE AIR FORCE BASE (6 AREAS)
9,HOOPA,HUMBOLDT,California,95546,CELTOR CHEMICAL WORKS
9,COALINGA,FRESNO,California,93210,COALINGA ASBESTOS MINE
9,UKIAH,MENDOCINO,California,95482,COAST WOOD PRESERVING
9,CONCORD,CONTRA COSTA,California,94520,CONCORD NAVAL WEAPONS STATION
9,SOUTH GATE,LOS ANGELES,California,90280,COOPER DRUM CO.
9,HOOPA,HUMBOLDT,California,95546,COPPER BLUFF MINE
9,SALINAS,MONTEREY,California,93907,CRAZY HORSE SANITARY LANDFILL
9,MOUNTAIN VIEW,SANTA CLARA,California,94043,"CTS PRINTEX, INC."
9,CASA GRANDE,PINAL,Arizona,[blank code],CYPRUS TOHONO MINE
9,LOS ANGELES,LOS ANGELES,California,90006,DEL AMO
9,KUNIA,HONOLULU,Hawaii,96759,DEL MONTE CORP. (OAHU PLANTATION)
9,CRESCENT CITY,DEL NORTE,California,95531,DEL NORTE PESTICIDE STORAGE
9,EDWARDS AFB,KERN,California,93524,EDWARDS AIR FORCE BASE
9,EL TORO,ORANGE,California,92709,EL TORO MARINE CORPS AIR STATION
9,MOUNTAIN VIEW,SANTA CLARA,California,94042,FAIRCHILD SEMICONDUCTOR CORP. (MOUNTAIN VIEW PLANT)
9,SAN JOSE,SANTA CLARA,California,95119,FAIRCHILD SEMICONDUCTOR CORP. (SOUTH SAN JOSE PLANT)
9,SALINAS,MONTEREY,California,93901,FIRESTONE TIRE & RUBBER CO. (SALINAS PLANT)
9,MARINA,MONTEREY,California,93933,FORT ORD
9,FRESNO,FRESNO,California,93706,FRESNO MUNICIPAL SANITARY LANDFILL
9,DAVIS,YOLO,California,95618,FRONTIER FERTILIZER
9,VICTORVILLE,SAN BERNARDINO,California,92392,GEORGE AIR FORCE BASE
9,OXNARD,VENTURA,California,93033,HALACO ENGINEERING COMPANY
9,HASSAYAMPA,MARICOPA,Arizona,85343,HASSAYAMPA LANDFILL
9,PALO ALTO,SANTA CLARA,California,94304,HEWLETT-PACKARD (620-640 PAGE MILL ROAD)
9,SCOTTSDALE,MARICOPA,Arizona,85253,INDIAN BEND WASH AREA
9,FRESNO,FRESNO,California,93650,INDUSTRIAL WASTE PROCESSING
9,MOUNTAIN VIEW,SANTA CLARA,California,94040,INTEL CORP. (MOUNTAIN VIEW PLANT)
9,SANTA CLARA,SANTA CLARA,California,95051,INTEL CORP. (SANTA CLARA III)
9,SANTA CLARA,SANTA CLARA,California,95051,INTEL MAGNETICS
9,CUPERTINO,SANTA CLARA,California,95014,INTERSIL INC./SIEMENS COMPONENTS
9,Dewey-Humboldt,YAVAPAI,Arizona,86327,IRON KING MINE - HUMBOLDT SMELTER
9,REDDING,SHASTA,California,96001,IRON MOUNTAIN MINE
9,WEED,SISKIYOU,California,96094,J.H. BAXTER & CO.
9,MOUNTAIN VIEW,SANTA CLARA,California,94041,JASCO CHEMICAL CORP.
9,SOUTH GATE,LOS ANGELES,California,90280,JERVIS B. WEBB CO.
9,PASADENA,LOS ANGELES,California,91109,JET PROPULSION LABORATORY (NASA)
9,SACRAMENTO,SACRAMENTO,California,95814,JIBBOOM JUNKYARD
9,PASO ROBLES,SAN LUIS OBISPO,California,93446,KLAU/BUENA VISTA MINE
9,OROVILLE,BUTTE,California,95965,"KOPPERS CO., INC. (OROVILLE PLANT)"
9,DAVIS,SOLANO,California,95616,LABORATORY FOR ENERGY-RELATED HEALTH RESEARCH/OLD CAMPUS LANDFILL (USDOE)
9,NEVADA CITY,NEVADA,California,95959,LAVA CAP MINE
9,TRACY,SAN JOAQUIN,California,95376,LAWRENCE LIVERMORE NATL LAB (SITE 300) (USDOE)
9,LIVERMORE,ALAMEDA,California,94550,"LAWRENCE LIVERMORE NATL LAB, MAIN SITE (USDOE)"
9,MARKLEEVILLE,ALPINE,California,96120,LEVIATHAN MINE
9,RICHMOND,CONTRA COSTA,California,94804,LIQUID GOLD OIL CORP.
9,SAN JOSE,SANTA CLARA,California,95112,LORENTZ BARREL & DRUM CO.
9,OROVILLE,BUTTE,California,95965,LOUISIANA-PACIFIC CORP.
9,GLENDALE,MARICOPA,Arizona,85309,LUKE AIR FORCE BASE
9,RIVERSIDE,RIVERSIDE,California,92518,MARCH AIR FORCE BASE
9,MATHER,SACRAMENTO,California,95655,MATHER AIR FORCE BASE (AC&W DISPOSAL SITE)
9,MCCLELLAN AFB,SACRAMENTO,California,95652,MCCLELLAN AIR FORCE BASE (GROUND WATER CONTAMINATION)
9,FULLERTON,ORANGE,California,92833,MCCOLL
9,STOCKTON,SAN JOAQUIN,California,95203,MCCORMICK & BAXTER CREOSOTING CO.
9,CLOVERDALE,SONOMA,California,95425,MGM BRAKES
9,MODESTO,STANISLAUS,California,95351,MODESTO GROUND WATER CONTAMINATION
9,MOFFETT FIELD,SANTA CLARA,California,94035,MOFFETT FIELD NAVAL AIR STATION
9,SUNNYVALE,SANTA CLARA,California,94086,MONOLITHIC MEMORIES
9,TORRANCE,LOS ANGELES,California,90502,MONTROSE CHEMICAL CORP.
9,PHOENIX,MARICOPA,Arizona,85008,"MOTOROLA, INC. (52ND STREET PLANT)"
9,GLOBE,GILA,Arizona,85501,MOUNTAIN VIEW MOBILE HOME ESTATES
9,SANTA CLARA,SANTA CLARA,California,95050,NATIONAL SEMICONDUCTOR CORP.
9,WAHIAWA,HONOLULU,Hawaii,96786,NAVAL COMPUTER AND TELECOMMUNICATIONS AREA MASTER STATION EASTERN PACIFIC
9,IDRIA,SAN BENITO,California,95043,NEW IDRIA MERCURY MINE
9,SAN BERNARDINO,SAN BERNARDINO,California,92408,NEWMARK GROUND WATER CONTAMINATION
9,PHOENIX,MARICOPA,Arizona,85041,NINETEENTH AVENUE LANDFILL
9,SAN BERNARDINO,SAN BERNARDINO,California,92408,NORTON AIR FORCE BASE (LNDFLL #2)
9,WHITTIER,LOS ANGELES,California,90602,OMEGA CHEMICAL CORPORATION
9,MONTEREY PARK,LOS ANGELES,California,91754,"OPERATING INDUSTRIES, INC., LANDFILL"
9,FULLERTON AND ANAHEIM,ORANGE,California,92831,ORANGE COUNTY NORTH BASIN
9,AGANA,GUAM,Guam,96910,ORDOT LANDFILL
9,FILLMORE,VENTURA,California,93015,PACIFIC COAST PIPE LINES
9,GARAPAN,SAIPAN,Northern Mariana Islands,96950,PCB WAREHOUSE
9,PALAU,[blank county],Federated States of Micronesia,96950,PCB WASTES
9,PEARL HARBOR,HONOLULU,Hawaii,96860,PEARL HARBOR NAVAL COMPLEX
9,MAYWOOD,LOS ANGELES,California,90270,PEMACO MAYWOOD
9,GOODYEAR,MARICOPA,Arizona,85338,PHOENIX-GOODYEAR AIRPORT AREA
9,MALAGA,FRESNO,California,93725,"PURITY OIL SALES, INC."
9,WESTMINSTER,ORANGE,California,92683,RALPH GRAY TRUCKING CO.
9,MOUNTAIN VIEW,SANTA CLARA,California,94043,RAYTHEON CORP.
9,MOUNTAIN CITY,ELKO,Nevada,89831,RIO TINTO COPPER MINE
9,RIVERBANK,STANISLAUS,California,95367,RIVERBANK ARMY AMMUNITION PLANT
9,RIALTO,SAN BERNARDINO,California,92377,"ROCKETS, FIREWORKS, AND FLARES SITE"
9,SACRAMENTO,SACRAMENTO,California,95813,SACRAMENTO ARMY DEPOT
9,NORTH HOLLYWOOD,LOS ANGELES,California,91601,SAN FERNANDO VALLEY (AREA 1)
9,GLENDALE,LOS ANGELES,California,91209,SAN FERNANDO VALLEY (AREA 2)
9,GLENDALE,LOS ANGELES,California,91209,SAN FERNANDO VALLEY (AREA 3)
9,LOS ANGELES,LOS ANGELES,California,90086,SAN FERNANDO VALLEY (AREA 4)
9,EL MONTE,LOS ANGELES,California,91733,SAN GABRIEL VALLEY (AREA 1)
9,BALDWIN PARK,LOS ANGELES,California,91706,SAN GABRIEL VALLEY (AREA 2)
9,ALHAMBRA,LOS ANGELES,California,91801,SAN GABRIEL VALLEY (AREA 3)
9,LA PUENTE,LOS ANGELES,California,91744,SAN GABRIEL VALLEY (AREA 4)
9,SCHOFIELD,HONOLULU,Hawaii,96857,SCHOFIELD BARRACKS (USARMY)
9,SELMA,FRESNO,California,93662,SELMA PRESSURE TREATING COMPANY
9,LATHROP,SAN JOAQUIN,California,95330,SHARPE ARMY DEPOT
9,PETALUMA,SONOMA,California,94952,"SOLA OPTICAL USA, INC."
9,ALVISO,SANTA CLARA,California,95002,SOUTH BAY ASBESTOS AREA
9,SOUTH GATE,LOS ANGELES,California,90280,SOUTHERN AVENUE INDUSTRIAL AREA
9,VISALIA,TULARE,California,93277,SOUTHERN CALIFORNIA EDISON CO. (VISALIA POLEYARD)
9,MOUNTAIN VIEW,SANTA CLARA,California,94042,"SPECTRA-PHYSICS, INC."
9,IMPERIAL,IMPERIAL,California,92251,STOKER COMPANY
9,MIRA LOMA,RIVERSIDE,California,91752,STRINGFELLOW
9,CLEARLAKE OAKS,LAKE,California,95422,SULPHUR BANK MERCURY MINE
9,SANTA CLARA,SANTA CLARA,California,95051,"SYNERTEK, INC. (BUILDING 1)"
9,FRESNO,FRESNO,California,93727,T.H. AGRICULTURE & NUTRITION CO.
9,PAGO PAGO,[blank county],American Samoa,96799,TAPUTIMU FARM
9,MOUNTAIN VIEW,SANTA CLARA,California,94043,TELEDYNE SEMICONDUCTOR
9,TRACY,SAN JOAQUIN,California,95376,TRACY DEFENSE DEPOT (USARMY)
9,TRAVIS AFB,SOLANO,California,94535,TRAVIS AIR FORCE BASE
9,SAN FRANCISCO,SAN FRANCISCO,California,94124,TREASURE ISLAND NAVAL STATION-HUNTERS POINT ANNEX
9,SUNNYVALE,SANTA CLARA,California,94086,"TRW MICROWAVE, INC (BUILDING 825)"
9,TUCSON,PIMA,Arizona,85734,TUCSON INTERNATIONAL AIRPORT AREA
9,RICHMOND,CONTRA COSTA,California,94804,UNITED HECKATHORN CO.
9,TURLOCK,STANISLAUS,California,95380,"VALLEY WOOD PRESERVING, INC."
9,SANTA FE SPRINGS,LOS ANGELES,California,90670,"WASTE DISPOSAL, INC."
9,SCOTTS VALLEY,SANTA CRUZ,California,95066,WATKINS-JOHNSON CO. (STEWART DIVISION PLANT)
9,OROVILLE,BUTTE,California,95965,WESTERN PACIFIC RAILROAD CO.
9,SUNNYVALE,SANTA CLARA,California,95117,WESTINGHOUSE ELECTRIC CORP. (SUNNYVALE PLANT)
9,CHANDLER,MARICOPA,Arizona,85224,WILLIAMS AIR FORCE BASE
9,YUMA,YUMA,Arizona,85369,YUMA MARINE CORPS AIR STATION
10,ADAK,[blank county],Alaska,99546,ADAK NAVAL AIR STATION
10,FAIRBANKS,FAIRBANKS NORTH STAR,Alaska,99701,ALASKA BATTERY ENTERPRISES
10,ANCHORAGE,ANCHORAGE,Alaska,99501,ALASKA RAILROAD ANCHORAGE YARD
10,VANCOUVER,CLARK,Washington,98660,ALCOA (VANCOUVER SMELTER)
10,PORTLAND,MULTNOMAH,Oregon,97211,"ALLIED PLATING, INC."
10,CHEHALIS,LEWIS,Washington,98532,AMERICAN CROSSARM & CONDUIT CO.
10,TACOMA,PIERCE,Washington,98438,AMERICAN LAKE GARDENS/MCCHORD AFB
10,FAIRBANKS,[blank county],Alaska,99701,ARCTIC SURPLUS
10,RATHDRUM,KOOTENAI,Idaho,83858,ARRCOM (DREXLER ENTERPRISES)
10,ASTORIA,CLATSOP,Oregon,97103,ASTORIA MARINE CONSTRUCTION COMPANY
10,SILVERDALE,KITSAP,Washington,98315,BANGOR NAVAL SUBMARINE BASE
10,BREMERTON,KITSAP,Washington,98315,BANGOR ORDNANCE DISPOSAL (USNAVY)
10,COTTAGE GROVE,LANE,Oregon,97424,BLACK BUTTE MINE
10,LEMHI COUNTY,LEMHI,Idaho,83469,BLACKBIRD MINE
10,MARYSVILLE,SNOHOMISH,Washington,98270,BOEING COMPANY TULALIP TEST SITE
10,VANCOUVER,CLARK,Washington,98666,BONNEVILLE POWER ADMINISTRATION ROSS COMPLEX (USDOE)
10,VANCOUVER,CLARK,Washington,98661,BOOMSNUB/AIRCO
10,BREMERTON,KITSAP,Washington,98337,BREMERTON GASWORKS
10,SMELTERVILLE,SHOSHONE,Idaho,83837,BUNKER HILL MINING & METALLURGICAL COMPLEX
10,CENTRALIA,LEWIS,Washington,98531,CENTRALIA MUNICIPAL LANDFILL
10,SPOKANE,SPOKANE,Washington,99005,COLBERT LANDFILL
10,TACOMA,PIERCE,Washington,98421,"COMMENCEMENT BAY, NEAR SHORE/TIDE FLATS"
10,TACOMA,PIERCE,Washington,98402,"COMMENCEMENT BAY, SOUTH TACOMA CHANNEL"
10,POCATELLO,[blank county],Idaho,83201,EASTERN MICHAUD FLATS CONTAMINATION
10,FAIRBANKS,FAIRBANKS NORTH STAR,Alaska,99702,EIELSON AIR FORCE BASE
10,ANCHORAGE,[blank county],Alaska,99506,ELMENDORF AIR FORCE BASE
10,SPOKANE,SPOKANE,Washington,99011,FAIRCHILD AIR FORCE BASE (4 WASTE AREAS)
10,YAKIMA,YAKIMA,Washington,98903,FMC CORP. (YAKIMA)
10,RIDDLE,DOUGLAS,Oregon,97463,FORMOSA MINE
10,TACOMA,PIERCE,Washington,98433,FORT LEWIS (LANDFILL NO. 5)
10,TILLICUM,PIERCE,Washington,98433,FORT LEWIS LOGISTICS CENTER
10,ANCHORAGE,[blank county],Alaska,99505,FORT RICHARDSON (USARMY)
10,FORT WAINWRIGHT,[blank county],Alaska,99703,FORT WAINWRIGHT
10,LAKEVIEW,LAKE,Oregon,97630,FREMONT NATIONAL FOREST/WHITE KING AND LUCKY LASS URANIUM MINES (USDA)
10,VANCOUVER,CLARK,Washington,98661,"FRONTIER HARD CHROME, INC."
10,SPOKANE,SPOKANE,Washington,99211,GENERAL ELECTRIC CO. (SPOKANE APPARATUS SERVICE SHOP)
10,PORTLAND,MULTNOMAH,Oregon,97208,"GOULD, INC."
10,FREEMAN,SPOKANE,Washington,99030,GRAIN HANDLING FACILITY AT FREEMAN
10,SPOKANE COUNTY,SPOKANE,Washington,99019,GREENACRES LANDFILL
10,NORTH BONNEVILLE,SKAMANIA,Washington,98648,HAMILTON ISLAND LANDFILL (USA/COE)
10,CHEHALIS,LEWIS,Washington,98532,HAMILTON/LABREE ROADS GW CONTAMINATION
10,BENTON COUNTY,BENTON,Washington,99352,HANFORD 100-AREA (USDOE)
10,BENTON COUNTY,BENTON,Washington,99352,HANFORD 1100-AREA (USDOE)
10,BENTON COUNTY,BENTON,Washington,99352,HANFORD 200-AREA (USDOE)
10,BENTON COUNTY,BENTON,Washington,99352,HANFORD 300-AREA (USDOE)
10,SEATTLE,KING,Washington,98134,HARBOR ISLAND (LEAD)
10,PORTLAND,MULTNOMAH,Oregon,97217,HARBOR OIL INC.
10,PIERCE COUNTY,PIERCE,Washington,98371,HIDDEN VALLEY LANDFILL (THUN FIELD)
10,IDAHO FALLS,[blank county],Idaho,83401,IDAHO NATIONAL ENGINEERING LABORATORY (USDOE)
10,KITSAP COUNTY,KITSAP,Washington,98312,JACKSON PARK HOUSING COMPLEX (USNAVY)
10,JOSEPH,WALLOWA,Oregon,97846,JOSEPH FOREST PRODUCTS
10,MEAD,SPOKANE,Washington,99207,KAISER ALUMINUM (MEAD WORKS)
10,SODA SPRINGS,CARIBOU,Idaho,83276,KERR-MCGEE CHEMICAL CORP. (SODA SPRINGS PLANT)
10,LAKEWOOD,PIERCE,Washington,98438,LAKEWOOD
10,SEATTLE,KING,Washington,98106,LOCKHEED WEST SEATTLE
10,SEATTLE,KING,Washington,98168,LOWER DUWAMISH WATERWAY
10,NEAH BAY,CLALLAM,Washington,98357,MAKAH RESERVATION WARMHOUSE BEACH DUMP
10,THE DALLES,WASCO,Oregon,97058,MARTIN-MARIETTA ALUMINUM CO.
10,TACOMA,PIERCE,Washington,98438,MCCHORD AIR FORCE BASE (WASH RACK/TREATMENT AREA)
10,PORTLAND,MULTNOMAH,Oregon,97203,MCCORMICK & BAXTER CREOSOTING CO. (PORTLAND PLANT)
10,MICA,SPOKANE,Washington,99211,MICA LANDFILL
10,WELLPINIT,STEVENS,Washington,99040,MIDNITE MINE
10,KENT,KING,Washington,98031,MIDWAY LANDFILL
10,SODA SPRINGS,CARIBOU,Idaho,83276,MONSANTO CHEMICAL CO. (SODA SPRINGS PLANT)
10,MOSES LAKE,GRANT,Washington,98837,MOSES LAKE WELLFIELD CONTAMINATION
10,MOUNTAIN HOME,ELMORE,Idaho,83648,MOUNTAIN HOME AIR FORCE BASE
10,WHIDBEY ISLAND,ISLAND,Washington,98278,"NAVAL AIR STATION, WHIDBEY ISLAND (AULT FIELD)"
10,WHIDBEY ISLAND,ISLAND,Washington,98278,"NAVAL AIR STATION, WHIDBEY ISLAND (SEAPLANE BASE)"
10,KEYPORT,KITSAP,Washington,98345,NAVAL UNDERSEA WARFARE ENGINEERING STATION (4 WASTE AREAS)
10,SPOKANE,SPOKANE,Washington,99207,NORTH MARKET STREET
10,KLAMATH FALLS,KLAMATH,Oregon,97601,NORTH RIDGE ESTATES
10,SPOKANE,SPOKANE,Washington,99208,NORTHSIDE LANDFILL
10,CLACKAMAS,CLACKAMAS,Oregon,97015,NORTHWEST PIPE & CASING/HALL PROCESS COMPANY
10,EVERSON,WHATCOM,Washington,98247,NORTHWEST TRANSFORMER
10,EVERSON,WHATCOM,Washington,98247,NORTHWEST TRANSFORMER (SOUTH HARKNESS STREET)
10,BELLINGHAM,WHATCOM,Washington,98225,OESER CO.
10,SPOKANE,SPOKANE,Washington,99216,OLD INLAND PIT
10,MANCHESTER,KITSAP,Washington,98352,OLD NAVY DUMP/MANCHESTER LABORATORY (USEPA/NOAA)
10,RENTON,KING,Washington,98055,PACIFIC CAR & FOUNDRY CO.
10,POCATELLO,BANNOCK,Idaho,83201,PACIFIC HIDE & FUR RECYCLING CO.
10,SEATTLE,KING,Washington,98126,PACIFIC SOUND RESOURCES
10,TUMWATER,THURSTON,Washington,98501,PALERMO WELL FIELD GROUND WATER CONTAMINATION
10,PASCO,FRANKLIN,Washington,99301,PASCO SANITARY LANDFILL
10,YAKIMA,YAKIMA,Washington,98902,PESTICIDE LAB (YAKIMA)
10,INDIAN ISLAND,JEFFERSON,Washington,98358,PORT HADLOCK DETACHMENT (USNAVY)
10,PORTLAND,MULTNOMAH,Oregon,97231,PORTLAND HARBOR
10,BREMERTON,KITSAP,Washington,98310,PUGET SOUND NAVAL SHIPYARD COMPLEX
10,MAPLE VALLEY,KING,Washington,98038,QUEEN CITY FARMS
10,RENTON,KING,Washington,98055,QUENDALL TERMINALS
10,TROUTDALE,MULTNOMAH,Oregon,97060,REYNOLDS METALS COMPANY
10,THORNE BAY,[blank county],Alaska,99919,SALT CHUCK MINE
10,KENT,KING,Washington,98031,SEATTLE MUNICIPAL LANDFILL (KENT HIGHLANDS)
10,LOOMIS,OKANOGAN,Washington,98827,SILVER MOUNTAIN MINE
10,SPOKANE,SPOKANE,Washington,99207,SPOKANE JUNKYARD/ASSOCIATED PROPERTIES
10,ST. MARIES,BENEWAH,Idaho,83861,ST. MARIES CREOSOTE
10,ANCHORAGE,ANCHORAGE,Alaska,99501,STANDARD STEEL & METALS SALVAGE YARD (USDOT)
10,STIBNITE,VALLEY,Idaho,83677,STIBNITE/YELLOW PINE MINING AREA
10,SHERIDAN,YAMHILL,Oregon,97378,TAYLOR LUMBER AND TREATING
10,ALBANY,LINN,Oregon,97321,TELEDYNE WAH CHANG
10,BRUSH PRAIRIE,CLARK,Washington,98606,TOFTDAHL DRUMS
10,MARYSVILLE,SNOHOMISH,Washington,98270,TULALIP LANDFILL
10,HERMISTON,MORROW,Oregon,97844,UMATILLA ARMY DEPOT (LAGOONS)
10,POCATELLO,BANNOCK,Idaho,83201,UNION PACIFIC RAILROAD CO.
10,THE DALLES,WASCO,Oregon,97058,UNION PACIFIC RAILROAD CO. TIE-TREATING PLANT
10,CORVALLIS,BENTON,Oregon,97330,"UNITED CHROME PRODUCTS, INC."
10,VANCOUVER,CLARK,Washington,98663,VANCOUVER WATER STATION #1 CONTAMINATION
10,VANCOUVER,CLARK,Washington,98661,VANCOUVER WATER STATION #4 CONTAMINATION
10,KENT,KING,Washington,98031,"WESTERN PROCESSING CO., INC."
10,BAINBRIDGE ISLAND,KITSAP,Washington,98110,WYCKOFF CO./EAGLE HARBOR
10,YAKIMA,YAKIMA,Washington,98902,YAKIMA PLATING CO.
